,﻿origin,geocode_name,lat,lng,country,city,adm1,adm2
0,Киев,"Kyiv, Kyiv city, Ukraine",50.4501,30.5234,Ukraine,Kyiv,Kyiv city,Kyiv City
1,Київ,"Kyiv, Kyiv city, Ukraine",50.4501,30.5234,Ukraine,Kyiv,Kyiv city,Kyiv City
2,"м.Кременчук, Полтавська обл.","Kremenchuk, Poltavs'ka oblast, Ukraine",49.065783,33.410033,Ukraine,Kremenchuk,Poltavs'ka oblast,
3,м.Маріуполь,"Mariupol', Donetsk Oblast, Ukraine",47.097133,37.543366999999996,Ukraine,Mariupol',Donetsk Oblast,
4,,,,,,,,
5,Харків,"Kharkiv, Kharkiv Oblast, Ukraine",49.9935,36.230383,Ukraine,Kharkiv,Kharkiv Oblast,
6,Одеса,"Odessa, Odessa Oblast, Ukraine",46.482526,30.723309499999996,Ukraine,Odessa,Odessa Oblast,
7,Місто Київ,"Kyiv, Kyiv city, Ukraine",50.4501,30.5234,Ukraine,Kyiv,Kyiv city,Kyiv City
8,kuev,"Kyiv, Kyiv city, Ukraine",50.4501,30.5234,Ukraine,Kyiv,Kyiv city,Kyiv City
9,м.Тернопіль,"Ternopil, Ternopil's'ka oblast, Ukraine",49.553517,25.594767,Ukraine,Ternopil,Ternopil's'ka oblast,
10,Бровари,"Brovary, Kyivs'ka oblast, Ukraine",50.511083,30.7909,Ukraine,Brovary,Kyivs'ka oblast,
11, Житомир,"Zhytomyr, Zhytomyrs'ka oblast, Ukraine",50.25465,28.658666999999998,Ukraine,Zhytomyr,Zhytomyrs'ka oblast,
12,Донецк,"Donetsk, Donetsk Oblast, Ukraine",48.015883,37.80285,Ukraine,Donetsk,Donetsk Oblast,
13,Чернівці,"Chernivtsi, Chernivets'ka oblast, Ukraine",48.2920787,25.9358367,Ukraine,Chernivtsi,Chernivets'ka oblast,
14,Львів,"Lviv, Lviv Oblast, Ukraine",49.839683,24.029717,Ukraine,Lviv,Lviv Oblast,
15,Івано-Франківськ,"Ivano-Frankivsk, Ivano-Frankivs'ka oblast, Ukraine",48.922633000000005,24.711117,Ukraine,Ivano-Frankivsk,Ivano-Frankivs'ka oblast,
16,Запоріжжя,"Zaporizhia, Zaporiz'ka oblast, Ukraine",47.8388,35.139567,Ukraine,Zaporizhia,Zaporiz'ka oblast,
17,Вінниця,"Vinnytsia, Vinnyts'ka oblast, Ukraine",49.233083,28.468217,Ukraine,Vinnytsia,Vinnyts'ka oblast,
18,Kharkiv,"Kharkiv, Kharkiv Oblast, Ukraine",49.9935,36.230383,Ukraine,Kharkiv,Kharkiv Oblast,
19,Херсон,"Kherson, Khersons'ka oblast, Ukraine",46.635417,32.616867,Ukraine,Kherson,Khersons'ka oblast,
20,Kiev,"Kyiv, Kyiv city, Ukraine",50.4501,30.5234,Ukraine,Kyiv,Kyiv city,Kyiv City
21,м.Київ,"Kyiv, Kyiv city, Ukraine",50.4501,30.5234,Ukraine,Kyiv,Kyiv city,Kyiv City
22,lviv,"Lviv, Lviv Oblast, Ukraine",49.839683,24.029717,Ukraine,Lviv,Lviv Oblast,
23,м. Київ,"Kyiv, Kyiv city, Ukraine",50.4501,30.5234,Ukraine,Kyiv,Kyiv city,Kyiv City
24,г.Одесса,"Odessa, Odessa Oblast, Ukraine",46.482526,30.723309499999996,Ukraine,Odessa,Odessa Oblast,
25,Kyiv,"Kyiv, Kyiv city, Ukraine",50.4501,30.5234,Ukraine,Kyiv,Kyiv city,Kyiv City
26,Крим,Crimea,44.952117,34.102416999999996,,,Crimea,
27,г.Киев,"Kyiv, Kyiv city, Ukraine",50.4501,30.5234,Ukraine,Kyiv,Kyiv city,Kyiv City
28,м. Харків,"Kharkiv, Kharkiv Oblast, Ukraine",49.9935,36.230383,Ukraine,Kharkiv,Kharkiv Oblast,
29,Тернопіль,"Ternopil, Ternopil's'ka oblast, Ukraine",49.553517,25.594767,Ukraine,Ternopil,Ternopil's'ka oblast,
30,Полтава,"Poltava, Poltavs'ka oblast, Ukraine",49.58826699999999,34.551417,Ukraine,Poltava,Poltavs'ka oblast,
31,Дрогобич,"Drohobych, Lviv Oblast, Ukraine",49.358011600000005,23.5123193,Ukraine,Drohobych,Lviv Oblast,
32,Кіровоград,"Kirovohrad, Kirovohrads'ka oblast, Ukraine",48.50793300000001,32.262316999999996,Ukraine,Kirovohrad,Kirovohrads'ka oblast,
33,Мукачево,"Mukacheve, Zakarpats'ka oblast, Ukraine",48.45,22.75,Ukraine,Mukacheve,Zakarpats'ka oblast,
34,м. Суми,"Sumy, Sums'ka oblast, Ukraine",50.9077,34.7981,Ukraine,Sumy,Sums'ka oblast,Sums'kyi district
35,Житомир,"Zhytomyr, Zhytomyrs'ka oblast, Ukraine",50.25465,28.658666999999998,Ukraine,Zhytomyr,Zhytomyrs'ka oblast,
36,Ужгород,"Uzhhorod, Zakarpats'ka oblast, Ukraine",48.6208,22.287882999999997,Ukraine,Uzhhorod,Zakarpats'ka oblast,
37,Шепетівка,"Shepetivka, Khmel'nyts'ka oblast, Ukraine",50.183333000000005,27.066667,Ukraine,Shepetivka,Khmel'nyts'ka oblast,
38,Маневичі,"Manevychi, Volyns'ka oblast, Ukraine",51.293889,25.532778,Ukraine,Manevychi,Volyns'ka oblast,Manevyts'kyi district
39,Луцьк,"Lutsk, Volyns'ka oblast, Ukraine",50.74723299999999,25.325383,Ukraine,Lutsk,Volyns'ka oblast,
40,Ізмаїл,"Izmail, Odessa Oblast, Ukraine",45.351667,28.836389,Ukraine,Izmail,Odessa Oblast,Izmail's'kyi district
41,"м.Ромни, Сумська обл.","Romny, Sums'ka oblast, Ukraine",50.75,33.466667,Ukraine,Romny,Sums'ka oblast,
42,Дніпропетровськ,"Dnepropetrovsk, Dnipropetrovsk Oblast, Ukraine",48.464717,35.046183,Ukraine,Dnepropetrovsk,Dnipropetrovsk Oblast,
43,КИЇВ ,"Kyiv, Kyiv city, Ukraine",50.4501,30.5234,Ukraine,Kyiv,Kyiv city,Kyiv City
44,Izmail,"Izmail, Odessa Oblast, Ukraine",45.351667,28.836389,Ukraine,Izmail,Odessa Oblast,Izmail's'kyi district
45,Poltava,"Poltava, Poltavs'ka oblast, Ukraine",49.58826699999999,34.551417,Ukraine,Poltava,Poltavs'ka oblast,
46,м. Полтава,"Poltava, Poltavs'ka oblast, Ukraine",49.58826699999999,34.551417,Ukraine,Poltava,Poltavs'ka oblast,
47,Обухів/Київ,"Kyiv, Kyiv city, Ukraine",50.4501,30.5234,Ukraine,Kyiv,Kyiv city,Kyiv City
48,"Коломия, Івано-Франківська обл.","Kolomyya, Ivano-Frankivs'ka oblast, Ukraine",48.530556,25.040278,Ukraine,Kolomyya,Ivano-Frankivs'ka oblast,Kolomyis'kyi district
49,львів,"Lviv, Lviv Oblast, Ukraine",49.839683,24.029717,Ukraine,Lviv,Lviv Oblast,
50,Бориспіль,"Boryspil', Kyivs'ka oblast, Ukraine",50.3482,30.95615,Ukraine,Boryspil',Kyivs'ka oblast,
51,Запоріжж,"Zaporizhia, Zaporiz'ka oblast, Ukraine",47.8388,35.139567,Ukraine,Zaporizhia,Zaporiz'ka oblast,
52,Київ ,"Kyiv, Kyiv city, Ukraine",50.4501,30.5234,Ukraine,Kyiv,Kyiv city,Kyiv City
53,Днепропетровск,"Dnepropetrovsk, Dnipropetrovsk Oblast, Ukraine",48.464717,35.046183,Ukraine,Dnepropetrovsk,Dnipropetrovsk Oblast,
54,Одеса ,"Odessa, Odessa Oblast, Ukraine",46.482526,30.723309499999996,Ukraine,Odessa,Odessa Oblast,
55,"м. Люботин, Харківська обл.","Lyubotyn, Kharkiv Oblast, Ukraine",49.95,35.929444000000004,Ukraine,Lyubotyn,Kharkiv Oblast,
56,Надвірна,"Nadvirna, Ivano-Frankivs'ka oblast, Ukraine",48.633333,24.583333,Ukraine,Nadvirna,Ivano-Frankivs'ka oblast,Nadvornyans'kyi district
57,Черкаси,"Cherkasy, Cherkas'ka oblast, Ukraine",49.444433000000004,32.059767,Ukraine,Cherkasy,Cherkas'ka oblast,
58,м.Хмельницький,"Khmelnytskyi, Khmel'nyts'ka oblast, Ukraine",49.422983,26.987133,Ukraine,Khmelnytskyi,Khmel'nyts'ka oblast,
59,"Tallinn,Estonia","Tallinn, Estonia",59.43696079999999,24.7535746,Estonia,Tallinn,Harju County,Tallinna linn
60,Острог,"Ostroh, Rivnens'ka oblast, Ukraine",50.333333,26.516666999999998,Ukraine,Ostroh,Rivnens'ka oblast,
61,м.Харків,"Kharkiv, Kharkiv Oblast, Ukraine",49.9935,36.230383,Ukraine,Kharkiv,Kharkiv Oblast,
62,Донецьк,"Donetsk, Donetsk Oblast, Ukraine",48.015883,37.80285,Ukraine,Donetsk,Donetsk Oblast,
63,м. Львів,"Lviv, Lviv Oblast, Ukraine",49.839683,24.029717,Ukraine,Lviv,Lviv Oblast,
64,Lviv,"Lviv, Lviv Oblast, Ukraine",49.839683,24.029717,Ukraine,Lviv,Lviv Oblast,
65,Rb]d,"RB, Goodyear, AZ 85338, USA",33.3671645,-112.38803390000001,United States,Goodyear,Arizona,Maricopa County
66,Харьков,"Kharkiv, Kharkiv Oblast, Ukraine",49.9935,36.230383,Ukraine,Kharkiv,Kharkiv Oblast,
67, Киев,"Kyiv, Kyiv city, Ukraine",50.4501,30.5234,Ukraine,Kyiv,Kyiv city,Kyiv City
68,"Одеська обл, Великомихайлівський р-н, с. Новоселівка","Novoselivka, Odessa Oblast, Ukraine",46.992222,29.911944000000002,Ukraine,Novoselivka,Odessa Oblast,Velykomykhailivs'kyi district
69,Николаев,"Mykolaiv, Mykolaivs'ka oblast, Ukraine",46.975033,31.994583000000002,Ukraine,Mykolaiv,Mykolaivs'ka oblast,
70,м. Бровари,"Brovary, Kyivs'ka oblast, Ukraine",50.511083,30.7909,Ukraine,Brovary,Kyivs'ka oblast,
71,с. Проліски,"Prolisky, Kyivs'ka oblast, Ukraine",50.393333,30.788333,Ukraine,Prolisky,Kyivs'ka oblast,Boryspil's'kyi district
72,"м.Олександрія, Кіровоградська обл.","Oleksandriya, Kirovohrads'ka oblast, Ukraine",48.666667,33.116667,Ukraine,Oleksandriya,Kirovohrads'ka oblast,
73,місто Київ,"Kyiv, Kyiv city, Ukraine",50.4501,30.5234,Ukraine,Kyiv,Kyiv city,Kyiv City
74,м. Вінниця,"Vinnytsia, Vinnyts'ka oblast, Ukraine",49.233083,28.468217,Ukraine,Vinnytsia,Vinnyts'ka oblast,
75,kiev,"Kyiv, Kyiv city, Ukraine",50.4501,30.5234,Ukraine,Kyiv,Kyiv city,Kyiv City
76,Krasnodon,"Krasnodon, Luhans'ka oblast, Ukraine",48.3,39.73333299999999,Ukraine,Krasnodon,Luhans'ka oblast,
77,м.Житомир,"Zhytomyr, Zhytomyrs'ka oblast, Ukraine",50.25465,28.658666999999998,Ukraine,Zhytomyr,Zhytomyrs'ka oblast,
78,Рівне,"Rivne, Rivnens'ka oblast, Ukraine",50.6199,26.251617,Ukraine,Rivne,Rivnens'ka oblast,
79,"м. Кременчук, Полтавська обл.","Kremenchuk, Poltavs'ka oblast, Ukraine",49.065783,33.410033,Ukraine,Kremenchuk,Poltavs'ka oblast,
80,Кривий Ріг ,"Kryvyi Rih, Dnipropetrovsk Oblast, Ukraine",47.910483,33.391783000000004,Ukraine,Kryvyi Rih,Dnipropetrovsk Oblast,
81,"Гвадалахара, Мексика","Guadalajara, JAL, Mexico",20.6596988,-103.3496092,Mexico,Guadalajara,Jalisco,
82,"м.Камінь-Каширський, (Волинська обл.)","Kamin'-Kashyrs'kyi, Volyns'ka oblast, Ukraine",51.624167,24.960556,Ukraine,Kamin'-Kashyrs'kyi,Volyns'ka oblast,Kamin'-Kashyrs'kyi district
83,Dnipropetrovsk,"Dnepropetrovsk, Dnipropetrovsk Oblast, Ukraine",48.464717,35.046183,Ukraine,Dnepropetrovsk,Dnipropetrovsk Oblast,
84,м. Макіївка,"Makiivka, Donetsk Oblast, Ukraine",48.0459557,37.9666901,Ukraine,Makiivka,Donetsk Oblast,
85,Черкаська  область  Катеринопільський  район  село  Ярошівка,"Yaroshivka, Cherkas'ka oblast, Ukraine",48.77,31.255556,Ukraine,Yaroshivka,Cherkas'ka oblast,Katerynopil's'kyi district
86,Винница,"Vinnytsia, Vinnyts'ka oblast, Ukraine",49.233083,28.468217,Ukraine,Vinnytsia,Vinnyts'ka oblast,
87,"Україна, Одеса","Odessa, Odessa Oblast, Ukraine",46.482526,30.723309499999996,Ukraine,Odessa,Odessa Oblast,
88,Ірпінь ,"Irpin' river, Ukraine",50.4095625,29.961174100000004,Ukraine,,,
89,м. Одеса,"Odessa, Odessa Oblast, Ukraine",46.482526,30.723309499999996,Ukraine,Odessa,Odessa Oblast,
90,Миколаїв,"Mykolaiv, Mykolaivs'ka oblast, Ukraine",46.975033,31.994583000000002,Ukraine,Mykolaiv,Mykolaivs'ka oblast,
91,м.Дніпропетровськ,"Dnepropetrovsk, Dnipropetrovsk Oblast, Ukraine",48.464717,35.046183,Ukraine,Dnepropetrovsk,Dnipropetrovsk Oblast,
92,"м. Ужгород, Закарпатська обл.","Uzhhorod, Zakarpats'ka oblast, Ukraine",48.6208,22.287882999999997,Ukraine,Uzhhorod,Zakarpats'ka oblast,
93,Melitopol,"Melitopol', Zaporiz'ka oblast, Ukraine",46.833333,35.366667,Ukraine,Melitopol',Zaporiz'ka oblast,
94,Олександрія,"Alexandria, Alexandria Governorate, Egypt",31.2000924,29.9187387,Egypt,Alexandria,Alexandria Governorate,
95,Lutsk,"Lutsk, Volyns'ka oblast, Ukraine",50.74723299999999,25.325383,Ukraine,Lutsk,Volyns'ka oblast,
96,м.Рівне,"Rivne, Rivnens'ka oblast, Ukraine",50.6199,26.251617,Ukraine,Rivne,Rivnens'ka oblast,
97,Доброполье,"Dobropillya, Donetsk Oblast, Ukraine",48.420039,37.052291,Ukraine,Dobropillya,Donetsk Oblast,Dobropil's'kyi district
98,Переяслав-хмельницький,"Pereyaslav-Khmel'nyts'kyi, Kyivs'ka oblast, Ukraine",50.066111,31.442221999999997,Ukraine,Pereyaslav-Khmel'nyts'kyi,Kyivs'ka oblast,
99,Irpin,"Irpin', Kyivs'ka oblast, Ukraine",50.51875,30.239783000000003,Ukraine,Irpin',Kyivs'ka oblast,
100,Шостка,"Shostka, Sums'ka oblast, Ukraine",51.866667,33.483333,Ukraine,Shostka,Sums'ka oblast,
101,Нікополь,"Nikopol', Dnipropetrovsk Oblast, Ukraine",47.56746,34.394815,Ukraine,Nikopol',Dnipropetrovsk Oblast,
102,Donetsk,"Donetsk, Donetsk Oblast, Ukraine",48.015883,37.80285,Ukraine,Donetsk,Donetsk Oblast,
103,с. Бистричі,"Bystrychi, Rivnens'ka oblast, Ukraine",50.882222,26.905833,Ukraine,Bystrychi,Rivnens'ka oblast,Bereznivs'kyi district
104,Бердичів,"Berdychiv, Zhytomyrs'ka oblast, Ukraine",49.9,28.566667,Ukraine,Berdychiv,Zhytomyrs'ka oblast,
105,Токмак,"Tokmak, Zaporiz'ka oblast, Ukraine",47.25,35.7,Ukraine,Tokmak,Zaporiz'ka oblast,
106,Одесса,"Odessa, Odessa Oblast, Ukraine",46.482526,30.723309499999996,Ukraine,Odessa,Odessa Oblast,
107,м. Краснодон,"Krasnodon, Luhans'ka oblast, Ukraine",48.3,39.73333299999999,Ukraine,Krasnodon,Luhans'ka oblast,
108,"Украина, город Кривой Рог","Kryvyi Rih, Dnipropetrovsk Oblast, Ukraine",47.910483,33.391783000000004,Ukraine,Kryvyi Rih,Dnipropetrovsk Oblast,
109,м. Буча,"Bucha, Kyivs'ka oblast, Ukraine",50.4468014,30.075619699999997,Ukraine,Bucha,Kyivs'ka oblast,Kyjevo-Svyatoshyns'kyi district
110,"Одеса,село Великий Дальник","Odessa, Odessa Oblast, Ukraine",46.482526,30.723309499999996,Ukraine,Odessa,Odessa Oblast,
111,м.Одесса,"Odessa, Odessa Oblast, Ukraine",46.482526,30.723309499999996,Ukraine,Odessa,Odessa Oblast,
112,м.Луцьк,"Lutsk, Volyns'ka oblast, Ukraine",50.74723299999999,25.325383,Ukraine,Lutsk,Volyns'ka oblast,
113,м.Острог,"Ostroh, Rivnens'ka oblast, Ukraine",50.333333,26.516666999999998,Ukraine,Ostroh,Rivnens'ka oblast,
114,Ivano-Frankivsk,"Ivano-Frankivsk, Ivano-Frankivs'ka oblast, Ukraine",48.922633000000005,24.711117,Ukraine,Ivano-Frankivsk,Ivano-Frankivs'ka oblast,
115,Краматорськ,"Kramatorsk, Donetsk Oblast, Ukraine",48.738966999999995,37.58435,Ukraine,Kramatorsk,Donetsk Oblast,
116,г. Днепродзержинск,"Dniprodzerzhyns'k, Dnipropetrovsk Oblast, Ukraine",48.523117,34.613683,Ukraine,Dniprodzerzhyns'k,Dnipropetrovsk Oblast,
117,Суми,"Sumy, Sums'ka oblast, Ukraine",50.9077,34.7981,Ukraine,Sumy,Sums'ka oblast,Sums'kyi district
118,New York,"New York, NY, USA",40.7127837,-74.00594129999999,United States,New York,New York,New York County
119,Васильків,"Vasyl'kiv, Kyivs'ka oblast, Ukraine",50.17833299999999,30.31583299999999,Ukraine,Vasyl'kiv,Kyivs'ka oblast,
120,Сарни,"Sarny, Rivnens'ka oblast, Ukraine",51.337222,26.605833,Ukraine,Sarny,Rivnens'ka oblast,Sarnens'kyi district
121,м. Квідзин,"Kwidzyn, Poland",53.72635289999999,18.932304300000002,Poland,Kwidzyn,Pomeranian Voivodeship,Kwidzyn County
122,м. Херсон,"Kherson, Khersons'ka oblast, Ukraine",46.635417,32.616867,Ukraine,Kherson,Khersons'ka oblast,
123,ТЕРНОПІЛЬ,"Ternopil, Ternopil's'ka oblast, Ukraine",49.553517,25.594767,Ukraine,Ternopil,Ternopil's'ka oblast,
124,Каховка,"Kakhovka, Khersons'ka oblast, Ukraine",46.8,33.466667,Ukraine,Kakhovka,Khersons'ka oblast,
125,ХМЕЛЬНИЦЬКИЙ,"Khmelnytskyi, Khmel'nyts'ka oblast, Ukraine",49.422983,26.987133,Ukraine,Khmelnytskyi,Khmel'nyts'ka oblast,
126,Lwiw,"Lviv, Lviv Oblast, Ukraine",49.839683,24.029717,Ukraine,Lviv,Lviv Oblast,
127,м.Одеса,"Odessa, Odessa Oblast, Ukraine",46.482526,30.723309499999996,Ukraine,Odessa,Odessa Oblast,
128,Белая Церковь Киевская обл.,"Bila Tserkva, Kyivs'ka oblast, Ukraine",49.798889,30.115278000000004,Ukraine,Bila Tserkva,Kyivs'ka oblast,
129,Біла Церква,"Bila Tserkva, Kyivs'ka oblast, Ukraine",49.798889,30.115278000000004,Ukraine,Bila Tserkva,Kyivs'ka oblast,
130,Turin,"Turin, Italy",45.070312,7.686856499999998,Italy,Turin,Piedmont,Turin
131,Кременчуг,"Kremenchuk, Poltavs'ka oblast, Ukraine",49.065783,33.410033,Ukraine,Kremenchuk,Poltavs'ka oblast,
132,Вишгород,"Vyshhorod, Kyivs'ka oblast, Ukraine",50.5904776,30.4831982,Ukraine,Vyshhorod,Kyivs'ka oblast,Vyshhorods'kyi district
133,Odessa,"Odessa, Odessa Oblast, Ukraine",46.482526,30.723309499999996,Ukraine,Odessa,Odessa Oblast,
134,"Полтава
","Poltava, Poltavs'ka oblast, Ukraine",49.58826699999999,34.551417,Ukraine,Poltava,Poltavs'ka oblast,
135,Запорожье,"Zaporizhia, Zaporiz'ka oblast, Ukraine",47.8388,35.139567,Ukraine,Zaporizhia,Zaporiz'ka oblast,
136,Боярка,"Boyarka, Kyivs'ka oblast, Ukraine",50.317116999999996,30.298167,Ukraine,Boyarka,Kyivs'ka oblast,Kyjevo-Svyatoshyns'kyi district
137,"м. Новодружеськ, Луганська обл. ","Novodruzhes'k, Luhans'ka oblast, Ukraine",48.966667,38.35,Ukraine,Novodruzhes'k,Luhans'ka oblast,
138,Малин,"Malyn, Zhytomyrs'ka oblast, Ukraine",50.76888899999999,29.27,Ukraine,Malyn,Zhytomyrs'ka oblast,
139,Чернигов,"Chernihiv, Chernihivs'ka oblast, Ukraine",51.4982,31.28935,Ukraine,Chernihiv,Chernihivs'ka oblast,
140,м. Чернігів,"Chernihiv, Chernihivs'ka oblast, Ukraine",51.4982,31.28935,Ukraine,Chernihiv,Chernihivs'ka oblast,
141,м.Запоріжжя,"Zaporizhia, Zaporiz'ka oblast, Ukraine",47.8388,35.139567,Ukraine,Zaporizhia,Zaporiz'ka oblast,
142,місто Тараща Київської області ,"Tarashcha, Kyivs'ka oblast, Ukraine",49.55,30.5,Ukraine,Tarashcha,Kyivs'ka oblast,Tarashchans'kyi district
143,николаев,"Mykolaiv, Mykolaivs'ka oblast, Ukraine",46.975033,31.994583000000002,Ukraine,Mykolaiv,Mykolaivs'ka oblast,
144,Кривий Ріг,"Kryvyi Rih, Dnipropetrovsk Oblast, Ukraine",47.910483,33.391783000000004,Ukraine,Kryvyi Rih,Dnipropetrovsk Oblast,
145,"м. Дніпропетровськ, ж.м. Придніпровськ","Pridniprovsk, Dnepropetrovsk, Dnipropetrovsk Oblast, Ukraine",48.403472,35.136744,Ukraine,Dnepropetrovsk,Dnipropetrovsk Oblast,
146,"Iллiчiвськ, Одеська область","Illichivs'k, Odessa Oblast, Ukraine",46.2952236,30.648085499999997,Ukraine,Illichivs'k,Odessa Oblast,
147,"Україна,Львів","Lviv, Lviv Oblast, Ukraine",49.839683,24.029717,Ukraine,Lviv,Lviv Oblast,
148,м. Миколаїв,"Mykolaiv, Mykolaivs'ka oblast, Ukraine",46.975033,31.994583000000002,Ukraine,Mykolaiv,Mykolaivs'ka oblast,
149,м. Київ  ,"Kyiv, Kyiv city, Ukraine",50.4501,30.5234,Ukraine,Kyiv,Kyiv city,Kyiv City
150,смт. Чечельник,"Chechel'nyk, Vinnyts'ka oblast, Ukraine",48.217,29.35,Ukraine,Chechel'nyk,Vinnyts'ka oblast,Chechel'nyts'kyi district
151,Рівне ,"Rivne, Rivnens'ka oblast, Ukraine",50.6199,26.251617,Ukraine,Rivne,Rivnens'ka oblast,
152,м. Світловодськ,"Svitlovods'k, Kirovohrads'ka oblast, Ukraine",49.050278000000006,33.241944000000004,Ukraine,Svitlovods'k,Kirovohrads'ka oblast,
153,Глеваха,"Hlevakha, Kyivs'ka oblast, Ukraine",50.262221999999994,30.289444,Ukraine,Hlevakha,Kyivs'ka oblast,Vasyl'kivs'kyi district
154,Zp,"Z.P, Sheraval Kh., Maharashtra 415727, India",17.7007212,73.31774890000001,India,Sheraval Kh.,Maharashtra,Ratnagiri
155,м.Львів,"Lviv, Lviv Oblast, Ukraine",49.839683,24.029717,Ukraine,Lviv,Lviv Oblast,
156,м.Lviv,"Lviv, Lviv Oblast, Ukraine",49.839683,24.029717,Ukraine,Lviv,Lviv Oblast,
157,"Чернiвцi
","Chernivtsi, Chernivets'ka oblast, Ukraine",48.2920787,25.9358367,Ukraine,Chernivtsi,Chernivets'ka oblast,
158,м. Черкаси,"Cherkasy, Cherkas'ka oblast, Ukraine",49.444433000000004,32.059767,Ukraine,Cherkasy,Cherkas'ka oblast,
159,М.Київ,"Kyiv, Kyiv city, Ukraine",50.4501,30.5234,Ukraine,Kyiv,Kyiv city,Kyiv City
160,м.Чернігів,"Chernihiv, Chernihivs'ka oblast, Ukraine",51.4982,31.28935,Ukraine,Chernihiv,Chernihivs'ka oblast,
161,м. Запоріжжя,"Zaporizhia, Zaporiz'ka oblast, Ukraine",47.8388,35.139567,Ukraine,Zaporizhia,Zaporiz'ka oblast,
162,Чернігів,"Chernihiv, Chernihivs'ka oblast, Ukraine",51.4982,31.28935,Ukraine,Chernihiv,Chernihivs'ka oblast,
163,Коростень,"Korosten', Zhytomyrs'ka oblast, Ukraine",50.95,28.633333,Ukraine,Korosten',Zhytomyrs'ka oblast,
164,"Україна , Луганська область , місто Кремінна","Kreminna, Luhans'ka oblast, Ukraine",49.05,38.2167,Ukraine,Kreminna,Luhans'ka oblast,Kremins'kyi district
165,м.Бровари,"Brovary, Kyivs'ka oblast, Ukraine",50.511083,30.7909,Ukraine,Brovary,Kyivs'ka oblast,
166,м. Чернівці,"Chernivtsi, Chernivets'ka oblast, Ukraine",48.2920787,25.9358367,Ukraine,Chernivtsi,Chernivets'ka oblast,
167,м. Тернопіль,"Ternopil, Ternopil's'ka oblast, Ukraine",49.553517,25.594767,Ukraine,Ternopil,Ternopil's'ka oblast,
168,м. Вишневе,"Vyshneve, Kyivs'ka oblast, Ukraine",50.3919,30.368267,Ukraine,Vyshneve,Kyivs'ka oblast,Kyjevo-Svyatoshyns'kyi district
169,м. Бориспіль,"Boryspil', Kyivs'ka oblast, Ukraine",50.3482,30.95615,Ukraine,Boryspil',Kyivs'ka oblast,
170,"Киев
","Kyiv, Kyiv city, Ukraine",50.4501,30.5234,Ukraine,Kyiv,Kyiv city,Kyiv City
171,місто Львів,"Lviv, Lviv Oblast, Ukraine",49.839683,24.029717,Ukraine,Lviv,Lviv Oblast,
172,"Калуш
","Kalush, Ivano-Frankivs'ka oblast, Ukraine",49.04416699999999,24.359722,Ukraine,Kalush,Ivano-Frankivs'ka oblast,
173,Пекін,"Beijing, Beijing, China",39.90403,116.407526,China,Beijing,Beijing,
174,Фастів,"Fastiv, Kyivs'ka oblast, Ukraine",50.083333,29.916666999999997,Ukraine,Fastiv,Kyivs'ka oblast,
175,Кременчук,"Kremenchuk, Poltavs'ka oblast, Ukraine",49.065783,33.410033,Ukraine,Kremenchuk,Poltavs'ka oblast,
176,Iwano-Frankiwsk,"Ivano-Frankivsk, Ivano-Frankivs'ka oblast, Ukraine",48.922633000000005,24.711117,Ukraine,Ivano-Frankivsk,Ivano-Frankivs'ka oblast,
177,Тернопіль/Катовіце,"Katowice, Poland",50.26489189999999,19.023781500000002,Poland,Katowice,Silesian Voivodeship,Katowice
178,м. Нетішин,"Netishyn, Khmel'nyts'ka oblast, Ukraine",50.33397309999999,26.650084399999997,Ukraine,Netishyn,Khmel'nyts'ka oblast,
179,м.Чернівці,"Chernivtsi, Chernivets'ka oblast, Ukraine",48.2920787,25.9358367,Ukraine,Chernivtsi,Chernivets'ka oblast,
180,"Kyiv, Zhitomir","Zhytomyr, Zhytomyrs'ka oblast, Ukraine",50.25465,28.658666999999998,Ukraine,Zhytomyr,Zhytomyrs'ka oblast,
181,"Kiev (Ukraine), Szczecin (Poland)","Szczecin, Poland",53.4285438,14.5528116,Poland,Szczecin,West Pomeranian Voivodeship,Szczecin
182,Kharkiv ,"Kharkiv, Kharkiv Oblast, Ukraine",49.9935,36.230383,Ukraine,Kharkiv,Kharkiv Oblast,
183,"м.Старобыльськ, Луганська обл.","Starobil's'k, Luhans'ka oblast, Ukraine",49.2833,38.9167,Ukraine,Starobil's'k,Luhans'ka oblast,Starobil's'kyi district
184,Kyev,"Kyiv, Kyiv city, Ukraine",50.4501,30.5234,Ukraine,Kyiv,Kyiv city,Kyiv City
185,г. Харьков,"Kharkiv, Kharkiv Oblast, Ukraine",49.9935,36.230383,Ukraine,Kharkiv,Kharkiv Oblast,
186,"Київ,раніше Донецьк","Donetsk, Donetsk Oblast, Ukraine",48.015883,37.80285,Ukraine,Donetsk,Donetsk Oblast,
187,м.Івано-Франківськ,"Ivano-Frankivsk, Ivano-Frankivs'ka oblast, Ukraine",48.922633000000005,24.711117,Ukraine,Ivano-Frankivsk,Ivano-Frankivs'ka oblast,
188,м.Прилуки,"Pryluky, Chernihivs'ka oblast, Ukraine",50.59999999999999,32.4,Ukraine,Pryluky,Chernihivs'ka oblast,
189,Новомосковськ,"Novomoskovs'k, Dnipropetrovsk Oblast, Ukraine",48.633333,35.216667,Ukraine,Novomoskovs'k,Dnipropetrovsk Oblast,
190,м.Донецьк,"Donetsk, Donetsk Oblast, Ukraine",48.015883,37.80285,Ukraine,Donetsk,Donetsk Oblast,
191,"м.Славутич, Київська обл.","Slavutych, Kyivs'ka oblast, Ukraine",51.520556,30.756944,Ukraine,Slavutych,Kyivs'ka oblast,
192,місто Одеса,"Odessa, Odessa Oblast, Ukraine",46.482526,30.723309499999996,Ukraine,Odessa,Odessa Oblast,
193,місто Харків,"Kharkiv, Kharkiv Oblast, Ukraine",49.9935,36.230383,Ukraine,Kharkiv,Kharkiv Oblast,
194,Kuznetsovsk,"Kuznetsovsk, Rivnens'ka oblast, Ukraine",51.34365529999999,25.8490867,Ukraine,Kuznetsovsk,Rivnens'ka oblast,
195,київ,"Kyiv, Kyiv city, Ukraine",50.4501,30.5234,Ukraine,Kyiv,Kyiv city,Kyiv City
196,Лисичанськ Луганської області,"Lisichanskiy gorodskoy sud Luganskoy oblasti, Lysychans'k, Luhans'ka oblast, Ukraine, 93100",48.9204936,38.4275901,Ukraine,Lysychans'k,Luhans'ka oblast,
197,Київ/Кембрідж,"Cambridge, Cambridge, UK",52.205337,0.12181700000000001,United Kingdom,Cambridge,England,Cambridgeshire
198,Днепродзержинск,"Dniprodzerzhyns'k, Dnipropetrovsk Oblast, Ukraine",48.523117,34.613683,Ukraine,Dniprodzerzhyns'k,Dnipropetrovsk Oblast,
199,місто Запоріжжя,"Zaporizhia, Zaporiz'ka oblast, Ukraine",47.8388,35.139567,Ukraine,Zaporizhia,Zaporiz'ka oblast,
200,"Чернівці, Україна","Chernivtsi, Chernivets'ka oblast, Ukraine",48.2920787,25.9358367,Ukraine,Chernivtsi,Chernivets'ka oblast,
201,Lugansk,"Luhansk, Luhans'ka oblast, Ukraine",48.574040999999994,39.307815000000005,Ukraine,Luhansk,Luhans'ka oblast,
202,Kiyv,"Kyiv, Kyiv city, Ukraine",50.4501,30.5234,Ukraine,Kyiv,Kyiv city,Kyiv City
203,Katowice,"Katowice, Poland",50.26489189999999,19.023781500000002,Poland,Katowice,Silesian Voivodeship,Katowice
204,Kharkov,"Kharkiv, Kharkiv Oblast, Ukraine",49.9935,36.230383,Ukraine,Kharkiv,Kharkiv Oblast,
205,м. Дніпропетровськ,"Dnepropetrovsk, Dnipropetrovsk Oblast, Ukraine",48.464717,35.046183,Ukraine,Dnepropetrovsk,Dnipropetrovsk Oblast,
206,м. Донецьк,"Donetsk, Donetsk Oblast, Ukraine",48.015883,37.80285,Ukraine,Donetsk,Donetsk Oblast,
207,"Донецька область, м. Слов'янськ","Slovyansk, Donetsk Oblast, Ukraine",48.8532,37.6053,Ukraine,Slovyansk,Donetsk Oblast,Slov'yans'kyi district
208,Kiev ,"Kyiv, Kyiv city, Ukraine",50.4501,30.5234,Ukraine,Kyiv,Kyiv city,Kyiv City
209,м.Світловодськ,"Svitlovods'k, Kirovohrads'ka oblast, Ukraine",49.050278000000006,33.241944000000004,Ukraine,Svitlovods'k,Kirovohrads'ka oblast,
210,Dnepropetrovsk ,"Dnepropetrovsk, Dnipropetrovsk Oblast, Ukraine",48.464717,35.046183,Ukraine,Dnepropetrovsk,Dnipropetrovsk Oblast,
211,Крим ,Crimea,44.952117,34.102416999999996,,,Crimea,
212,Донецька обл. м. Краматорськ,"Kramatorsk, Donetsk Oblast, Ukraine",48.738966999999995,37.58435,Ukraine,Kramatorsk,Donetsk Oblast,
213,киев,"Kyiv, Kyiv city, Ukraine",50.4501,30.5234,Ukraine,Kyiv,Kyiv city,Kyiv City
214,Рим,"Rome, Italy",41.8723889,12.4801802,Italy,Rome,Lazio,Rome
215,Обухов,"Obukhiv, Kyivs'ka oblast, Ukraine",50.13,30.656667,Ukraine,Obukhiv,Kyivs'ka oblast,Obukhivs'kyi district
216,Львов,"Lviv, Lviv Oblast, Ukraine",49.839683,24.029717,Ukraine,Lviv,Lviv Oblast,
217,м. Южне,"Yuzhne, Odessa Oblast, Ukraine",46.624021299999995,31.1000648,Ukraine,Yuzhne,Odessa Oblast,
218,м. Кривий Ріг,"Kryvyi Rih, Dnipropetrovsk Oblast, Ukraine",47.910483,33.391783000000004,Ukraine,Kryvyi Rih,Dnipropetrovsk Oblast,
219,Riga,"Rīga, Latvia",56.94964870000001,24.105186399999997,Latvia,Rīga,Rīgas pilsēta,Rīgas pilsēta
220,М. Вінниця,"Vinnytsia, Vinnyts'ka oblast, Ukraine",49.233083,28.468217,Ukraine,Vinnytsia,Vinnyts'ka oblast,
221,Червонозаводське,"Chervonozavods'ke, Poltavs'ka oblast, Ukraine",50.402466499999996,33.38474980000001,Ukraine,Chervonozavods'ke,Poltavs'ka oblast,Lokhvyts'kyi district
222,Дніпродзержинськ,"Dniprodzerzhyns'k, Dnipropetrovsk Oblast, Ukraine",48.523117,34.613683,Ukraine,Dniprodzerzhyns'k,Dnipropetrovsk Oblast,
223,"м.Нікополь, Дніпропетровська обл.","Nikopol', Dnipropetrovsk Oblast, Ukraine",47.56746,34.394815,Ukraine,Nikopol',Dnipropetrovsk Oblast,
224,Миколаїв    ,"Mykolaiv, Mykolaivs'ka oblast, Ukraine",46.975033,31.994583000000002,Ukraine,Mykolaiv,Mykolaivs'ka oblast,
225,"Vinnitsa, Ukraine","Vinnytsia, Vinnyts'ka oblast, Ukraine",49.233083,28.468217,Ukraine,Vinnytsia,Vinnyts'ka oblast,
226,Бровары ,"Brovary, Kyivs'ka oblast, Ukraine",50.511083,30.7909,Ukraine,Brovary,Kyivs'ka oblast,
227, Київ,"Kyiv, Kyiv city, Ukraine",50.4501,30.5234,Ukraine,Kyiv,Kyiv city,Kyiv City
228,"Україна, Харків","Kharkiv, Kharkiv Oblast, Ukraine",49.9935,36.230383,Ukraine,Kharkiv,Kharkiv Oblast,
229,Warsaw. Ternopil,"Ternopil, Ternopil's'ka oblast, Ukraine",49.553517,25.594767,Ukraine,Ternopil,Ternopil's'ka oblast,
230,місто Луцьк,"Lutsk, Volyns'ka oblast, Ukraine",50.74723299999999,25.325383,Ukraine,Lutsk,Volyns'ka oblast,
231,місто Суми,"Sumy, Sums'ka oblast, Ukraine",50.9077,34.7981,Ukraine,Sumy,Sums'ka oblast,Sums'kyi district
232,"Харків, Україна","Kharkiv, Kharkiv Oblast, Ukraine",49.9935,36.230383,Ukraine,Kharkiv,Kharkiv Oblast,
233,м. Ірпінь,"Irpin' river, Ukraine",50.4095625,29.961174100000004,Ukraine,,,
234,м. Хмельницький,"Khmelnytskyi, Khmel'nyts'ka oblast, Ukraine",49.422983,26.987133,Ukraine,Khmelnytskyi,Khmel'nyts'ka oblast,
235,м. Луцьк,"Lutsk, Volyns'ka oblast, Ukraine",50.74723299999999,25.325383,Ukraine,Lutsk,Volyns'ka oblast,
236,"Острог, Рівненська область","Ostroh, Rivnens'ka oblast, Ukraine",50.333333,26.516666999999998,Ukraine,Ostroh,Rivnens'ka oblast,
237,Бровари ,"Brovary, Kyivs'ka oblast, Ukraine",50.511083,30.7909,Ukraine,Brovary,Kyivs'ka oblast,
238,м.Черкаси,"Cherkasy, Cherkas'ka oblast, Ukraine",49.444433000000004,32.059767,Ukraine,Cherkasy,Cherkas'ka oblast,
239,Germany; Brandenburg; Zepernick,"Zepernick, Germany",52.65444399999999,13.543056,Germany,,,
240,м. Мелітополь,"Melitopol', Zaporiz'ka oblast, Ukraine",46.833333,35.366667,Ukraine,Melitopol',Zaporiz'ka oblast,
241,"Мелитополь, Запорожская обл.","Melitopol', Zaporiz'ka oblast, Ukraine",46.833333,35.366667,Ukraine,Melitopol',Zaporiz'ka oblast,
242,Місто Кіровоград ,"Kirovohrad, Kirovohrads'ka oblast, Ukraine",48.50793300000001,32.262316999999996,Ukraine,Kirovohrad,Kirovohrads'ka oblast,
243,Ладижин,"Ladyzhyn, Vinnyts'ka oblast, Ukraine",48.6838051,29.2476274,Ukraine,Ladyzhyn,Vinnyts'ka oblast,
244,Бровари  ,"Brovary, Kyivs'ka oblast, Ukraine",50.511083,30.7909,Ukraine,Brovary,Kyivs'ka oblast,
245,м. Кременчук,"Kremenchuk, Poltavs'ka oblast, Ukraine",49.065783,33.410033,Ukraine,Kremenchuk,Poltavs'ka oblast,
246,ОДеса,"Odessa, Odessa Oblast, Ukraine",46.482526,30.723309499999996,Ukraine,Odessa,Odessa Oblast,
247,КиЇв,"Kyiv, Kyiv city, Ukraine",50.4501,30.5234,Ukraine,Kyiv,Kyiv city,Kyiv City
248,Місто Вишневе,"Vyshneve, Kyivs'ka oblast, Ukraine",50.3919,30.368267,Ukraine,Vyshneve,Kyivs'ka oblast,Kyjevo-Svyatoshyns'kyi district
249,Куп'янськ,"Kup'yans'k, Kharkiv Oblast, Ukraine",49.701667,37.613333000000004,Ukraine,Kup'yans'k,Kharkiv Oblast,
250,Cherkassy,"Cherkasy, Cherkas'ka oblast, Ukraine",49.444433000000004,32.059767,Ukraine,Cherkasy,Cherkas'ka oblast,
251,Запорiжжя,"Zaporizhia, Zaporiz'ka oblast, Ukraine",47.8388,35.139567,Ukraine,Zaporizhia,Zaporiz'ka oblast,
252,м. Дніпродзержинськ,"Dniprodzerzhyns'k, Dnipropetrovsk Oblast, Ukraine",48.523117,34.613683,Ukraine,Dniprodzerzhyns'k,Dnipropetrovsk Oblast,
253,"Mannheim, Deutschland","Mannheim, Germany",49.4874592,8.466039499999999,Germany,Mannheim,Baden-Württemberg,
254,М. Київ,"Kyiv, Kyiv city, Ukraine",50.4501,30.5234,Ukraine,Kyiv,Kyiv city,Kyiv City
255,Днiпродзержинськ,"Dniprodzerzhyns'k, Dnipropetrovsk Oblast, Ukraine",48.523117,34.613683,Ukraine,Dniprodzerzhyns'k,Dnipropetrovsk Oblast,
256,"На данный момент временно нахожусь Россия, республика Дагестан, г. Дербент","Derbent, Dagestan Republic, Russia",42.05,48.3,Russia,Derbent,Dagestan Republic,gorod Derbent
257,м.Брянка,"Bryanka, Buryatia, Russia",51.953610999999995,108.10194399999999,Russia,,Buryatia,Zaigraevskiy rayon
258,м. Баштанка,"Bashtanka, Mykolaivs'ka oblast, Ukraine",47.4,32.45,Ukraine,Bashtanka,Mykolaivs'ka oblast,Bashtans'kyi district
259,"м. Київ, Україна","Kyiv, Kyiv city, Ukraine",50.4501,30.5234,Ukraine,Kyiv,Kyiv city,Kyiv City
260,г.Борисполь,"Boryspil', Kyivs'ka oblast, Ukraine",50.3482,30.95615,Ukraine,Boryspil',Kyivs'ka oblast,
261,Киев ,"Kyiv, Kyiv city, Ukraine",50.4501,30.5234,Ukraine,Kyiv,Kyiv city,Kyiv City
262,Одесская обл.Беляевский р.-н. с.Холодная Балка,"Kholodna Balka, Odessa Oblast, Ukraine",46.6,30.583333000000003,Ukraine,Kholodna Balka,Odessa Oblast,Bilyaivs'kyi district
263,м. Дубно Рівненської області,"Dubenskaya vospitatelnaya koloniya № 208, Dubno, Rivnens'ka oblast, Ukraine, 35600",50.4173132,25.7559228,Ukraine,Dubno,Rivnens'ka oblast,
264,"Huelva, Spain","Huelva, Huelva, Spain",37.261421,-6.9447224,Spain,Huelva,Andalusia,Huelva
265,Стебник,"Stebnyk, Lviv Oblast, Ukraine",49.3,23.566667000000002,Ukraine,Stebnyk,Lviv Oblast,
266,Brovary,"Brovary, Kyivs'ka oblast, Ukraine",50.511083,30.7909,Ukraine,Brovary,Kyivs'ka oblast,
267,"Hurghada, Egypt","Hurghada, Qesm Hurghada, Red Sea Governorate, Egypt",27.2578957,33.811606700000006,Egypt,Hurghada,Red Sea Governorate,Qesm Hurghada
268,Черкасси,"Cherkassi, Sumgayit AZ5009, Azerbaijan",40.556985600000004,49.6989473,Azerbaijan,Sumgayit,,Sumqayit
269,Гоа,"Goa, India",15.299326500000001,74.12399599999998,India,,Goa,
270,Чернівці Україна,"Chernivtsi, Chernivets'ka oblast, Ukraine",48.2920787,25.9358367,Ukraine,Chernivtsi,Chernivets'ka oblast,
271,м.Вінниця,"Vinnytsia, Vinnyts'ka oblast, Ukraine",49.233083,28.468217,Ukraine,Vinnytsia,Vinnyts'ka oblast,
272,с.Зоря,"v. Zoria, Zorya, Dnipropetrovsk Oblast, Ukraine",48.660911999999996,34.809921,Ukraine,Zorya,Dnipropetrovsk Oblast,Dnipropetrovs'kyi district
273,місто Гайворон,"Haivoron, Kirovohrads'ka oblast, Ukraine",48.333333,29.866667,Ukraine,Haivoron,Kirovohrads'ka oblast,Haivorons'kyi district
274,ужгород,"Uzhhorod, Zakarpats'ka oblast, Ukraine",48.6208,22.287882999999997,Ukraine,Uzhhorod,Zakarpats'ka oblast,
275,Ternopil,"Ternopil, Ternopil's'ka oblast, Ukraine",49.553517,25.594767,Ukraine,Ternopil,Ternopil's'ka oblast,
276,с.Аркадіївка,"Arkadiivka, Kyivs'ka oblast, Ukraine",50.55694399999999,31.866667,Ukraine,Arkadiivka,Kyivs'ka oblast,Zhurivs'kyi district
277,"Guangzhou, China","Guangzhou, Guangdong, China",23.129163000000002,113.264435,China,Guangzhou,Guangdong,
278,"Фастів, Київська обл.","Fastiv, Kyivs'ka oblast, Ukraine",50.083333,29.916666999999997,Ukraine,Fastiv,Kyivs'ka oblast,
279,Хмельницький,"Khmelnytskyi, Khmel'nyts'ka oblast, Ukraine",49.422983,26.987133,Ukraine,Khmelnytskyi,Khmel'nyts'ka oblast,
280,"броварський р-н, с богданiвка","Bohdanivka, Kyivs'ka oblast, Ukraine",50.626389,30.915,Ukraine,Bohdanivka,Kyivs'ka oblast,Brovars'kyi district
281,"Sevastopol, Ukraine","Sevastopol, Sevastopol' city",44.61665,33.525366999999996,,Sevastopol,Sevastopol' city,Sevastopol' city
282,Zaporizhzhya,"Zaporizhia, Zaporiz'ka oblast, Ukraine",47.8388,35.139567,Ukraine,Zaporizhia,Zaporiz'ka oblast,
283,c.Козацьке,"Kozats'ke, Khersons'ka oblast, Ukraine",46.786667,33.332221999999994,Ukraine,Kozats'ke,Khersons'ka oblast,Beryslavs'kyi district
284,Луганськ,"Luhansk, Luhans'ka oblast, Ukraine",48.574040999999994,39.307815000000005,Ukraine,Luhansk,Luhans'ka oblast,
285,Kyiv ,"Kyiv, Kyiv city, Ukraine",50.4501,30.5234,Ukraine,Kyiv,Kyiv city,Kyiv City
286,Чернігів ,"Chernihiv, Chernihivs'ka oblast, Ukraine",51.4982,31.28935,Ukraine,Chernihiv,Chernihivs'ka oblast,
287,Енергодар Запорізької обл,"Enerhodar, Zaporiz'ka oblast, Ukraine",47.50150670000001,34.6341859,Ukraine,Enerhodar,Zaporiz'ka oblast,
288,Червоноград Львівська область,"Chervonohrad, Lviv Oblast, Ukraine",50.39,24.23,Ukraine,Chervonohrad,Lviv Oblast,
289, м. Львів,"Lviv, Lviv Oblast, Ukraine",49.839683,24.029717,Ukraine,Lviv,Lviv Oblast,
290,Praha,"Prague, Czech Republic",50.0755381,14.4378005,Czech Republic,Prague,Hlavní město Praha,Hlavní město Praha
291,Краматорск,"Kramatorsk, Donetsk Oblast, Ukraine",48.738966999999995,37.58435,Ukraine,Kramatorsk,Donetsk Oblast,
292,м.Бердичів,"Berdychiv, Zhytomyrs'ka oblast, Ukraine",49.9,28.566667,Ukraine,Berdychiv,Zhytomyrs'ka oblast,
293,"lleida, Spain","Lleida, Lleida, Spain",41.6175899,0.6200146,Spain,Lleida,Catalonia,Lleida
294,м. Житомир,"Zhytomyr, Zhytomyrs'ka oblast, Ukraine",50.25465,28.658666999999998,Ukraine,Zhytomyr,Zhytomyrs'ka oblast,
295,м. Ужгород,"Uzhhorod, Zakarpats'ka oblast, Ukraine",48.6208,22.287882999999997,Ukraine,Uzhhorod,Zakarpats'ka oblast,
296,Sumy,"Sumy, Sums'ka oblast, Ukraine",50.9077,34.7981,Ukraine,Sumy,Sums'ka oblast,Sums'kyi district
297,м.Біла Церква ,"Bila Tserkva, Kyivs'ka oblast, Ukraine",49.798889,30.115278000000004,Ukraine,Bila Tserkva,Kyivs'ka oblast,
298,Kalush,"Kalush, Ivano-Frankivs'ka oblast, Ukraine",49.04416699999999,24.359722,Ukraine,Kalush,Ivano-Frankivs'ka oblast,
299,с.Чміль Ємільчинський район Житомирська обл,"Chmil', Zhytomyrs'ka oblast, Ukraine",50.930556,27.910278,Ukraine,Chmil',Zhytomyrs'ka oblast,Yemil'chyns'kyi district
300,Трускавець,"Truskavets, Lviv Oblast, Ukraine",49.280556,23.505,Ukraine,Truskavets,Lviv Oblast,
301,"м. Ірпінь
Київська область","Irpin', Kyivs'ka oblast, Ukraine",50.51875,30.239783000000003,Ukraine,Irpin',Kyivs'ka oblast,
302,г. Кривой Рог ,"Kryvyi Rih, Dnipropetrovsk Oblast, Ukraine",47.910483,33.391783000000004,Ukraine,Kryvyi Rih,Dnipropetrovsk Oblast,
303,г. Днепропетровск,"Dnepropetrovsk, Dnipropetrovsk Oblast, Ukraine",48.464717,35.046183,Ukraine,Dnepropetrovsk,Dnipropetrovsk Oblast,
304,Кам'янець-Подільський,"Kam'yanets'-Podil's'kyi, Khmel'nyts'ka oblast, Ukraine",48.683333000000005,26.583333000000003,Ukraine,Kam'yanets'-Podil's'kyi,Khmel'nyts'ka oblast,
305,"Донецьк, Україна","Donetsk, Donetsk Oblast, Ukraine",48.015883,37.80285,Ukraine,Donetsk,Donetsk Oblast,
306,"Чернігівська область, м.Прилуки","Pryluky, Chernihivs'ka oblast, Ukraine",50.59999999999999,32.4,Ukraine,Pryluky,Chernihivs'ka oblast,
307,Українка,"Ukrainka, Kyivs'ka oblast, Ukraine",50.15308599999999,30.743492,Ukraine,Ukrainka,Kyivs'ka oblast,Obukhivs'kyi district
308,Ялта,Yalta,44.49520500000001,34.166301000000004,,Yalta,Crimea,
309,місто Кривий Ріг,"Kryvyi Rih, Dnipropetrovsk Oblast, Ukraine",47.910483,33.391783000000004,Ukraine,Kryvyi Rih,Dnipropetrovsk Oblast,
310,Тернопіль ,"Ternopil, Ternopil's'ka oblast, Ukraine",49.553517,25.594767,Ukraine,Ternopil,Ternopil's'ka oblast,
311,Бердянск,"Berdyans'k, Zaporiz'ka oblast, Ukraine",46.759722,36.784444,Ukraine,Berdyans'k,Zaporiz'ka oblast,
312,місто Бровари,"Brovary, Kyivs'ka oblast, Ukraine",50.511083,30.7909,Ukraine,Brovary,Kyivs'ka oblast,
313,Харков,"Kharkiv, Kharkiv Oblast, Ukraine",49.9935,36.230383,Ukraine,Kharkiv,Kharkiv Oblast,
314,"м. Світловодськ, Кіровоградська обл.","Svitlovods'k, Kirovohrads'ka oblast, Ukraine",49.050278000000006,33.241944000000004,Ukraine,Svitlovods'k,Kirovohrads'ka oblast,
315,місто Миколаїв,"Mykolaiv, Mykolaivs'ka oblast, Ukraine",46.975033,31.994583000000002,Ukraine,Mykolaiv,Mykolaivs'ka oblast,
316,Трускавець\Київ,"Kyiv, Kyiv city, Ukraine",50.4501,30.5234,Ukraine,Kyiv,Kyiv city,Kyiv City
317,Оброшино,"Obroshyne, Lviv Oblast, Ukraine",49.785278000000005,23.868610999999998,Ukraine,Obroshyne,Lviv Oblast,Pustomytivs'kyi district
318,"Рівненська обл., Острозький р-н, с. Лючин","Lyuchyn, Rivnens'ka oblast, Ukraine",50.31277799999999,26.438610999999998,Ukraine,Lyuchyn,Rivnens'ka oblast,Ostroz'kyi district
319,"м. Львів
","Lviv, Lviv Oblast, Ukraine",49.839683,24.029717,Ukraine,Lviv,Lviv Oblast,
320,Ірпінь,"Irpin' river, Ukraine",50.4095625,29.961174100000004,Ukraine,,,
321,Варшава,"Warsaw, Poland",52.2296756,21.012228699999998,Poland,Warsaw,Masovian Voivodeship,Warszawa
322,Fastiv,"Fastiv, Kyivs'ka oblast, Ukraine",50.083333,29.916666999999997,Ukraine,Fastiv,Kyivs'ka oblast,
323,"Измаил, Одесская область","Izmail, Odessa Oblast, Ukraine",45.351667,28.836389,Ukraine,Izmail,Odessa Oblast,Izmail's'kyi district
324,м.Коломия,"Kolomyya, Ivano-Frankivs'ka oblast, Ukraine",48.530556,25.040278,Ukraine,Kolomyya,Ivano-Frankivs'ka oblast,Kolomyis'kyi district
325,м. Канів,"Kaniv, Cherkas'ka oblast, Ukraine",49.751033,31.4697,Ukraine,Kaniv,Cherkas'ka oblast,
326,"Бердянськ (Запорізька обл.), Київ","Kyivs'kyi lane, Berdyans'k, Zaporiz'ka oblast, Ukraine",46.76417499999999,36.8009752,Ukraine,Berdyans'k,Zaporiz'ka oblast,
327,Бердянськ,"Berdyans'k, Zaporiz'ka oblast, Ukraine",46.759722,36.784444,Ukraine,Berdyans'k,Zaporiz'ka oblast,
328,Никополь,"Nikopol', Dnipropetrovsk Oblast, Ukraine",47.56746,34.394815,Ukraine,Nikopol',Dnipropetrovsk Oblast,
329,Warszawa,"Warsaw, Poland",52.2296756,21.012228699999998,Poland,Warsaw,Masovian Voivodeship,Warszawa
330," Київ
","Kyiv, Kyiv city, Ukraine",50.4501,30.5234,Ukraine,Kyiv,Kyiv city,Kyiv City
331,"місто Обухів, область Київська","Obukhiv, Kyivs'ka oblast, Ukraine",50.13,30.656667,Ukraine,Obukhiv,Kyivs'ka oblast,Obukhivs'kyi district
332,місто Дніпродзержинськ,"Dniprodzerzhyns'k, Dnipropetrovsk Oblast, Ukraine",48.523117,34.613683,Ukraine,Dniprodzerzhyns'k,Dnipropetrovsk Oblast,
333,м.Трускавець,"Truskavets, Lviv Oblast, Ukraine",49.280556,23.505,Ukraine,Truskavets,Lviv Oblast,
334,"Київ
","Kyiv, Kyiv city, Ukraine",50.4501,30.5234,Ukraine,Kyiv,Kyiv city,Kyiv City
335,м Київ,"Kyiv, Kyiv city, Ukraine",50.4501,30.5234,Ukraine,Kyiv,Kyiv city,Kyiv City
336,місто Львів ,"Lviv, Lviv Oblast, Ukraine",49.839683,24.029717,Ukraine,Lviv,Lviv Oblast,
337,Khakov,"Kharkiv, Kharkiv Oblast, Ukraine",49.9935,36.230383,Ukraine,Kharkiv,Kharkiv Oblast,
338,Чубинське,"Chubyns'ke, Kyivs'ka oblast, Ukraine",50.384314,30.8486288,Ukraine,Chubyns'ke,Kyivs'ka oblast,Boryspil's'kyi district
339,"New York, USA","New York, NY, USA",40.7127837,-74.00594129999999,United States,New York,New York,New York County
340,"м. Бровари, Київська область","Brovary, Kyivs'ka oblast, Ukraine",50.511083,30.7909,Ukraine,Brovary,Kyivs'ka oblast,
341,"Piekary Śląskie, Śląskie, Polska","Piekary Slaskie, Poland",50.37891079999999,18.9270475,Poland,Piekary Slaskie,Silesian Voivodeship,Piekary Śląskie
342,"Київська область, м. Вишгород","Vyshhorod, Kyivs'ka oblast, Ukraine",50.5904776,30.4831982,Ukraine,Vyshhorod,Kyivs'ka oblast,Vyshhorods'kyi district
343,Северодонецк,"Severodonetsk, Luhans'ka oblast, Ukraine",48.933333000000005,38.5,Ukraine,Severodonetsk,Luhans'ka oblast,
344,Rivne,"Rivne, Rivnens'ka oblast, Ukraine",50.6199,26.251617,Ukraine,Rivne,Rivnens'ka oblast,
345,"Україна, м.Рівне","Rivne, Rivnens'ka oblast, Ukraine",50.6199,26.251617,Ukraine,Rivne,Rivnens'ka oblast,
346,Вишневе,"Vyshneve, Kyivs'ka oblast, Ukraine",50.3919,30.368267,Ukraine,Vyshneve,Kyivs'ka oblast,Kyjevo-Svyatoshyns'kyi district
347,Львів.Народився у Києві,"Lviv, Lviv Oblast, Ukraine",49.839683,24.029717,Ukraine,Lviv,Lviv Oblast,
348,Vinnitsa,"Vinnytsia, Vinnyts'ka oblast, Ukraine",49.233083,28.468217,Ukraine,Vinnytsia,Vinnyts'ka oblast,
349,"Бровари, Київська обл.","Brovary, Kyivs'ka oblast, Ukraine",50.511083,30.7909,Ukraine,Brovary,Kyivs'ka oblast,
350,м. Рівне,"Rivne, Rivnens'ka oblast, Ukraine",50.6199,26.251617,Ukraine,Rivne,Rivnens'ka oblast,
351,Kremenchuk,"Kremenchuk, Poltavs'ka oblast, Ukraine",49.065783,33.410033,Ukraine,Kremenchuk,Poltavs'ka oblast,
352,місто Рівне,"Rivne, Rivnens'ka oblast, Ukraine",50.6199,26.251617,Ukraine,Rivne,Rivnens'ka oblast,
353,м. Мукачево,"Mukacheve, Zakarpats'ka oblast, Ukraine",48.45,22.75,Ukraine,Mukacheve,Zakarpats'ka oblast,
354,Kramatorsk,"Kramatorsk, Donetsk Oblast, Ukraine",48.738966999999995,37.58435,Ukraine,Kramatorsk,Donetsk Oblast,
355,Макарів,"Makariv, Kyivs'ka oblast, Ukraine",50.459722,29.814721999999996,Ukraine,Makariv,Kyivs'ka oblast,Makarivs'kyi district
356,Славянск,"Slovyansk, Donetsk Oblast, Ukraine",48.8532,37.6053,Ukraine,Slovyansk,Donetsk Oblast,Slov'yans'kyi district
357,"Дніпропетровська область , місто Павлоград","Pavlohrad, Dnipropetrovsk Oblast, Ukraine",48.516667,35.866667,Ukraine,Pavlohrad,Dnipropetrovsk Oblast,
358,Коломия,"Kolomyya, Ivano-Frankivs'ka oblast, Ukraine",48.530556,25.040278,Ukraine,Kolomyya,Ivano-Frankivs'ka oblast,Kolomyis'kyi district
359,м.Євпаторія,Yevpatoriya,45.19045,33.366867,,Yevpatoriya,Crimea,
360,Мариуполь,"Mariupol', Donetsk Oblast, Ukraine",47.097133,37.543366999999996,Ukraine,Mariupol',Donetsk Oblast,
361,kyiv,"Kyiv, Kyiv city, Ukraine",50.4501,30.5234,Ukraine,Kyiv,Kyiv city,Kyiv City
362,Макіївка (Донецька область),"Makiivka, Donetsk Oblast, Ukraine",48.0459557,37.9666901,Ukraine,Makiivka,Donetsk Oblast,
363,Berdyansk,"Berdyans'k, Zaporiz'ka oblast, Ukraine",46.759722,36.784444,Ukraine,Berdyans'k,Zaporiz'ka oblast,
364,г.Днепропетровск,"Dnepropetrovsk, Dnipropetrovsk Oblast, Ukraine",48.464717,35.046183,Ukraine,Dnepropetrovsk,Dnipropetrovsk Oblast,
365,Хмельницкий,"Khmelnytskyi, Khmel'nyts'ka oblast, Ukraine",49.422983,26.987133,Ukraine,Khmelnytskyi,Khmel'nyts'ka oblast,
366,смт.Степань,"Stepan', Rivnens'ka oblast, Ukraine",51.128333000000005,26.304167,Ukraine,Stepan',Rivnens'ka oblast,Sarnens'kyi district
367,Івано- Франківськ,"Ivano-Frankivsk, Ivano-Frankivs'ka oblast, Ukraine",48.922633000000005,24.711117,Ukraine,Ivano-Frankivsk,Ivano-Frankivs'ka oblast,
368,Zhitomir,"Zhytomyr, Zhytomyrs'ka oblast, Ukraine",50.25465,28.658666999999998,Ukraine,Zhytomyr,Zhytomyrs'ka oblast,
369,Luhansk,"Luhansk, Luhans'ka oblast, Ukraine",48.574040999999994,39.307815000000005,Ukraine,Luhansk,Luhans'ka oblast,
370,Галич,"Halych, Ivano-Frankivs'ka oblast, Ukraine",49.124722,24.728610999999997,Ukraine,Halych,Ivano-Frankivs'ka oblast,Halyts'kyi district
371,Великий Бурлук,"Velykyi Burluk, Kharkiv Oblast, Ukraine",50.045556,37.390556,Ukraine,Velykyi Burluk,Kharkiv Oblast,Velykoburluts'kyi district
372,Білгород-Дністровський,"Bilhorod-Dnistrovs'kyi, Odessa Oblast, Ukraine",46.183333000000005,30.333333000000003,Ukraine,Bilhorod-Dnistrovs'kyi,Odessa Oblast,
373,м. Умань,"Uman', Cherkas'ka oblast, Ukraine",48.75,30.216666999999998,Ukraine,Uman',Cherkas'ka oblast,
374,м. Маріуполь,"Mariupol', Donetsk Oblast, Ukraine",47.097133,37.543366999999996,Ukraine,Mariupol',Donetsk Oblast,
375,Володимир-Волинський,"Volodymyr-Volynsky, Volyns'ka oblast, Ukraine",50.848056,24.322222,Ukraine,Volodymyr-Volynsky,Volyns'ka oblast,
376,Сімферополь,Simferopol,44.952117,34.102416999999996,,Simferopol,Crimea,
377,Ковель,"Kovel', Volyns'ka oblast, Ukraine",51.216667,24.716667,Ukraine,Kovel',Volyns'ka oblast,
378,місто Свердловськ,"Sverdlovs'k, Luhans'ka oblast, Ukraine",48.077778,39.647222,Ukraine,Sverdlovs'k,Luhans'ka oblast,
379,Kryvyi Rih,"Kryvyi Rih, Dnipropetrovsk Oblast, Ukraine",47.910483,33.391783000000004,Ukraine,Kryvyi Rih,Dnipropetrovsk Oblast,
380,"Chicago, IL","Chicago, IL, USA",41.8781136,-87.62979820000001,United States,Chicago,Illinois,Cook County
381,Київ / Боярка,"Boyarka, Kyivs'ka oblast, Ukraine",50.317116999999996,30.298167,Ukraine,Boyarka,Kyivs'ka oblast,Kyjevo-Svyatoshyns'kyi district
382,Санкт-Петербург,"Saint Petersburg, Russia",59.9342802,30.335098600000002,Russia,Saint Petersburg,Saint Petersburg,gorod Sankt-Peterburg
383,Krivoy Rog,"Kryvyi Rih, Dnipropetrovsk Oblast, Ukraine",47.910483,33.391783000000004,Ukraine,Kryvyi Rih,Dnipropetrovsk Oblast,
384,"смт. Калинівка. Броварський район, Київська область","Kalynivka, Kyivs'ka oblast, Ukraine",50.559166999999995,30.821111,Ukraine,Kalynivka,Kyivs'ka oblast,Brovars'kyi district
385,zaporizhia,"Zaporizhia, Zaporiz'ka oblast, Ukraine",47.8388,35.139567,Ukraine,Zaporizhia,Zaporiz'ka oblast,
386,м.Гадяч,"Hadyach, Poltavs'ka oblast, Ukraine",50.366667,34.0,Ukraine,Hadyach,Poltavs'ka oblast,Hadyats'kyi district
387,Днепропетровск ,"Dnepropetrovsk, Dnipropetrovsk Oblast, Ukraine",48.464717,35.046183,Ukraine,Dnepropetrovsk,Dnipropetrovsk Oblast,
388,Кременець,"Kremenets', Ternopil's'ka oblast, Ukraine",50.119721999999996,25.716667,Ukraine,Kremenets',Ternopil's'ka oblast,Kremenets'kyi district
389,Chicago,"Chicago, IL, USA",41.8781136,-87.62979820000001,United States,Chicago,Illinois,Cook County
390,Київ/Ніжин,"Nizhyn, Chernihivs'ka oblast, Ukraine",51.038056,31.886111,Ukraine,Nizhyn,Chernihivs'ka oblast,
391,Донецьк(тимчасово Київська область),"Donetsk, Donetsk Oblast, Ukraine",48.015883,37.80285,Ukraine,Donetsk,Donetsk Oblast,
392,Дніпропетровськ ,"Dnepropetrovsk, Dnipropetrovsk Oblast, Ukraine",48.464717,35.046183,Ukraine,Dnepropetrovsk,Dnipropetrovsk Oblast,
393,М. Бровари,"Brovary, Kyivs'ka oblast, Ukraine",50.511083,30.7909,Ukraine,Brovary,Kyivs'ka oblast,
394,Алчевськ/Львів,"Lviv, Lviv Oblast, Ukraine",49.839683,24.029717,Ukraine,Lviv,Lviv Oblast,
395,м.Ужгород,"Uzhhorod, Zakarpats'ka oblast, Ukraine",48.6208,22.287882999999997,Ukraine,Uzhhorod,Zakarpats'ka oblast,
396,село Селище,"Selyshche, Vinnyts'ka oblast, Ukraine",49.126667,28.3625,Ukraine,Selyshche,Vinnyts'ka oblast,Tyvrivs'kyi district
397,м. Івано-Франківськ,"Ivano-Frankivsk, Ivano-Frankivs'ka oblast, Ukraine",48.922633000000005,24.711117,Ukraine,Ivano-Frankivsk,Ivano-Frankivs'ka oblast,
398,Дніпропетровська область Павлоградський район с.Богданівка вулиця Папаніна 18,"ulitsa Papanina, Ternivka, Dnipropetrovsk Oblast, Ukraine, 51500",48.512610200000005,36.0805821,Ukraine,Ternivka,Dnipropetrovsk Oblast,
399,Ніжин,"Nizhyn, Chernihivs'ka oblast, Ukraine",51.038056,31.886111,Ukraine,Nizhyn,Chernihivs'ka oblast,
400,Алушта,Alushta,44.67638300000001,34.41005,,Alushta,Crimea,
401,Вільшана,"Vil'shana, Cherkas'ka oblast, Ukraine",49.209722,31.208889000000003,Ukraine,Vil'shana,Cherkas'ka oblast,Horodyshchens'kyi district
402,Івано-Франківськ ,"Ivano-Frankivsk, Ivano-Frankivs'ka oblast, Ukraine",48.922633000000005,24.711117,Ukraine,Ivano-Frankivsk,Ivano-Frankivs'ka oblast,
403,Броди,"Brody, Lviv Oblast, Ukraine",50.083141,25.15,Ukraine,Brody,Lviv Oblast,Brodivs'kyi district
404,"Tallin, Estonia","Tallinn, Estonia",59.43696079999999,24.7535746,Estonia,Tallinn,Harju County,Tallinna linn
405,Вінниця-Київ-Познань,"Poznan, Poland",52.406374,16.9251681,Poland,Poznan,Greater Poland Voivodeship,Poznań County
406,м.Брянка Луганська обл.,"Bryanka, Luhans'ka oblast, Ukraine",48.513333,38.643056,Ukraine,Bryanka,Luhans'ka oblast,
407,Черкаси-Київ,"Kyiv, Kyiv city, Ukraine",50.4501,30.5234,Ukraine,Kyiv,Kyiv city,Kyiv City
408,Оріхів,"Orikhiv, Zaporiz'ka oblast, Ukraine",47.566666999999995,35.783333,Ukraine,Orikhiv,Zaporiz'ka oblast,Orikhivs'kyi district
409,  Деражня,"Derazhnya, Khmel'nyts'ka oblast, Ukraine",49.266667,27.433333,Ukraine,Derazhnya,Khmel'nyts'ka oblast,Derazhnyans'kyi district
410,Хотин,"Khotyn, Chernivets'ka oblast, Ukraine",48.5,26.5,Ukraine,Khotyn,Chernivets'ka oblast,Khotyns'kyi district
411,місто Бородянка,"Borodyanka, Kyivs'ka oblast, Ukraine",50.628721999999996,29.894194,Ukraine,Borodyanka,Kyivs'ka oblast,Borodyans'kyi district
412,Тараща,"Tarashcha, Kyivs'ka oblast, Ukraine",49.55,30.5,Ukraine,Tarashcha,Kyivs'ka oblast,Tarashchans'kyi district
413,Миколаїв ,"Mykolaiv, Mykolaivs'ka oblast, Ukraine",46.975033,31.994583000000002,Ukraine,Mykolaiv,Mykolaivs'ka oblast,
414,Rovno,"Rivne, Rivnens'ka oblast, Ukraine",50.6199,26.251617,Ukraine,Rivne,Rivnens'ka oblast,
415,"Київська обл., село Білогородка","Bilohorodka, Kyivs'ka oblast, Ukraine",50.3750037,30.2227951,Ukraine,Bilohorodka,Kyivs'ka oblast,Kyjevo-Svyatoshyns'kyi district
416,Маріуполь,"Mariupol', Donetsk Oblast, Ukraine",47.097133,37.543366999999996,Ukraine,Mariupol',Donetsk Oblast,
417,місто Біла Церква,"Bila Tserkva, Kyivs'ka oblast, Ukraine",49.798889,30.115278000000004,Ukraine,Bila Tserkva,Kyivs'ka oblast,
418,м. Днiпропетровськ,"Прокуратура м. Дніпропетровська, Naberezhna V.I. Lenina street, 29, Dnepropetrovsk, Dnipropetrovsk Oblast, Ukraine, 49000",48.4702823,35.0500828,Ukraine,Dnepropetrovsk,Dnipropetrovsk Oblast,
419,"Uman, Cherkasy Region","Uman', Cherkas'ka oblast, Ukraine",48.75,30.216666999999998,Ukraine,Uman',Cherkas'ka oblast,
420,Winnica,"Vinnytsia, Vinnyts'ka oblast, Ukraine",49.233083,28.468217,Ukraine,Vinnytsia,Vinnyts'ka oblast,
421,Mariupol Ukraine,"Mariupol', Donetsk Oblast, Ukraine",47.097133,37.543366999999996,Ukraine,Mariupol',Donetsk Oblast,
422,Winnyzja,"Vinnytsia, Vinnyts'ka oblast, Ukraine",49.233083,28.468217,Ukraine,Vinnytsia,Vinnyts'ka oblast,
423,Луганск,"Luhansk, Luhans'ka oblast, Ukraine",48.574040999999994,39.307815000000005,Ukraine,Luhansk,Luhans'ka oblast,
424,м.Кіровоград,"Kirovohrad, Kirovohrads'ka oblast, Ukraine",48.50793300000001,32.262316999999996,Ukraine,Kirovohrad,Kirovohrads'ka oblast,
425,с.Станіслав Білозерський район Херсонська обл,"Stanislav, Khersons'ka oblast, Ukraine",46.57000000000001,32.15,Ukraine,Stanislav,Khersons'ka oblast,Bilozers'kyi district
426,м.Кременчук,"Kremenchuk, Poltavs'ka oblast, Ukraine",49.065783,33.410033,Ukraine,Kremenchuk,Poltavs'ka oblast,
427,"Страсбург, Франція","Strasbourg, France",48.583148,7.747882000000001,France,Strasbourg,Alsace,Bas-Rhin
428,"Вишгород, Київська обл.","Vyshhorod, Kyivs'ka oblast, Ukraine",50.5904776,30.4831982,Ukraine,Vyshhorod,Kyivs'ka oblast,Vyshhorods'kyi district
429,lemberg,"Lviv, Lviv Oblast, Ukraine",49.839683,24.029717,Ukraine,Lviv,Lviv Oblast,
430,Ostroh ,"Ostroh, Rivnens'ka oblast, Ukraine",50.333333,26.516666999999998,Ukraine,Ostroh,Rivnens'ka oblast,
431,"Місто Фастів, Київська область. ","Fastiv, Kyivs'ka oblast, Ukraine",50.083333,29.916666999999997,Ukraine,Fastiv,Kyivs'ka oblast,
432,Дніпропетровська область м.Кривий Ріг,"Kryvyi Rih, Dnipropetrovsk Oblast, Ukraine",47.910483,33.391783000000004,Ukraine,Kryvyi Rih,Dnipropetrovsk Oblast,
433,Одесса ,"Odessa, Odessa Oblast, Ukraine",46.482526,30.723309499999996,Ukraine,Odessa,Odessa Oblast,
434,Мелітополь,"Melitopol', Zaporiz'ka oblast, Ukraine",46.833333,35.366667,Ukraine,Melitopol',Zaporiz'ka oblast,
435,Zaporizhia,"Zaporizhia, Zaporiz'ka oblast, Ukraine",47.8388,35.139567,Ukraine,Zaporizhia,Zaporiz'ka oblast,
436,"Крим, смт. Гурзуф",Hurzuf,44.54844809999999,34.28418610000001,,Hurzuf,Crimea,
437,"м. Дніпропетровськ, м. Донецьк","Donetsk, Rostov Oblast, Russia",48.333333,39.933333000000005,Russia,Donets'k,Rostov Oblast,Donetsk
438,"Северодонецк, Ивано-Франковск","Ivano-Frankivsk, Ivano-Frankivs'ka oblast, Ukraine",48.922633000000005,24.711117,Ukraine,Ivano-Frankivsk,Ivano-Frankivs'ka oblast,
439,"місто Рубіжне ,Луганська область ","Rubizhne, Luhans'ka oblast, Ukraine",49.01,38.371389,Ukraine,Rubizhne,Luhans'ka oblast,
440,Riwne,"Rivne, Rivnens'ka oblast, Ukraine",50.6199,26.251617,Ukraine,Rivne,Rivnens'ka oblast,
441,"м. Лебедин, Сумська обл.","Lebedyn, Sums'ka oblast, Ukraine",50.579722,34.477222,Ukraine,Lebedyn,Sums'ka oblast,
442,"Makiivka, Donetsk dist.","Makiivka, Donetsk Oblast, Ukraine",48.0459557,37.9666901,Ukraine,Makiivka,Donetsk Oblast,
443,Місто Олександрія,"Alexandria, Alexandria Governorate, Egypt",31.2000924,29.9187387,Egypt,Alexandria,Alexandria Governorate,
444,Іванків. Київська област ,"Ivankiv, Kyivs'ka oblast, Ukraine",50.933333000000005,29.9,Ukraine,Ivankiv,Kyivs'ka oblast,Ivankivs'kyi district
445,г. Киев,"Kyiv, Kyiv city, Ukraine",50.4501,30.5234,Ukraine,Kyiv,Kyiv city,Kyiv City
446,г. Запорожье,"Zaporizhia, Zaporiz'ka oblast, Ukraine",47.8388,35.139567,Ukraine,Zaporizhia,Zaporiz'ka oblast,
447,місто Житомир,"Zhytomyr, Zhytomyrs'ka oblast, Ukraine",50.25465,28.658666999999998,Ukraine,Zhytomyr,Zhytomyrs'ka oblast,
448,"Kominternivske, Odeska obl.","Kominternivs'ke, Odessa Oblast, Ukraine",46.82,30.945,Ukraine,Kominternivs'ke,Odessa Oblast,Kominternivs'kyi district
449,Vinnytsia,"Vinnytsia, Vinnyts'ka oblast, Ukraine",49.233083,28.468217,Ukraine,Vinnytsia,Vinnyts'ka oblast,
450,г. Херсон,"Kherson, Khersons'ka oblast, Ukraine",46.635417,32.616867,Ukraine,Kherson,Khersons'ka oblast,
451,Кривой Рог,"Kryvyi Rih, Dnipropetrovsk Oblast, Ukraine",47.910483,33.391783000000004,Ukraine,Kryvyi Rih,Dnipropetrovsk Oblast,
452,Першотравенськ Дніпропетровської області,"Pershotravens'k, Dnipropetrovsk Oblast, Ukraine",48.34638899999999,36.404444,Ukraine,Pershotravens'k,Dnipropetrovsk Oblast,
453,"м. Ічня, 16700","Ichnia, Chernihivs'ka oblast, Ukraine",51.25,32.6,Ukraine,Ichnia,Chernihivs'ka oblast,Borznyans'kyi district
454,Конотоп,"Konotop, Sums'ka oblast, Ukraine",51.240943200000004,33.2050521,Ukraine,Konotop,Sums'ka oblast,
455,м.Дрогобич,"Drohobych, Lviv Oblast, Ukraine",49.358011600000005,23.5123193,Ukraine,Drohobych,Lviv Oblast,
456, м. Дніпродзержинськ.,"Dniprodzerzhyns'k, Dnipropetrovsk Oblast, Ukraine",48.523117,34.613683,Ukraine,Dniprodzerzhyns'k,Dnipropetrovsk Oblast,
457,Івано Франківськ,"Ivano-Frankivsk, Ivano-Frankivs'ka oblast, Ukraine",48.922633000000005,24.711117,Ukraine,Ivano-Frankivsk,Ivano-Frankivs'ka oblast,
458,Сумы,"Sumy, Sums'ka oblast, Ukraine",50.9077,34.7981,Ukraine,Sumy,Sums'ka oblast,Sums'kyi district
459,Черкассы,"Cherkasy, Cherkas'ka oblast, Ukraine",49.444433000000004,32.059767,Ukraine,Cherkasy,Cherkas'ka oblast,
460,"Одеська обл., м. Іллічівськ","Illichivs'k, Odessa Oblast, Ukraine",46.2952236,30.648085499999997,Ukraine,Illichivs'k,Odessa Oblast,
461,м.Ірпінь,"Irpin' river, Ukraine",50.4095625,29.961174100000004,Ukraine,,,
462,м. Золотоноша,"Zolotonosha, Cherkas'ka oblast, Ukraine",49.666667,32.033333,Ukraine,Zolotonosha,Cherkas'ka oblast,
463,Регенсбург (Німеччина),"Regensburg, Germany",49.0134297,12.101623599999998,Germany,Regensburg,Bavaria,Upper Palatinate
464,Одесская обл. г. Раздельная,"Rozdil'na, Odessa Oblast, Ukraine",46.85,30.066667,Ukraine,Rozdil'na,Odessa Oblast,Rozdil'nyans'kyi district
465,"г.Вишневый, Киевская обл","Vyshnevyi lane, Yahotyn, Kyivs'ka oblast, Ukraine",50.2455224,31.786695,Ukraine,Yahotyn,Kyivs'ka oblast,Yahotyns'kyi district
466,м.Полтава,"Poltava, Poltavs'ka oblast, Ukraine",49.58826699999999,34.551417,Ukraine,Poltava,Poltavs'ka oblast,
467,луцьк,"Lutsk, Volyns'ka oblast, Ukraine",50.74723299999999,25.325383,Ukraine,Lutsk,Volyns'ka oblast,
468,м. Яготин,"Yahotyn, Kyivs'ka oblast, Ukraine",50.256944,31.781667,Ukraine,Yahotyn,Kyivs'ka oblast,Yahotyns'kyi district
469,м. Енергодар,"Enerhodar, Zaporiz'ka oblast, Ukraine",47.50150670000001,34.6341859,Ukraine,Enerhodar,Zaporiz'ka oblast,
470,с. Погреби,"Pohreby, Kyivs'ka oblast, Ukraine",50.549167,30.64083299999999,Ukraine,Pohreby,Kyivs'ka oblast,Brovars'kyi district
471,"Україна, Херсон","Kherson, Khersons'ka oblast, Ukraine",46.635417,32.616867,Ukraine,Kherson,Khersons'ka oblast,
472,Обухів,"Obukhiv, Kyivs'ka oblast, Ukraine",50.13,30.656667,Ukraine,Obukhiv,Kyivs'ka oblast,Obukhivs'kyi district
473,"Tbilisi
Ivano-Frankivsk","Ivano-Frankivsk, Ivano-Frankivs'ka oblast, Ukraine",48.922633000000005,24.711117,Ukraine,Ivano-Frankivsk,Ivano-Frankivs'ka oblast,
474,Селидове,"Selydove, Donetsk Oblast, Ukraine",48.15,37.303889,Ukraine,Selydove,Donetsk Oblast,
475,"м. Лубни, Полтавська обл.","Lubny, Poltavs'ka oblast, Ukraine",50.016667,33.0,Ukraine,Lubny,Poltavs'ka oblast,
476,м. Жовті Води,"Zhovti Vody, Dnipropetrovsk Oblast, Ukraine",48.34999999999999,33.5,Ukraine,Zhovti Vody,Dnipropetrovsk Oblast,
477,"Бровари, Київська область","Brovary, Kyivs'ka oblast, Ukraine",50.511083,30.7909,Ukraine,Brovary,Kyivs'ka oblast,
478,Северодонецьк,"Severodonetsk, Luhans'ka oblast, Ukraine",48.933333000000005,38.5,Ukraine,Severodonetsk,Luhans'ka oblast,
479,м. Липовець Вінницька обл.,"Lypovets', Vinnyts'ka oblast, Ukraine",49.220833,29.05694399999999,Ukraine,Lypovets',Vinnyts'ka oblast,Lypovets'kyi district
480,"м. Дубно, Рівненська обл.","Dubno, Rivnens'ka oblast, Ukraine",50.416667,25.75,Ukraine,Dubno,Rivnens'ka oblast,
481,м.Калуш Івано-Франківська обл,"Kalush, Ivano-Frankivs'ka oblast, Ukraine",49.04416699999999,24.359722,Ukraine,Kalush,Ivano-Frankivs'ka oblast,
482,Пекин,"Beijing, Beijing, China",39.90403,116.407526,China,Beijing,Beijing,
483,"м.Світловодськ, Кіровоградська обл.","Svitlovods'k, Kirovohrads'ka oblast, Ukraine",49.050278000000006,33.241944000000004,Ukraine,Svitlovods'k,Kirovohrads'ka oblast,
484,Dniepropetrovsk,"Dnepropetrovsk, Dnipropetrovsk Oblast, Ukraine",48.464717,35.046183,Ukraine,Dnepropetrovsk,Dnipropetrovsk Oblast,
485,"Закарпатська область, місто Хуст","Khust, Zakarpats'ka oblast, Ukraine",48.181389,23.297778,Ukraine,Khust,Zakarpats'ka oblast,
486,Прилуки,"Pryluky, Chernihivs'ka oblast, Ukraine",50.59999999999999,32.4,Ukraine,Pryluky,Chernihivs'ka oblast,
487,"Украина, Киев","Kyiv, Kyiv city, Ukraine",50.4501,30.5234,Ukraine,Kyiv,Kyiv city,Kyiv City
488,"Івано-Франківськ, Ужгород.","Uzhhorod, Zakarpats'ka oblast, Ukraine",48.6208,22.287882999999997,Ukraine,Uzhhorod,Zakarpats'ka oblast,
489,Chicago ,"Chicago, IL, USA",41.8781136,-87.62979820000001,United States,Chicago,Illinois,Cook County
490,"c.Михайлівка ,Ямпільський район ","Mykhailivka, Vinnyts'ka oblast, Ukraine",48.27333300000001,28.094444,Ukraine,Mykhailivka,Vinnyts'ka oblast,Yampil's'kyi district
491,Dnepropetrovsk,"Dnepropetrovsk, Dnipropetrovsk Oblast, Ukraine",48.464717,35.046183,Ukraine,Dnepropetrovsk,Dnipropetrovsk Oblast,
492,"м. Вишгород, Київська обл.","Vyshhorod, Kyivs'ka oblast, Ukraine",50.5904776,30.4831982,Ukraine,Vyshhorod,Kyivs'ka oblast,Vyshhorods'kyi district
493,"с. Великий Дальник, Одеська обл.","Velykyi Dal'nyk, Odessa Oblast, Ukraine",46.4779255,30.5570934,Ukraine,Velykyi Dal'nyk,Odessa Oblast,Bilyaivs'kyi district
494,Корсунь,"Korsun', Donetsk Oblast, Ukraine",48.209722,38.073333,Ukraine,Korsun',Donetsk Oblast,
495,"Красноармійськ, раніше - Донецьк","Donetsk, Donetsk Oblast, Ukraine",48.015883,37.80285,Ukraine,Donetsk,Donetsk Oblast,
496,"Львівська обл., с.Скнилів","Sknyliv, Lviv Oblast, Ukraine",49.7942127,23.9355976,Ukraine,Sknyliv,Lviv Oblast,Pustomytivs'kyi district
497,Місто Київ ,"Kyiv, Kyiv city, Ukraine",50.4501,30.5234,Ukraine,Kyiv,Kyiv city,Kyiv City
498,"м. Южне, Одеська обл","Yuzhne, Odessa Oblast, Ukraine",46.624021299999995,31.1000648,Ukraine,Yuzhne,Odessa Oblast,
499,Каїр,"Cairo, Cairo Governorate, Egypt",30.0444196,31.235711600000005,Egypt,Cairo,Cairo Governorate,
500,Буча,"Bucha, Kyivs'ka oblast, Ukraine",50.4468014,30.075619699999997,Ukraine,Bucha,Kyivs'ka oblast,Kyjevo-Svyatoshyns'kyi district
501,Rzeszów,"Rzeszow, Poland",50.041186700000004,21.999119600000004,Poland,Rzeszow,Podkarpackie Voivodeship,Rzeszów County
502,Luxembourg,Luxembourg,49.815273,6.1295829999999984,Luxembourg,,,
503,Бережани,"Berezhany, Ternopil's'ka oblast, Ukraine",49.45,24.933332999999998,Ukraine,Berezhany,Ternopil's'ka oblast,Berezhans'kyi district
504,Коломия ,"Kolomyya, Ivano-Frankivs'ka oblast, Ukraine",48.530556,25.040278,Ukraine,Kolomyya,Ivano-Frankivs'ka oblast,Kolomyis'kyi district
505,"Івано-Франківська обл., м. Калуш","Kalush, Ivano-Frankivs'ka oblast, Ukraine",49.04416699999999,24.359722,Ukraine,Kalush,Ivano-Frankivs'ka oblast,
506,"місто Тячів, Закарпатська область","Tyachiv, Zakarpats'ka oblast, Ukraine",48.011389,23.572222,Ukraine,Tyachiv,Zakarpats'ka oblast,Tyachivs'kyi district
507,Калуш,"Kalush, Ivano-Frankivs'ka oblast, Ukraine",49.04416699999999,24.359722,Ukraine,Kalush,Ivano-Frankivs'ka oblast,
508,Ariccia,"Ariccia Rome, Italy",41.7211083,12.6726413,Italy,Ariccia,Lazio,Rome
509,СМП Немішаєве,"Nemishajeve, Kyivs'ka oblast, Ukraine",50.564721999999996,30.093611,Ukraine,Nemishajeve,Kyivs'ka oblast,Borodyans'kyi district
510,KIEV - the city of - LOVE,"Kyiv, Kyiv city, Ukraine",50.4501,30.5234,Ukraine,Kyiv,Kyiv city,Kyiv City
511,Прага,"Prague, Czech Republic",50.0755381,14.4378005,Czech Republic,Prague,Hlavní město Praha,Hlavní město Praha
512,"Каїр , Єгипет ","Cairo, Cairo Governorate, Egypt",30.0444196,31.235711600000005,Egypt,Cairo,Cairo Governorate,
513,Zhytomir,"Zhytomyr, Zhytomyrs'ka oblast, Ukraine",50.25465,28.658666999999998,Ukraine,Zhytomyr,Zhytomyrs'ka oblast,
514,місто Ужгород,"Uzhhorod, Zakarpats'ka oblast, Ukraine",48.6208,22.287882999999997,Ukraine,Uzhhorod,Zakarpats'ka oblast,
515,Познань,"Poznan, Poland",52.406374,16.9251681,Poland,Poznan,Greater Poland Voivodeship,Poznań County
516,"м. Дубно, Рівненська область","Dubno, Rivnens'ka oblast, Ukraine",50.416667,25.75,Ukraine,Dubno,Rivnens'ka oblast,
517,"м.Шостка, Сумська обл.","Shostka, Sums'ka oblast, Ukraine",51.866667,33.483333,Ukraine,Shostka,Sums'ka oblast,
518,"м.Городок, Львівська область","Horodok, Lviv Oblast, Ukraine",49.782222,23.643611,Ukraine,Horodok,Lviv Oblast,Horodots'kyi district
519,LVIV,"Lviv, Lviv Oblast, Ukraine",49.839683,24.029717,Ukraine,Lviv,Lviv Oblast,
520,Шанхай,"Shanghai, Shanghai, China",31.230415999999998,121.473701,China,Shanghai,Shanghai,
521,Vinnitsya,"Vinnytsia, Vinnyts'ka oblast, Ukraine",49.233083,28.468217,Ukraine,Vinnytsia,Vinnyts'ka oblast,
522,Вигода,"Vyhoda, Ivano-Frankivs'ka oblast, Ukraine",48.92833299999999,23.918332999999997,Ukraine,Vyhoda,Ivano-Frankivs'ka oblast,Dolyns'kyi district
523,Харків/Дніпропетровськ,"Dnepropetrovsk, Dnipropetrovsk Oblast, Ukraine",48.464717,35.046183,Ukraine,Dnepropetrovsk,Dnipropetrovsk Oblast,
524,Boyarka,"Boyarka, Kyivs'ka oblast, Ukraine",50.317116999999996,30.298167,Ukraine,Boyarka,Kyivs'ka oblast,Kyjevo-Svyatoshyns'kyi district
525,місто Кіровоград,"Kirovohrad, Kirovohrads'ka oblast, Ukraine",48.50793300000001,32.262316999999996,Ukraine,Kirovohrad,Kirovohrads'ka oblast,
526,Енергодар,"Enerhodar, Zaporiz'ka oblast, Ukraine",47.50150670000001,34.6341859,Ukraine,Enerhodar,Zaporiz'ka oblast,
527,Odesa,"Odessa, Odessa Oblast, Ukraine",46.482526,30.723309499999996,Ukraine,Odessa,Odessa Oblast,
528,Донецьк-Одеса ,"Odessa, Odessa Oblast, Ukraine",46.482526,30.723309499999996,Ukraine,Odessa,Odessa Oblast,
529,город Кривой Рог,"Kryvyi Rih, Dnipropetrovsk Oblast, Ukraine",47.910483,33.391783000000004,Ukraine,Kryvyi Rih,Dnipropetrovsk Oblast,
530,Кривий Ріг - Київ,"Hotel ""Kyiv"", Kryvyi Rih, Dnipropetrovsk Oblast, Ukraine",47.942796,33.418974,Ukraine,Kryvyi Rih,Dnipropetrovsk Oblast,
531,смт. Володарськ-Волинський,"Volodars'k-Volyns'kyi, Zhytomyrs'ka oblast, Ukraine",50.59555599999999,28.444722,Ukraine,Volodars'k-Volyns'kyi,Zhytomyrs'ka oblast,Volodars'ko-Volyns'kyi district
532,"Київ, Україна","Kyiv, Kyiv city, Ukraine",50.4501,30.5234,Ukraine,Kyiv,Kyiv city,Kyiv City
533,"Украина, Киев
Польша, Варшава","Kyiv, Kyiv city, Ukraine",50.4501,30.5234,Ukraine,Kyiv,Kyiv city,Kyiv City
534,ПІДВОЛОЧИСЬК,"Pidvolochys'k, Ternopil's'ka oblast, Ukraine",49.52638899999999,26.141389,Ukraine,Pidvolochys'k,Ternopil's'ka oblast,Pidvolochys'kyi district
535,м. Кіровоград,"Kirovohrad, Kirovohrads'ka oblast, Ukraine",48.50793300000001,32.262316999999996,Ukraine,Kirovohrad,Kirovohrads'ka oblast,
536,Kyyiv,"Kyiv, Kyiv city, Ukraine",50.4501,30.5234,Ukraine,Kyiv,Kyiv city,Kyiv City
537,"Христинівка, Черкаська обл.","Khrystynivka, Cherkas'ka oblast, Ukraine",48.81172120000001,29.973894899999998,Ukraine,Khrystynivka,Cherkas'ka oblast,Khrystynivs'kyi district
538,"м. Миколаїв, Львівська обл.","Mykolaiv, Lviv Oblast, Ukraine",49.5225714,23.9844475,Ukraine,Mykolaiv,Lviv Oblast,Mykolaivs'kyi district
539,ЛЬвів,"Lviv, Lviv Oblast, Ukraine",49.839683,24.029717,Ukraine,Lviv,Lviv Oblast,
540,Kriviy Rig,"Kryvyi Rih, Dnipropetrovsk Oblast, Ukraine",47.910483,33.391783000000004,Ukraine,Kryvyi Rih,Dnipropetrovsk Oblast,
541,Zaporozhye,"Zaporizhia, Zaporiz'ka oblast, Ukraine",47.8388,35.139567,Ukraine,Zaporizhia,Zaporiz'ka oblast,
542,"с. Волоське, Дніпропетровська обл.","Volos'ke, Dnipropetrovsk Oblast, Ukraine",48.304913,35.139401,Ukraine,Volos'ke,Dnipropetrovsk Oblast,Dnipropetrovs'kyi district
543,Аккерман,"Ackermann, 48161 Münster, Germany",51.95262289999999,7.5516663,Germany,Münster,North Rhine-Westphalia,Münster
544,с. Нове Залісся,"Nove Zalissya, Kyivs'ka oblast, Ukraine",50.690278,29.968611,Ukraine,Nove Zalissya,Kyivs'ka oblast,Borodyans'kyi district
545,"Tallinn, Estonia","Tallinn, Estonia",59.43696079999999,24.7535746,Estonia,Tallinn,Harju County,Tallinna linn
546,місто Чернігів,"Chernihiv, Chernihivs'ka oblast, Ukraine",51.4982,31.28935,Ukraine,Chernihiv,Chernihivs'ka oblast,
547,"Ternopil, Ukraine","Ternopil, Ternopil's'ka oblast, Ukraine",49.553517,25.594767,Ukraine,Ternopil,Ternopil's'ka oblast,
548,Нововолинськ,"Novovolynsk, Volyns'ka oblast, Ukraine",50.73333299999999,24.166667,Ukraine,Novovolynsk,Volyns'ka oblast,
549,Київська обл,"Kyivs'ka oblast, Ukraine",50.0529506,30.766713300000003,Ukraine,,Kyivs'ka oblast,
550,Vienna,"Vienna, Austria",48.208174299999996,16.3738189,Austria,Vienna,Vienna,
551,м. Кам'янець-Подільський,"Kam'yanets'-Podil's'kyi, Khmel'nyts'ka oblast, Ukraine",48.683333000000005,26.583333000000003,Ukraine,Kam'yanets'-Podil's'kyi,Khmel'nyts'ka oblast,
552,ОДЕССА,"Odessa, Odessa Oblast, Ukraine",46.482526,30.723309499999996,Ukraine,Odessa,Odessa Oblast,
553,"Дніпропетровськ
","Dnepropetrovsk, Dnipropetrovsk Oblast, Ukraine",48.464717,35.046183,Ukraine,Dnepropetrovsk,Dnipropetrovsk Oblast,
554,"Харків, Клагенфурт","Klagenfurt, Austria",46.62794,14.30899,Austria,Klagenfurt,Carinthia,Klagenfurt am Wörthersee
555,"м.Стрий, Львівська обл. ","Stryi, Lviv Oblast, Ukraine",49.25,23.85,Ukraine,Stryi,Lviv Oblast,
556,Липова Долина,"Lypova Dolyna, Sums'ka oblast, Ukraine",50.563691999999996,33.793605,Ukraine,Lypova Dolyna,Sums'ka oblast,Lypovodolyns'kyi district
557,"Киев, Донецк","Kyivs'kyi avenue, Donetsk, Donetsk Oblast, Ukraine",48.050048,37.778167100000005,Ukraine,Donetsk,Donetsk Oblast,
558,м. Комсомольськ,"Komsomol's'k, Poltavs'ka oblast, Ukraine",49.0156679,33.6450451,Ukraine,Komsomol's'k,Poltavs'ka oblast,Kremenchuts'kyi district
559,Мелитополь,"Melitopol', Zaporiz'ka oblast, Ukraine",46.833333,35.366667,Ukraine,Melitopol',Zaporiz'ka oblast,
560,"Волинська область, Ратнівський район, с. Кортеліси","Kortelisy, Volyns'ka oblast, Ukraine",51.8525,24.4303,Ukraine,Kortelisy,Volyns'ka oblast,Ratnivs'kyi district
561,Камянець-Подільський,"Kam'yanets'-Podil's'kyi, Khmel'nyts'ka oblast, Ukraine",48.683333000000005,26.583333000000003,Ukraine,Kam'yanets'-Podil's'kyi,Khmel'nyts'ka oblast,
562,Запоріжжя ,"Zaporizhia, Zaporiz'ka oblast, Ukraine",47.8388,35.139567,Ukraine,Zaporizhia,Zaporiz'ka oblast,
563,Wroclaw,"Wroclaw, Poland",51.1078852,17.0385376,Poland,Wroclaw,Lower Silesian Voivodeship,Wrocław County
564,"Lund, Sweden","Lund, Sweden",55.704660100000005,13.1910073,Sweden,Lund,Skane County,Lund
565,м. Стрий,"Stryi, Lviv Oblast, Ukraine",49.25,23.85,Ukraine,Stryi,Lviv Oblast,
566,Poznań,"Poznan, Poland",52.406374,16.9251681,Poland,Poznan,Greater Poland Voivodeship,Poznań County
567,м.Суми,"Sumy, Sums'ka oblast, Ukraine",50.9077,34.7981,Ukraine,Sumy,Sums'ka oblast,Sums'kyi district
568,"Постійне - Донецьк, тимчасове (зараз) - Київ","Kyiv, Kyiv city, Ukraine",50.4501,30.5234,Ukraine,Kyiv,Kyiv city,Kyiv City
569,м.Київ ,"Kyiv, Kyiv city, Ukraine",50.4501,30.5234,Ukraine,Kyiv,Kyiv city,Kyiv City
570,м. Ромни,"Romny, Sums'ka oblast, Ukraine",50.75,33.466667,Ukraine,Romny,Sums'ka oblast,
571,Києв,"Kyiv, Kyiv city, Ukraine",50.4501,30.5234,Ukraine,Kyiv,Kyiv city,Kyiv City
572,Симферополь,Simferopol,44.952117,34.102416999999996,,Simferopol,Crimea,
573,м.Волноваха,"Volnovakha, Donetsk Oblast, Ukraine",47.5951141,37.4831419,Ukraine,Volnovakha,Donetsk Oblast,Volnovas'kyi district
574,місто Вінниця,"Vinnytsia, Vinnyts'ka oblast, Ukraine",49.233083,28.468217,Ukraine,Vinnytsia,Vinnyts'ka oblast,
575,"San Jose, CA, USA","San Jose, CA, USA",37.3393857,-121.8949555,United States,San Jose,California,Santa Clara County
576,"Львівька обл., м. Стрий","Stryi, Lviv Oblast, Ukraine",49.25,23.85,Ukraine,Stryi,Lviv Oblast,
577,"Львівська обл, м. Самбір","Sambir, Lviv Oblast, Ukraine",49.516667,23.202778,Ukraine,Sambir,Lviv Oblast,
578,"Варна, Болгарія","Varna, Bulgaria",43.2140504,27.914733299999998,Bulgaria,Varna,Varna,Varna Municipality
579,кривий ріг,"Kryvyi Rih, Dnipropetrovsk Oblast, Ukraine",47.910483,33.391783000000004,Ukraine,Kryvyi Rih,Dnipropetrovsk Oblast,
580,с.Чубинське Київська обл.,"Chubyns'ke, Kyivs'ka oblast, Ukraine",50.384314,30.8486288,Ukraine,Chubyns'ke,Kyivs'ka oblast,Boryspil's'kyi district
581,"м.Бурштин, Івано-Франківська область","Burshtyn, Ivano-Frankivs'ka oblast, Ukraine",49.266667,24.633333,Ukraine,Burshtyn,Ivano-Frankivs'ka oblast,Halyts'kyi district
582,Місто Миколаїв,"Mykolaiv, Mykolaivs'ka oblast, Ukraine",46.975033,31.994583000000002,Ukraine,Mykolaiv,Mykolaivs'ka oblast,
583,м. Шепетівка,"Shepetivka, Khmel'nyts'ka oblast, Ukraine",50.183333000000005,27.066667,Ukraine,Shepetivka,Khmel'nyts'ka oblast,
584,Petakh Tiqwa (Israel),"Petah Tikva, Israel",32.084041,34.887762,Israel,Petah Tikva,,
585,Івано-франківськ,"Ivano-Frankivsk, Ivano-Frankivs'ka oblast, Ukraine",48.922633000000005,24.711117,Ukraine,Ivano-Frankivsk,Ivano-Frankivs'ka oblast,
586,житомир,"Zhytomyr, Zhytomyrs'ka oblast, Ukraine",50.25465,28.658666999999998,Ukraine,Zhytomyr,Zhytomyrs'ka oblast,
587,місто Горлівка Донецька область,"Horlivka, Donetsk Oblast, Ukraine",48.3071,38.029633000000004,Ukraine,Horlivka,Donetsk Oblast,
588,Мiсто Павлоград,"Pavlohrad, Dnipropetrovsk Oblast, Ukraine",48.516667,35.866667,Ukraine,Pavlohrad,Dnipropetrovsk Oblast,
589,Стрий,"Stryi, Lviv Oblast, Ukraine",49.25,23.85,Ukraine,Stryi,Lviv Oblast,
590,"м.Київ, вул. Вільгельма Піка 7/43","Vil'hel'ma Pika street, 7/43, Kyiv, Kyiv city, Ukraine",50.47,30.413842,Ukraine,Kyiv,Kyiv city,Kyiv City
591,проживаю на данный момент в городе Киев,"Kyiv, Kyiv city, Ukraine",50.4501,30.5234,Ukraine,Kyiv,Kyiv city,Kyiv City
592,Київська область,"Kyivs'ka oblast, Ukraine",50.0529506,30.766713300000003,Ukraine,,Kyivs'ka oblast,
593,"Новояворівськ, Львівська обл.","Novoyavorivs'k, Lviv Oblast, Ukraine",49.93111099999999,23.573056,Ukraine,Novoyavorivs'k,Lviv Oblast,Yavorivs'kyi district
594,Vinnitsia,"Vinnytsia, Vinnyts'ka oblast, Ukraine",49.233083,28.468217,Ukraine,Vinnytsia,Vinnyts'ka oblast,
595,"Kyiv, Ukraine","Kyiv, Kyiv city, Ukraine",50.4501,30.5234,Ukraine,Kyiv,Kyiv city,Kyiv City
596,"смт.Новомиколаївка,Новомиколаївський район, Запорізька область.","Novomykolaivka, Zaporiz'ka oblast, Ukraine",47.978889,35.897778,Ukraine,Novomykolaivka,Zaporiz'ka oblast,Novomykolaivs'kyi district
597,Ивано-Франковск,"Ivano-Frankivsk, Ivano-Frankivs'ka oblast, Ukraine",48.922633000000005,24.711117,Ukraine,Ivano-Frankivsk,Ivano-Frankivs'ka oblast,
598,Москва,"Moscow, Russia",55.755826,37.6173,Russia,Moscow,Moscow,gorod Moskva
599,"Odessa (Одеса, Україна)","Odessa, Odessa Oblast, Ukraine",46.482526,30.723309499999996,Ukraine,Odessa,Odessa Oblast,
600,Г.Киев ,"Kyiv, Kyiv city, Ukraine",50.4501,30.5234,Ukraine,Kyiv,Kyiv city,Kyiv City
601,"АР Крим, Феодосiя",Feodosiya,45.031933,35.382433,,Feodosiya,Crimea,
602,"Украина, Вишневе","Vyshneve, Kyivs'ka oblast, Ukraine",50.3919,30.368267,Ukraine,Vyshneve,Kyivs'ka oblast,Kyjevo-Svyatoshyns'kyi district
603,Переяслав-Хмельницький,"Pereyaslav-Khmel'nyts'kyi, Kyivs'ka oblast, Ukraine",50.066111,31.442221999999997,Ukraine,Pereyaslav-Khmel'nyts'kyi,Kyivs'ka oblast,
604,Мостиська,"Mostys'ka, Lviv Oblast, Ukraine",49.79416699999999,23.1525,Ukraine,Mostys'ka,Lviv Oblast,Mostys'kyi district
605,Золотоноша,"Zolotonosha, Cherkas'ka oblast, Ukraine",49.666667,32.033333,Ukraine,Zolotonosha,Cherkas'ka oblast,
606,"Сосновці, Польша","Sosnovka, Ukraine",50.2923,24.2643,Ukraine,,Lviv Oblast,Sokal's'kyi district
607,М Миколаїв,"Mykolaiv, Mykolaivs'ka oblast, Ukraine",46.975033,31.994583000000002,Ukraine,Mykolaiv,Mykolaivs'ka oblast,
608,м. Новояворівськ,"Novoyavorivs'k, Lviv Oblast, Ukraine",49.93111099999999,23.573056,Ukraine,Novoyavorivs'k,Lviv Oblast,Yavorivs'kyi district
609,"Україна, м. Львів","Lviv, Lviv Oblast, Ukraine",49.839683,24.029717,Ukraine,Lviv,Lviv Oblast,
610,Dnipropetrovs'k,"Dnepropetrovsk, Dnipropetrovsk Oblast, Ukraine",48.464717,35.046183,Ukraine,Dnepropetrovsk,Dnipropetrovsk Oblast,
611,Слов’янськ,"Slovyansk, Donetsk Oblast, Ukraine",48.8532,37.6053,Ukraine,Slovyansk,Donetsk Oblast,Slov'yans'kyi district
612,Vinnytsa,"Vinnytsia, Vinnyts'ka oblast, Ukraine",49.233083,28.468217,Ukraine,Vinnytsia,Vinnyts'ka oblast,
613,Білогородка,"Bilohorodka, Kyivs'ka oblast, Ukraine",50.3750037,30.2227951,Ukraine,Bilohorodka,Kyivs'ka oblast,Kyjevo-Svyatoshyns'kyi district
614,Карлівка,"Karlivka, Poltavs'ka oblast, Ukraine",49.45,35.133333,Ukraine,Karlivka,Poltavs'ka oblast,Karlivs'kyi district
615,Севастополь,Sevastopol,44.61665,33.525366999999996,,Sevastopol,Sevastopol' city,Sevastopol' city
616,San Francisco,"San Francisco, CA, USA",37.7749295,-122.4194155,United States,San Francisco,California,San Francisco County
617,Krakow,"Krakow, Poland",50.06465009999999,19.9449799,Poland,Krakow,Lesser Poland Voivodeship,Kraków County
618,Верхньодніпровськ,"Verkhn'odniprovs'k, Dnipropetrovsk Oblast, Ukraine",48.656110999999996,34.328333,Ukraine,Verkhn'odniprovs'k,Dnipropetrovsk Oblast,Verkhn'odniprovs'kyi district
619, керчь,Kerch,45.357314,36.468293,,Kerch,Crimea,
620,Лодзь,"Lodz, Poland",51.7592485,19.4559833,Poland,Lodz,Łódź Voivodeship,Łódź
621,"Izmir,Turkey","İzmir, Turkey",38.41885,27.12872,Turkey,İzmir,,
622,м.Миколаїв,"Mykolaiv, Mykolaivs'ka oblast, Ukraine",46.975033,31.994583000000002,Ukraine,Mykolaiv,Mykolaivs'ka oblast,
623,м.Херсон,"Kherson, Khersons'ka oblast, Ukraine",46.635417,32.616867,Ukraine,Kherson,Khersons'ka oblast,
624,г. Ялта,Yalta,44.49520500000001,34.166301000000004,,Yalta,Crimea,
625,"Łviv
","Lviv, Lviv Oblast, Ukraine",49.839683,24.029717,Ukraine,Lviv,Lviv Oblast,
626,Viden,"Vienna, Austria",48.208174299999996,16.3738189,Austria,Vienna,Vienna,
627,Uzhhorod,"Uzhhorod, Zakarpats'ka oblast, Ukraine",48.6208,22.287882999999997,Ukraine,Uzhhorod,Zakarpats'ka oblast,
628,Kherson,"Kherson, Khersons'ka oblast, Ukraine",46.635417,32.616867,Ukraine,Kherson,Khersons'ka oblast,
629,Заліщики,"Zalishchyky, Ternopil's'ka oblast, Ukraine",48.65,25.733333,Ukraine,Zalishchyky,Ternopil's'ka oblast,Zalishchyts'kyi district
630,м.Мукачево (Закарпатська обл.),"Mukacheve, Zakarpats'ka oblast, Ukraine",48.45,22.75,Ukraine,Mukacheve,Zakarpats'ka oblast,
631,"Харківська обл., Лозівський р-н, смт. Панютине","Panyutyne, Kharkiv Oblast, Ukraine",48.929722,36.28,Ukraine,Panyutyne,Kharkiv Oblast,
632,Донецьк/Рівне,"Rivne, Rivnens'ka oblast, Ukraine",50.6199,26.251617,Ukraine,Rivne,Rivnens'ka oblast,
633,Софіївська борщагівка,"Sofiivs'ka Borshchahivka, Kyivs'ka oblast, Ukraine",50.411389,30.36916699999999,Ukraine,Sofiivs'ka Borshchahivka,Kyivs'ka oblast,Kyjevo-Svyatoshyns'kyi district
634,"Україна, м.Хмельницький","Khmelnytskyi, Khmel'nyts'ka oblast, Ukraine",49.422983,26.987133,Ukraine,Khmelnytskyi,Khmel'nyts'ka oblast,
635,Підволочиськ,"Pidvolochys'k, Ternopil's'ka oblast, Ukraine",49.52638899999999,26.141389,Ukraine,Pidvolochys'k,Ternopil's'ka oblast,Pidvolochys'kyi district
636,{fhmrjd,"Kharkiv, Kharkiv Oblast, Ukraine",49.9935,36.230383,Ukraine,Kharkiv,Kharkiv Oblast,
637,Южне,"Yuzhne, Odessa Oblast, Ukraine",46.624021299999995,31.1000648,Ukraine,Yuzhne,Odessa Oblast,
638,Severodonrtsk,"Severodonetsk, Luhans'ka oblast, Ukraine",48.933333000000005,38.5,Ukraine,Severodonetsk,Luhans'ka oblast,
639,м. Луганськ,"Luhansk, Luhans'ka oblast, Ukraine",48.574040999999994,39.307815000000005,Ukraine,Luhansk,Luhans'ka oblast,
640,місто Тернопіль,"Ternopil, Ternopil's'ka oblast, Ukraine",49.553517,25.594767,Ukraine,Ternopil,Ternopil's'ka oblast,
641,Ukraine,Ukraine,48.379433,31.16558,Ukraine,,,
642,"м. Іллічівськ, Одеська область, Україна","Illichivs'k, Odessa Oblast, Ukraine",46.2952236,30.648085499999997,Ukraine,Illichivs'k,Odessa Oblast,
643,Черновцы,"Chernivtsi, Chernivets'ka oblast, Ukraine",48.2920787,25.9358367,Ukraine,Chernivtsi,Chernivets'ka oblast,
644,"Київ, Київська область","Kyiv, Kyiv city, Ukraine",50.4501,30.5234,Ukraine,Kyiv,Kyiv city,Kyiv City
645,Місто Суми,"Sumy, Sums'ka oblast, Ukraine",50.9077,34.7981,Ukraine,Sumy,Sums'ka oblast,Sums'kyi district
646,м. Українка,"Ukrainka, Kyivs'ka oblast, Ukraine",50.15308599999999,30.743492,Ukraine,Ukrainka,Kyivs'ka oblast,Obukhivs'kyi district
647,Mykolaiv,"Mykolaiv, Mykolaivs'ka oblast, Ukraine",46.975033,31.994583000000002,Ukraine,Mykolaiv,Mykolaivs'ka oblast,
648,Харків ,"Kharkiv, Kharkiv Oblast, Ukraine",49.9935,36.230383,Ukraine,Kharkiv,Kharkiv Oblast,
649,"м. Жовті Води, Дніпропетровська обл.","Zhovti Vody, Dnipropetrovsk Oblast, Ukraine",48.34999999999999,33.5,Ukraine,Zhovti Vody,Dnipropetrovsk Oblast,
650,"Донецька область, м. Миколаївка","Mykolaivka, Donetsk Oblast, Ukraine",48.85304420000001,37.77115429999999,Ukraine,Mykolaivka,Donetsk Oblast,
651,Мелітополь Запорізької області,"High School 9, Haharina street, 9A, Melitopol', Zaporiz'ka oblast, Ukraine, 72300",46.86202369999999,35.337451,Ukraine,Melitopol',Zaporiz'ka oblast,
652,"Беларусь, Слоним","Slonim, Belarus",53.083332999999996,25.316667000000002,Belarus,Slonim,Hrodna Province,Slonim District
653,Верхнеднепровск,"Verkhn'odniprovs'k, Dnipropetrovsk Oblast, Ukraine",48.656110999999996,34.328333,Ukraine,Verkhn'odniprovs'k,Dnipropetrovsk Oblast,Verkhn'odniprovs'kyi district
654,"рідне - Луганськ, наразі - Одеса","Odessa, Odessa Oblast, Ukraine",46.482526,30.723309499999996,Ukraine,Odessa,Odessa Oblast,
655,Кривий  Ріг,"Kryvyi Rih, Dnipropetrovsk Oblast, Ukraine",47.910483,33.391783000000004,Ukraine,Kryvyi Rih,Dnipropetrovsk Oblast,
656,м. івано-франківськ,"Ivano-Frankivsk, Ivano-Frankivs'ka oblast, Ukraine",48.922633000000005,24.711117,Ukraine,Ivano-Frankivsk,Ivano-Frankivs'ka oblast,
657,Калуш та Чернівці,"Chernivtsi, Chernivets'ka oblast, Ukraine",48.2920787,25.9358367,Ukraine,Chernivtsi,Chernivets'ka oblast,
658,"Київ, Кривий Ріг","Hotel ""Kyiv"", Kryvyi Rih, Dnipropetrovsk Oblast, Ukraine",47.942796,33.418974,Ukraine,Kryvyi Rih,Dnipropetrovsk Oblast,
659,Helsinki,"Helsinki, Finland",60.17332440000001,24.9410248,Finland,Helsinki,Uusimaa,Helsinki
660,Украина,Ukraine,48.379433,31.16558,Ukraine,,,
661,Дніпроаетровськ,"Dnepropetrovsk, Dnipropetrovsk Oblast, Ukraine",48.464717,35.046183,Ukraine,Dnepropetrovsk,Dnipropetrovsk Oblast,
662,"М. Херсон, Херсонська обл. Україна","Kherson, Khersons'ka oblast, Ukraine",46.635417,32.616867,Ukraine,Kherson,Khersons'ka oblast,
663,м. Сміла,"Smila, Cherkas'ka oblast, Ukraine",49.227717,31.852233000000002,Ukraine,Smila,Cherkas'ka oblast,
664,м. Острог,"Ostroh, Rivnens'ka oblast, Ukraine",50.333333,26.516666999999998,Ukraine,Ostroh,Rivnens'ka oblast,
665,Kirovograd,"Kirovohrad, Kirovohrads'ka oblast, Ukraine",48.50793300000001,32.262316999999996,Ukraine,Kirovohrad,Kirovohrads'ka oblast,
666,смт.Рокитно ,"Gmina Rokitno, Poland",52.115047,23.3286647,Poland,,Lublin Voivodeship,bialski
667,"Canada , Toronto.","Toronto, ON, Canada",43.653226000000004,-79.3831843,Canada,Toronto,Ontario,Toronto Division
668,М. Харків,"Kharkiv, Kharkiv Oblast, Ukraine",49.9935,36.230383,Ukraine,Kharkiv,Kharkiv Oblast,
669,Київ/Луганськ,"Luhansk, Luhans'ka oblast, Ukraine",48.574040999999994,39.307815000000005,Ukraine,Luhansk,Luhans'ka oblast,
670,Копичинці,"Kopychyntsi, Ternopil's'ka oblast, Ukraine",49.09999999999999,25.933332999999998,Ukraine,Kopychyntsi,Ternopil's'ka oblast,Husyatyns'kyi district
671,Дніпропетровськ.,"Dnepropetrovsk, Dnipropetrovsk Oblast, Ukraine",48.464717,35.046183,Ukraine,Dnepropetrovsk,Dnipropetrovsk Oblast,
672,"г. Симферополь, АР Крым, Украина","Simferopol, Crimea",44.952117,34.102416999999996,,Simferopol,Crimea,
673,"Беларусь, Мінск","Minsk, Belarus",53.9,27.566667,Belarus,Minsk,,
674,"Миколаївська обл,   м. Первомайськ","Школа №17 ім. Миколи Вінграновського, Sholom Aleikhema Street, 56, Pervomais'k, Миколаївська обл., Ukraine, 55200",48.0497033,30.83256129999999,Ukraine,Pervomais'k,Миколаївська обл.,Pervomais'ka district
675,Іваничі,"Ivanychi, Volyns'ka oblast, Ukraine",50.641667,24.366667,Ukraine,Ivanychi,Volyns'ka oblast,Ivanychivs'kyi district
676,Нижньогірський ,Nyzhn'ohirs'kyi,45.4465898,34.7383516,,Nyzhn'ohirs'kyi,Crimea,
677,"Місто Яворів, Львівська область","Yavoriv, Lviv Oblast, Ukraine",49.94694399999999,23.393056,Ukraine,Yavoriv,Lviv Oblast,Yavorivs'kyi district
678,смт. Брошнів-Осада,"Broshniv-Osada, Ivano-Frankivs'ka oblast, Ukraine",48.999444,24.181389000000003,Ukraine,Broshniv-Osada,Ivano-Frankivs'ka oblast,Rozhnyativs'kyi district
679,м.Золочів,"Zolochiv, Lviv Oblast, Ukraine",49.80941,24.901370999999997,Ukraine,Zolochiv,Lviv Oblast,Zolochivs'kyi district
680,Кузнецовськ,"Kuznetsovsk, Rivnens'ka oblast, Ukraine",51.34365529999999,25.8490867,Ukraine,Kuznetsovsk,Rivnens'ka oblast,
681,КИЇВ,"Kyiv, Kyiv city, Ukraine",50.4501,30.5234,Ukraine,Kyiv,Kyiv city,Kyiv City
682,"СМТ Веселинове, Миколаївська область","Veselynove, Mykolaivs'ka oblast, Ukraine",47.34999999999999,31.23333299999999,Ukraine,Veselynove,Mykolaivs'ka oblast,Veselynivs'kyi district
683,"м.Могилів - Подільський, Вінницька обл.","Mohyliv-Podil's'kyi, Vinnyts'ka oblast, Ukraine",48.455,27.808056,Ukraine,Mohyliv-Podil's'kyi,Vinnyts'ka oblast,
684,"Paris, France","Paris, France",48.856614,2.3522218999999995,France,Paris,Île-de-France,Paris
685,Овруч,"Ovruch, Zhytomyrs'ka oblast, Ukraine",51.316666999999995,28.8,Ukraine,Ovruch,Zhytomyrs'ka oblast,Ovruts'kyi district
686,м. Сокаль,"Sokal', Lviv Oblast, Ukraine",50.48333299999999,24.283333,Ukraine,Sokal',Lviv Oblast,Sokal's'kyi district
687,"Київ, на час навчання - Таїланд","Kyiv, Kyiv city, Ukraine",50.4501,30.5234,Ukraine,Kyiv,Kyiv city,Kyiv City
688,"Україна, м. Харків","Kharkiv, Kharkiv Oblast, Ukraine",49.9935,36.230383,Ukraine,Kharkiv,Kharkiv Oblast,
689,м.Костянтинівка,"Kostyantynivka, Donetsk Oblast, Ukraine",48.533333,37.716667,Ukraine,Kostyantynivka,Donetsk Oblast,
690,м.Кам'янець-Подільський,"Kam'yanets'-Podil's'kyi, Khmel'nyts'ka oblast, Ukraine",48.683333000000005,26.583333000000003,Ukraine,Kam'yanets'-Podil's'kyi,Khmel'nyts'ka oblast,
691,c.Погибляк,"Pohyblyak, Cherkas'ka oblast, Ukraine",49.273056,30.635,Ukraine,Pohyblyak,Cherkas'ka oblast,Lysyans'kyi district
692,Нова Ушиця Хмельницької області,"Nova Ushytsya, Khmel'nyts'ka oblast, Ukraine",48.835,27.271389000000003,Ukraine,Nova Ushytsya,Khmel'nyts'ka oblast,Novoushyts'kyi district
693,м.Радомишль     Житомирська   обл.,"Radomyshl', Zhytomyrs'ka oblast, Ukraine",50.494721999999996,29.233333000000002,Ukraine,Radomyshl',Zhytomyrs'ka oblast,Radomyshl's'kyi district
694,Донецьк-Харків,"Kharkiv, Kharkiv Oblast, Ukraine",49.9935,36.230383,Ukraine,Kharkiv,Kharkiv Oblast,
695,"Волинська область, м.Луцьк","Lutsk, Volyns'ka oblast, Ukraine",50.74723299999999,25.325383,Ukraine,Lutsk,Volyns'ka oblast,
696,Irpin`,"Irpin', Kyivs'ka oblast, Ukraine",50.51875,30.239783000000003,Ukraine,Irpin',Kyivs'ka oblast,
697,Кривой Рог Днепропетровской области,"Kryvyi Rih, Dnipropetrovsk Oblast, Ukraine",47.910483,33.391783000000004,Ukraine,Kryvyi Rih,Dnipropetrovsk Oblast,
698,м.Скадовськ ,"Skadovs'k, Khersons'ka oblast, Ukraine",46.116667,32.916667,Ukraine,Skadovs'k,Khersons'ka oblast,Skadovs'kyi district
699,"Дружківка, Донецька обл","Druzhkivka, Donetsk Oblast, Ukraine",48.621389,37.527778000000005,Ukraine,Druzhkivka,Donetsk Oblast,
700,"м. Маріуполь, Донецька область","Mariupol', Donetsk Oblast, Ukraine",47.097133,37.543366999999996,Ukraine,Mariupol',Donetsk Oblast,
701,г. Вишневый Киево-святошинский район,"Vyshneve, Kyivs'ka oblast, Ukraine",50.3919,30.368267,Ukraine,Vyshneve,Kyivs'ka oblast,Kyjevo-Svyatoshyns'kyi district
702,місто Дніпропетровськ,"Dnepropetrovsk, Dnipropetrovsk Oblast, Ukraine",48.464717,35.046183,Ukraine,Dnepropetrovsk,Dnipropetrovsk Oblast,
703,"Cuenca, Ecuador","Cuenca, Ecuador",-2.9001285,-79.00589649999998,Ecuador,Cuenca,Azuay,
704,м. Зміів,"Zmiiv, Kharkiv Oblast, Ukraine",49.6944064,36.3595476,Ukraine,Zmiiv,Kharkiv Oblast,Zmiivs'kyi district
705,"Буча, Київська обл.","Bucha, Kyivs'ka oblast, Ukraine",50.4468014,30.075619699999997,Ukraine,Bucha,Kyivs'ka oblast,Kyjevo-Svyatoshyns'kyi district
706,Сєверодонецьк,"Severodonetsk, Luhans'ka oblast, Ukraine",48.933333000000005,38.5,Ukraine,Severodonetsk,Luhans'ka oblast,
707,"Київ, Кіровоград","Kirovohrads'kyi lane, Kyiv, Kyiv city, Ukraine",50.414115,30.511199199999997,Ukraine,Kyiv,Kyiv city,Kyiv City
708,"Львівська обл., м.Городок","Horodok, Lviv Oblast, Ukraine",49.782222,23.643611,Ukraine,Horodok,Lviv Oblast,Horodots'kyi district
709,м.Новий Розділ,"Novyi Rozdil, Lviv Oblast, Ukraine",49.471944,24.133333,Ukraine,Novyi Rozdil,Lviv Oblast,
710,Гоща,"Hoshcha, Rivnens'ka oblast, Ukraine",50.598611,26.675278000000002,Ukraine,Hoshcha,Rivnens'ka oblast,Hoshchans'kyi district
711,м.Запорiжжя,"Zaporizhia, Zaporiz'ka oblast, Ukraine",47.8388,35.139567,Ukraine,Zaporizhia,Zaporiz'ka oblast,
712,с.Гаразджа,"Harazdzha, Volyns'ka oblast, Ukraine",50.739444,25.526111,Ukraine,Harazdzha,Volyns'ka oblast,Luts'kyi district
713,Сокаль,"Sokal', Lviv Oblast, Ukraine",50.48333299999999,24.283333,Ukraine,Sokal',Lviv Oblast,Sokal's'kyi district
714,м. Винница,"Vinnytsia, Vinnyts'ka oblast, Ukraine",49.233083,28.468217,Ukraine,Vinnytsia,Vinnyts'ka oblast,
715,Львів ,"Lviv, Lviv Oblast, Ukraine",49.839683,24.029717,Ukraine,Lviv,Lviv Oblast,
716,"м. Золочів, Львівська область","Zolochiv, Lviv Oblast, Ukraine",49.80941,24.901370999999997,Ukraine,Zolochiv,Lviv Oblast,Zolochivs'kyi district
717,Жмеринка,"Zhmerynka, Vinnyts'ka oblast, Ukraine",49.05,28.1,Ukraine,Zhmerynka,Vinnyts'ka oblast,
718,"Одесская область, г. Ильичевск","Illichivs'k, Odessa Oblast, Ukraine",46.2952236,30.648085499999997,Ukraine,Illichivs'k,Odessa Oblast,
719,"Львів
Черкаси","Cherkaska Street, Lviv, Lviv Oblast, Ukraine",49.856277,24.0590819,Ukraine,Lviv,Lviv Oblast,
720,Snigurivka,"Snihurivka, Mykolaivs'ka oblast, Ukraine",47.066666999999995,32.816666999999995,Ukraine,Snihurivka,Mykolaivs'ka oblast,Snihurivs'kyi district
721,"Київська область, м. Ірпінь","Irpin', Kyivs'ka oblast, Ukraine",50.51875,30.239783000000003,Ukraine,Irpin',Kyivs'ka oblast,
722,м. Луцьк Волинської області,"Gospodarskiy Sud Volinskoї Oblasti, Voli Ave, 54А, Lutsk, Волынская, Ukraine, 43000",50.743512,25.345957000000002,Ukraine,Lutsk,Волынская,
723,"Заболотів,Снятинський р-н,Івано-Франківської обл.","Zabolotiv, Ivano-Frankivs'ka oblast, Ukraine",48.4723378,25.2792457,Ukraine,Zabolotiv,Ivano-Frankivs'ka oblast,Snyatyns'kyi district
724,Кіев,"Klub Kiyev Misogi, Symona Petlyury street, 4, Kyiv, Kyiv city, Ukraine, 01032",50.4451324,30.4996951,Ukraine,Kyiv,Kyiv city,Kyiv City
725,Город Борисполь,"Boryspil', Kyivs'ka oblast, Ukraine",50.3482,30.95615,Ukraine,Boryspil',Kyivs'ka oblast,
726,Долина,"Dolina, 9131 Dolina, Austria",46.640126200000005,14.4491362,Austria,Dolina,Carinthia,Klagenfurt-Land District
727,"м.Ірпінь, Київська обл.","Irpin', Kyivs'ka oblast, Ukraine",50.51875,30.239783000000003,Ukraine,Irpin',Kyivs'ka oblast,
728,с-ще Градизьк,"Hradyz'k, Poltavs'ka oblast, Ukraine",49.233069,33.132037,Ukraine,Hradyz'k,Poltavs'ka oblast,Hlobyns'kyi district
729,Жидачів,"Zhydachiv, Lviv Oblast, Ukraine",49.381389,24.140832999999997,Ukraine,Zhydachiv,Lviv Oblast,Zhydachivs'kyi district
730,Opole,"Opole, Poland",50.6751067,17.921297600000003,Poland,Opole,Opole Voivodeship,Opole County
731,Градизьк,"Hradyz'k, Poltavs'ka oblast, Ukraine",49.233069,33.132037,Ukraine,Hradyz'k,Poltavs'ka oblast,Hlobyns'kyi district
732,Херсонська обл. м. Скадовськ,"Skadovs'k, Khersons'ka oblast, Ukraine",46.116667,32.916667,Ukraine,Skadovs'k,Khersons'ka oblast,Skadovs'kyi district
733,Dnipropetrovsk ,"Dnepropetrovsk, Dnipropetrovsk Oblast, Ukraine",48.464717,35.046183,Ukraine,Dnepropetrovsk,Dnipropetrovsk Oblast,
734,місто  Дніпродзержинськ,"Dniprodzerzhyns'k, Dnipropetrovsk Oblast, Ukraine",48.523117,34.613683,Ukraine,Dniprodzerzhyns'k,Dnipropetrovsk Oblast,
735,"Чернігів, Київ","Chernihivska Street, Kyiv, Kyiv city, Ukraine",50.4063969,30.676372100000002,Ukraine,Kyiv,Kyiv city,Kyiv City
736,"Львів
","Lviv, Lviv Oblast, Ukraine",49.839683,24.029717,Ukraine,Lviv,Lviv Oblast,
737,с. Нові Петрівці,"Novi Petrivtsi, Kyivs'ka oblast, Ukraine",50.623056,30.446389,Ukraine,Novi Petrivtsi,Kyivs'ka oblast,Vyshhorods'kyi district
738,Великий Любінь,"Velykyi Lyubin', Lviv Oblast, Ukraine",49.723889,23.733611,Ukraine,Velykyi Lyubin',Lviv Oblast,Horodots'kyi district
739,"Fröndenberg, Germany","Fröndenberg, Germany",51.471944,7.7658330000000015,Germany,Fröndenberg,North Rhine-Westphalia,Arnsberg
740,м. Єнакієве,"Yenakijeve, Donetsk Oblast, Ukraine",48.216667,38.2,Ukraine,Yenakijeve,Donetsk Oblast,
741,Makiivka,"Makiivka, Donetsk Oblast, Ukraine",48.0459557,37.9666901,Ukraine,Makiivka,Donetsk Oblast,
742,м. Киев,"Kyiv, Kyiv city, Ukraine",50.4501,30.5234,Ukraine,Kyiv,Kyiv city,Kyiv City
743,Ильичевск,"Illichivs'k, Odessa Oblast, Ukraine",46.2952236,30.648085499999997,Ukraine,Illichivs'k,Odessa Oblast,
744,"Київ, Львів","Artema street, Kyiv, Kyiv city, Ukraine",50.456283,30.495723100000003,Ukraine,Kyiv,Kyiv city,Kyiv City
745,Kolomyya,"Kolomyya, Ivano-Frankivs'ka oblast, Ukraine",48.530556,25.040278,Ukraine,Kolomyya,Ivano-Frankivs'ka oblast,Kolomyis'kyi district
746,м.Вишгород,"Vyshhorod, Kyivs'ka oblast, Ukraine",50.5904776,30.4831982,Ukraine,Vyshhorod,Kyivs'ka oblast,Vyshhorods'kyi district
747,Wrocław,"Wroclaw, Poland",51.1078852,17.0385376,Poland,Wroclaw,Lower Silesian Voivodeship,Wrocław County
748,М. Тернопіль,"Ternopil, Ternopil's'ka oblast, Ukraine",49.553517,25.594767,Ukraine,Ternopil,Ternopil's'ka oblast,
749,Uman,"Uman', Cherkas'ka oblast, Ukraine",48.75,30.216666999999998,Ukraine,Uman',Cherkas'ka oblast,
750,"м. Боярка, Києво-Святошинський район","Boyarka, Kyivs'ka oblast, Ukraine",50.317116999999996,30.298167,Ukraine,Boyarka,Kyivs'ka oblast,Kyjevo-Svyatoshyns'kyi district
751,melitopol,"Melitopol', Zaporiz'ka oblast, Ukraine",46.833333,35.366667,Ukraine,Melitopol',Zaporiz'ka oblast,
752,m.Volnovaha,"Volnovakha, Donetsk Oblast, Ukraine",47.5951141,37.4831419,Ukraine,Volnovakha,Donetsk Oblast,Volnovas'kyi district
753,м.Жашків,"Zhashkiv, Cherkas'ka oblast, Ukraine",49.25,30.1,Ukraine,Zhashkiv,Cherkas'ka oblast,Zhashkivs'kyi district
754,Харків.,"Kharkiv, Kharkiv Oblast, Ukraine",49.9935,36.230383,Ukraine,Kharkiv,Kharkiv Oblast,
755,Бердянск ,"Berdyans'k, Zaporiz'ka oblast, Ukraine",46.759722,36.784444,Ukraine,Berdyans'k,Zaporiz'ka oblast,
756,"м. Бровари, Київська обл.","Brovary, Kyivs'ka oblast, Ukraine",50.511083,30.7909,Ukraine,Brovary,Kyivs'ka oblast,
757,"Стрий, Львівська область","Stryi, Lviv Oblast, Ukraine",49.25,23.85,Ukraine,Stryi,Lviv Oblast,
758,T. Skole,"Skole, Lviv Oblast, Ukraine",49.0352,23.5059,Ukraine,,Lviv Oblast,Skolivs'kyi district
759,Дніпропетроськ,"Dnepropetrovsk, Dnipropetrovsk Oblast, Ukraine",48.464717,35.046183,Ukraine,Dnepropetrovsk,Dnipropetrovsk Oblast,
760,"Миколаївська область, м. Новий Буг","Novyi Buh, Mykolaivs'ka oblast, Ukraine",47.683333000000005,32.5,Ukraine,Novyi Buh,Mykolaivs'ka oblast,Novobuz'kyi district
761,"Місто Кременчук, Полтаської області.","Kremenchuk, Poltavs'ka oblast, Ukraine",49.065783,33.410033,Ukraine,Kremenchuk,Poltavs'ka oblast,
762,"м. Буча, Київська обл.","Bucha, Kyivs'ka oblast, Ukraine",50.4468014,30.075619699999997,Ukraine,Bucha,Kyivs'ka oblast,Kyjevo-Svyatoshyns'kyi district
763,Сміла,"Smila, Cherkas'ka oblast, Ukraine",49.227717,31.852233000000002,Ukraine,Smila,Cherkas'ka oblast,
764,Гостомель,"Hostomel', Kyivs'ka oblast, Ukraine",50.569167,30.265278000000002,Ukraine,Hostomel',Kyivs'ka oblast,
765,Nikopol,"Nikopol', Dnipropetrovsk Oblast, Ukraine",47.56746,34.394815,Ukraine,Nikopol',Dnipropetrovsk Oblast,
766,"Миколаїв, Миколаївська область, Україна","Mykolaiv, Mykolaivs'ka oblast, Ukraine",46.975033,31.994583000000002,Ukraine,Mykolaiv,Mykolaivs'ka oblast,
767,Донецк ,"Donetsk, Donetsk Oblast, Ukraine",48.015883,37.80285,Ukraine,Donetsk,Donetsk Oblast,
768,Полонне,"Polonne, Khmel'nyts'ka oblast, Ukraine",50.116667,27.516666999999998,Ukraine,Polonne,Khmel'nyts'ka oblast,Polons'kyi district
769,г. Одесса,"Odessa, Odessa Oblast, Ukraine",46.482526,30.723309499999996,Ukraine,Odessa,Odessa Oblast,
770,Ярмолинці,"Yarmolyntsi, Khmel'nyts'ka oblast, Ukraine",49.1925,26.839722,Ukraine,Yarmolyntsi,Khmel'nyts'ka oblast,Yarmolynets'kyi district
771,Kovel',"Kovel', Volyns'ka oblast, Ukraine",51.216667,24.716667,Ukraine,Kovel',Volyns'ka oblast,
772,місто Буча,"Bucha, Kyivs'ka oblast, Ukraine",50.4468014,30.075619699999997,Ukraine,Bucha,Kyivs'ka oblast,Kyjevo-Svyatoshyns'kyi district
773,"хмельницька обл., м. Кам'янець - Подільський.","Kam'yanets'-Podil's'kyi, Khmel'nyts'ka oblast, Ukraine",48.683333000000005,26.583333000000003,Ukraine,Kam'yanets'-Podil's'kyi,Khmel'nyts'ka oblast,
774,Lleida,"Lleida, Lleida, Spain",41.6175899,0.6200146,Spain,Lleida,Catalonia,Lleida
775,"м. Новий Розділ, Львівська обл.","Novyi Rozdil, Lviv Oblast, Ukraine",49.471944,24.133333,Ukraine,Novyi Rozdil,Lviv Oblast,
776,м.Малин,"Malyn, Zhytomyrs'ka oblast, Ukraine",50.76888899999999,29.27,Ukraine,Malyn,Zhytomyrs'ka oblast,
777,м.Краматорськ,"Kramatorsk, Donetsk Oblast, Ukraine",48.738966999999995,37.58435,Ukraine,Kramatorsk,Donetsk Oblast,
778,"місто Вознесенськ
Миколаївська область","Voznesens'k, Mykolaivs'ka oblast, Ukraine",47.5605,31.336116999999998,Ukraine,Voznesens'k,Mykolaivs'ka oblast,
779,Kharkiv/Poltava,"Poltava, Kharkiv Oblast, Ukraine",49.555848100000006,37.2575485,Ukraine,Poltava,Kharkiv Oblast,Shevchenkivs'kyi district
780,MUKACHEVO,"Mukacheve, Zakarpats'ka oblast, Ukraine",48.45,22.75,Ukraine,Mukacheve,Zakarpats'ka oblast,
781,Uzhgorod,"Uzhhorod, Zakarpats'ka oblast, Ukraine",48.6208,22.287882999999997,Ukraine,Uzhhorod,Zakarpats'ka oblast,
782,Свалява,"Svalyava, Zakarpats'ka oblast, Ukraine",48.547222,22.986110999999998,Ukraine,Svalyava,Zakarpats'ka oblast,Svalyavs'kyi district
783,"Kyiv, Ukraine / London, ON, Canada","London, ON, Canada",42.9869502,-81.243177,Canada,London,Ontario,Middlesex County
784,Milicz ,"Milicz, Poland",51.527595700000006,17.2712122,Poland,Milicz,Lower Silesian Voivodeship,Milicz County
785,Копенгаген,"Copenhagen, Denmark",55.676096799999996,12.568337099999999,Denmark,Copenhagen,Capital Region of Denmark,København
786,odessa,"Odessa, Odessa Oblast, Ukraine",46.482526,30.723309499999996,Ukraine,Odessa,Odessa Oblast,
787,Г. Полтава,"Poltava, Poltavs'ka oblast, Ukraine",49.58826699999999,34.551417,Ukraine,Poltava,Poltavs'ka oblast,
788,"м.Горлівка, Донецька область","Horlivka, Donetsk Oblast, Ukraine",48.3071,38.029633000000004,Ukraine,Horlivka,Donetsk Oblast,
789,Кировоград,"Kirovohrad, Kirovohrads'ka oblast, Ukraine",48.50793300000001,32.262316999999996,Ukraine,Kirovohrad,Kirovohrads'ka oblast,
790,"Shanghai, China","Shanghai, Shanghai, China",31.230415999999998,121.473701,China,Shanghai,Shanghai,
791,Джанкой,Dzhankoi,45.7089869,34.3874785,,Dzhankoi,Crimea,
792,"м.Надвірна,Івано-Франківська обл.","Nadvirna, Ivano-Frankivs'ka oblast, Ukraine",48.633333,24.583333,Ukraine,Nadvirna,Ivano-Frankivs'ka oblast,Nadvornyans'kyi district
793,"Кам""янка-Бузька","Kam'yanka-Buz'ka, Lviv Oblast, Ukraine",50.09999999999999,24.35,Ukraine,Kam'yanka-Buz'ka,Lviv Oblast,Kam'yanka-Buz'kyi district
794,"c. Оброшино, Львівська обл., Пустомитівський р-н","Obroshyne, Lviv Oblast, Ukraine",49.785278000000005,23.868610999999998,Ukraine,Obroshyne,Lviv Oblast,Pustomytivs'kyi district
795,"село Гатне, Києво-Святошинський район","Hatne, Kyivs'ka oblast, Ukraine",50.354167,30.375,Ukraine,Hatne,Kyivs'ka oblast,Kyjevo-Svyatoshyns'kyi district
796,"Opole, Poland","Opole, Poland",50.6751067,17.921297600000003,Poland,Opole,Opole Voivodeship,Opole County
797,Місто Львів,"Lviv, Lviv Oblast, Ukraine",49.839683,24.029717,Ukraine,Lviv,Lviv Oblast,
798,"Ottawa, ON, Canada","Ottawa, ON, Canada",45.42152960000001,-75.69719309999998,Canada,Ottawa,Ontario,Ottawa Division
799,Синельникове,"Synel'nykove, Dnipropetrovsk Oblast, Ukraine",48.3167,35.5167,Ukraine,Synel'nykove,Dnipropetrovsk Oblast,
800,"Калуш, Івано-Франківської обл","Kalush, Ivano-Frankivs'ka oblast, Ukraine",49.04416699999999,24.359722,Ukraine,Kalush,Ivano-Frankivs'ka oblast,
801,"Місто Золочів, Львівська область","Zolochiv, Lviv Oblast, Ukraine",49.80941,24.901370999999997,Ukraine,Zolochiv,Lviv Oblast,Zolochivs'kyi district
802,Luck,"Lutsk, Volyns'ka oblast, Ukraine",50.74723299999999,25.325383,Ukraine,Lutsk,Volyns'ka oblast,
803,Tallin,"Tallinn, Estonia",59.43696079999999,24.7535746,Estonia,Tallinn,Harju County,Tallinna linn
804,"Міжгір'я, Закарпаття","Міжгірський РС ДМС України, вулиця Воз’єднання, 1, Mizhhir'ya, Zakarpats'ka oblast, Ukraine, 90001",48.5217508,23.503452600000003,Ukraine,Mizhhir'ya,Zakarpats'ka oblast,Mizhhirs'kyi district
805,село Хотів,"Khotiv, Kyivs'ka oblast, Ukraine",50.333333,30.46666699999999,Ukraine,Khotiv,Kyivs'ka oblast,Kyjevo-Svyatoshyns'kyi district
806,  Київ,"Kyiv, Kyiv city, Ukraine",50.4501,30.5234,Ukraine,Kyiv,Kyiv city,Kyiv City
807,Кривий Рiг,"Krivoy Rog sort. station, Dnipropetrovsk Oblast, Ukraine",47.964073,33.526917,Ukraine,,Dnipropetrovsk Oblast,Kryvoriz'kyi district
808,Донецьк.,"Donetsk, Donetsk Oblast, Ukraine",48.015883,37.80285,Ukraine,Donetsk,Donetsk Oblast,
809,"Ukraine, Odesa","Odessa, Odessa Oblast, Ukraine",46.482526,30.723309499999996,Ukraine,Odessa,Odessa Oblast,
810,Сквира,"Skvyra, Kyivs'ka oblast, Ukraine",49.7328752,29.6642904,Ukraine,Skvyra,Kyivs'ka oblast,Skvyrs'kyi district
811,"м.Вишгород, Київська обл.","Vyshhorod, Kyivs'ka oblast, Ukraine",50.5904776,30.4831982,Ukraine,Vyshhorod,Kyivs'ka oblast,Vyshhorods'kyi district
812,"Світловодськ, Кіровоградська область.","Svitlovods'k, Kirovohrads'ka oblast, Ukraine",49.050278000000006,33.241944000000004,Ukraine,Svitlovods'k,Kirovohrads'ka oblast,
813,"Троицкое,Луганская область.","Troits'ke, Luhans'ka oblast, Ukraine",49.904333,38.308003,Ukraine,Troits'ke,Luhans'ka oblast,Troits'kyi district
814,м. Славута,"Slavuta, Khmel'nyts'ka oblast, Ukraine",50.302778,26.868333000000003,Ukraine,Slavuta,Khmel'nyts'ka oblast,
815,"м. Нетішин, Хмельнтцька обл., Україна","Netishyn, Khmel'nyts'ka oblast, Ukraine",50.33397309999999,26.650084399999997,Ukraine,Netishyn,Khmel'nyts'ka oblast,
816,г.Артемовск,"Artemivs'k, Donetsk Oblast, Ukraine",48.5986674,37.9980367,Ukraine,Artemivs'k,Donetsk Oblast,
817, Вінниця,"Vinnytsia, Vinnyts'ka oblast, Ukraine",49.233083,28.468217,Ukraine,Vinnytsia,Vinnyts'ka oblast,
818,м.КИЇВ,"Kyiv, Kyiv city, Ukraine",50.4501,30.5234,Ukraine,Kyiv,Kyiv city,Kyiv City
819,Кіровоград ,"Kirovohrad, Kirovohrads'ka oblast, Ukraine",48.50793300000001,32.262316999999996,Ukraine,Kirovohrad,Kirovohrads'ka oblast,
820,"Суми
","Sumy, Sums'ka oblast, Ukraine",50.9077,34.7981,Ukraine,Sumy,Sums'ka oblast,Sums'kyi district
821,Warsaw,"Warsaw, Poland",52.2296756,21.012228699999998,Poland,Warsaw,Masovian Voivodeship,Warszawa
822,м.  Київ,"Kyiv, Kyiv city, Ukraine",50.4501,30.5234,Ukraine,Kyiv,Kyiv city,Kyiv City
823,kuiv,"Kuiv, 11614 Tallinn, Estonia",59.388861,24.688905899999998,Estonia,Tallinn,Harju County,Tallinna linn
824,"Мюнхен, Німеччина","Munich, Germany",48.1351253,11.5819806,Germany,Munich,Bavaria,Upper Bavaria
825,"Україна, Донецька обл., м.Красний Лиман","Krasnyi Lyman, Donetsk Oblast, Ukraine",48.9897585,37.8049964,Ukraine,Krasnyi Lyman,Donetsk Oblast,
826,"м.Калуш, Івано-Франківська обл","Kalush, Ivano-Frankivs'ka oblast, Ukraine",49.04416699999999,24.359722,Ukraine,Kalush,Ivano-Frankivs'ka oblast,
827,ODESSA,"Odessa, Odessa Oblast, Ukraine",46.482526,30.723309499999996,Ukraine,Odessa,Odessa Oblast,
828,"м. Острог, Рівненська обл.","Ostroh, Rivnens'ka oblast, Ukraine",50.333333,26.516666999999998,Ukraine,Ostroh,Rivnens'ka oblast,
829,Місто-герой Київ,"Kyiv, Kyiv city, Ukraine",50.4501,30.5234,Ukraine,Kyiv,Kyiv city,Kyiv City
830,місто Дрогобич,"Drohobych, Lviv Oblast, Ukraine",49.358011600000005,23.5123193,Ukraine,Drohobych,Lviv Oblast,
831,Комсомольськ,"Komsomol's'k, Poltavs'ka oblast, Ukraine",49.0156679,33.6450451,Ukraine,Komsomol's'k,Poltavs'ka oblast,Kremenchuts'kyi district
832,1,"1, Hong Kong",22.321702,114.17798700000002,Hong Kong,,,
833,Kyiv city,"Kyiv, Kyiv city, Ukraine",50.4501,30.5234,Ukraine,Kyiv,Kyiv city,Kyiv City
834,"Київська обл., с.Шпитьки","Shpyt'ky, Kyivs'ka oblast, Ukraine",50.4175,30.127778000000003,Ukraine,Shpyt'ky,Kyivs'ka oblast,Kyjevo-Svyatoshyns'kyi district
835,"Львівська область, місто Броди","Brody, Lviv Oblast, Ukraine",50.083141,25.15,Ukraine,Brody,Lviv Oblast,Brodivs'kyi district
836,с.Дроздовичі,"Drozdovychi, Lviv Oblast, Ukraine",49.6775058,22.901799899999997,Ukraine,Drozdovychi,Lviv Oblast,Starosambirs'kyi district
837,"Україна, м. Київ","Kyiv, Kyiv city, Ukraine",50.4501,30.5234,Ukraine,Kyiv,Kyiv city,Kyiv City
838,"м. Южне, Одеська обл.","Yuzhne, Odessa Oblast, Ukraine",46.624021299999995,31.1000648,Ukraine,Yuzhne,Odessa Oblast,
839,Стаханов,"Stakhanov, Luhans'ka oblast, Ukraine",48.566666999999995,38.65,Ukraine,Stakhanov,Luhans'ka oblast,
840,"Nikopol,Dnipropetrovska obl","Nikopol', Dnipropetrovsk Oblast, Ukraine",47.56746,34.394815,Ukraine,Nikopol',Dnipropetrovsk Oblast,
841,Кривой Ріг,"Kryvyi Rih, Dnipropetrovsk Oblast, Ukraine",47.910483,33.391783000000004,Ukraine,Kryvyi Rih,Dnipropetrovsk Oblast,
842,Виноградів,"Vynohradiv, Zakarpats'ka oblast, Ukraine",48.149722,23.025,Ukraine,Vynohradiv,Zakarpats'ka oblast,Vynohradivs'kyi district
843,02099 Київ,"Kyiv, Kyiv city, Ukraine",50.4501,30.5234,Ukraine,Kyiv,Kyiv city,Kyiv City
844,"Wrocław, Львів","Lviv, Lviv Oblast, Ukraine",49.839683,24.029717,Ukraine,Lviv,Lviv Oblast,
845,"м. Київ
м. Червоноград (Львівська область)","Chervonohrad, Lviv Oblast, Ukraine",50.39,24.23,Ukraine,Chervonohrad,Lviv Oblast,
846,"Київ

","Kyiv, Kyiv city, Ukraine",50.4501,30.5234,Ukraine,Kyiv,Kyiv city,Kyiv City
847,Poznan,"Poznan, Poland",52.406374,16.9251681,Poland,Poznan,Greater Poland Voivodeship,Poznań County
848,М.Дніпропетровськ,"Dnepropetrovsk, Dnipropetrovsk Oblast, Ukraine",48.464717,35.046183,Ukraine,Dnepropetrovsk,Dnipropetrovsk Oblast,
849,Лубни,"Lubny, Poltavs'ka oblast, Ukraine",50.016667,33.0,Ukraine,Lubny,Poltavs'ka oblast,
850,"Іллічівськ, Одеська область","Illichivs'k, Odessa Oblast, Ukraine",46.2952236,30.648085499999997,Ukraine,Illichivs'k,Odessa Oblast,
851, Одеса,"Odessa, Odessa Oblast, Ukraine",46.482526,30.723309499999996,Ukraine,Odessa,Odessa Oblast,
852,г. Донецк,"Donetsk, Donetsk Oblast, Ukraine",48.015883,37.80285,Ukraine,Donetsk,Donetsk Oblast,
853,"г.Днепропетровск, Украина","Dnepropetrovsk, Dnipropetrovsk Oblast, Ukraine",48.464717,35.046183,Ukraine,Dnepropetrovsk,Dnipropetrovsk Oblast,
854,Petah Tikva ,"Petah Tikva, Israel",32.084041,34.887762,Israel,Petah Tikva,,
855,"Montréal, Canada","Montreal, QC, Canada",45.508669899999994,-73.55399249999998,Canada,Montreal,Quebec,Montreal
856,м. Ржищів,"Rzhyshchiv, Kyivs'ka oblast, Ukraine",49.961110999999995,31.043611,Ukraine,Rzhyshchiv,Kyivs'ka oblast,
857,Toronto ,"Toronto, ON, Canada",43.653226000000004,-79.3831843,Canada,Toronto,Ontario,Toronto Division
858,місто Острог,"Ostroh, Rivnens'ka oblast, Ukraine",50.333333,26.516666999999998,Ukraine,Ostroh,Rivnens'ka oblast,
859,Варва ,"Varva, Chernihivs'ka oblast, Ukraine",50.495,32.723611,Ukraine,Varva,Chernihivs'ka oblast,Varvyns'kyi district
860,Zaporizhiya,"Zaporizhia, Zaporiz'ka oblast, Ukraine",47.8388,35.139567,Ukraine,Zaporizhia,Zaporiz'ka oblast,
861,г. Бровары,"Brovary, Kyivs'ka oblast, Ukraine",50.511083,30.7909,Ukraine,Brovary,Kyivs'ka oblast,
862,м. Рiвне,"Rivna street, Dnepropetrovsk, Dnipropetrovsk Oblast, Ukraine",48.4735685,34.854202799999996,Ukraine,Dnepropetrovsk,Dnipropetrovsk Oblast,
863,м.Буча,"Bucha, Kyivs'ka oblast, Ukraine",50.4468014,30.075619699999997,Ukraine,Bucha,Kyivs'ka oblast,Kyjevo-Svyatoshyns'kyi district
864,Vancouver,"Vancouver, BC, Canada",49.261226,-123.11392679999999,Canada,Vancouver,British Columbia,Greater Vancouver
865,"Мукачево, Закарпатськой области","Mukacheve, Zakarpats'ka oblast, Ukraine",48.45,22.75,Ukraine,Mukacheve,Zakarpats'ka oblast,
866,"Oświęcim, Poland","Oswiecim, Poland",50.0343982,19.209778200000002,Poland,Oswiecim,Lesser Poland Voivodeship,Oświęcim County
867, Львів,"Lviv, Lviv Oblast, Ukraine",49.839683,24.029717,Ukraine,Lviv,Lviv Oblast,
868,Івано-Франкцвськ,"Ivano-Frankivsk, Ivano-Frankivs'ka oblast, Ukraine",48.922633000000005,24.711117,Ukraine,Ivano-Frankivsk,Ivano-Frankivs'ka oblast,
869,Пнів,"Pniv, Ivano-Frankivs'ka oblast, Ukraine",48.610556,24.528889000000003,Ukraine,Pniv,Ivano-Frankivs'ka oblast,Nadvornyans'kyi district
870,"смт. Гірник, Львівська область","Hirnyk, Lviv Oblast, Ukraine",50.330730700000004,24.190216500000002,Ukraine,Hirnyk,Lviv Oblast,
871,Stambul,"İstanbul, Turkey",41.00527,28.97696,Turkey,İstanbul,,
872,"вул. Робітнича №78, с.Мостище, Калуський район, Івано-Франківська обл.","Mostyshche, Ivano-Frankivs'ka oblast, Ukraine",49.07027799999999,24.3425,Ukraine,Mostyshche,Ivano-Frankivs'ka oblast,Kalus'kyi district
873,"Київська обл., Київо-Святошинський р-н., с.Чайки","Chaiky, Kyivs'ka oblast, Ukraine",50.4401629,30.2879474,Ukraine,Chaiky,Kyivs'ka oblast,Kyjevo-Svyatoshyns'kyi district
874,село Нижній Вербіж,"Nyzhnii Verbizh, Ivano-Frankivs'ka oblast, Ukraine",48.5102309,25.0136635,Ukraine,Nyzhnii Verbizh,Ivano-Frankivs'ka oblast,Kolomyis'kyi district
875, м.Чернівці,"Chernivtsi, Chernivets'ka oblast, Ukraine",48.2920787,25.9358367,Ukraine,Chernivtsi,Chernivets'ka oblast,
876,"Ireland,Co.Meath,Navan.","Navan, Co. Meath, Ireland",53.6530417,-6.6842304000000015,Ireland,Navan,Meath,Meath
877,"Калуш, Івано-Франківська область","Kalush, Ivano-Frankivs'ka oblast, Ukraine",49.04416699999999,24.359722,Ukraine,Kalush,Ivano-Frankivs'ka oblast,
878,місто Васильків,"Vasyl'kiv, Kyivs'ka oblast, Ukraine",50.17833299999999,30.31583299999999,Ukraine,Vasyl'kiv,Kyivs'ka oblast,
879,м.Фастів,"Fastiv, Kyivs'ka oblast, Ukraine",50.083333,29.916666999999997,Ukraine,Fastiv,Kyivs'ka oblast,
880,"г. Славянск, Донецкая область","Slovyansk, Donetsk Oblast, Ukraine",48.8532,37.6053,Ukraine,Slovyansk,Donetsk Oblast,Slov'yans'kyi district
881,"Брно, Чехія","Brno, Czech Republic",49.1950602,16.6068371,Czech Republic,Brno,South Moravian Region,Brno-City District
882,Павлоград,"Pavlohrad, Dnipropetrovsk Oblast, Ukraine",48.516667,35.866667,Ukraine,Pavlohrad,Dnipropetrovsk Oblast,
883,"Gainesville, Florida, USA","Gainesville, FL, USA",29.6516344,-82.32482619999998,United States,Gainesville,Florida,Alachua County
884,Tallinn,"Tallinn, Estonia",59.43696079999999,24.7535746,Estonia,Tallinn,Harju County,Tallinna linn
885,Pryluki,"Pryluky, Chernihivs'ka oblast, Ukraine",50.59999999999999,32.4,Ukraine,Pryluky,Chernihivs'ka oblast,
886,м. Конотоп,"Konotop, Sums'ka oblast, Ukraine",51.240943200000004,33.2050521,Ukraine,Konotop,Sums'ka oblast,
887,Chernihiv,"Chernihiv, Chernihivs'ka oblast, Ukraine",51.4982,31.28935,Ukraine,Chernihiv,Chernihivs'ka oblast,
888,Freiburg,"Freiburg, Germany",47.99900770000001,7.842104299999999,Germany,Freiburg,Baden-Württemberg,Freiburg
889,"смт.Кіровське Дніпропетровський район, Дніпропетровська область.","smt. Kirovske, Kirovs'ke, Dnipropetrovsk Oblast, Ukraine",48.550312,34.855568,Ukraine,Kirovs'ke,Dnipropetrovsk Oblast,Dnipropetrovs'kyi district
890,"м. Біла Церква, Київська обл.","Bila Tserkva, Kyivs'ka oblast, Ukraine",49.798889,30.115278000000004,Ukraine,Bila Tserkva,Kyivs'ka oblast,
891,місто Бориспіль,"Boryspil', Kyivs'ka oblast, Ukraine",50.3482,30.95615,Ukraine,Boryspil',Kyivs'ka oblast,
892,"Вінниця, Україна","Vinnytsia, Vinnyts'ka oblast, Ukraine",49.233083,28.468217,Ukraine,Vinnytsia,Vinnyts'ka oblast,
893,"Херсон, Україна","Kherson, Khersons'ka oblast, Ukraine",46.635417,32.616867,Ukraine,Kherson,Khersons'ka oblast,
894,Котовськ,"Kotovs'k, Odessa Oblast, Ukraine",47.75,29.533333000000002,Ukraine,Kotovs'k,Odessa Oblast,
895,"АР Крим, м. Севастополь",Sevastopol,44.61665,33.525366999999996,,Sevastopol,Sevastopol' city,Sevastopol' city
896,Кривий ріг- киів,"Hotel ""Kyiv"", Kryvyi Rih, Dnipropetrovsk Oblast, Ukraine",47.942796,33.418974,Ukraine,Kryvyi Rih,Dnipropetrovsk Oblast,
897,Энергодар,"Enerhodar, Zaporiz'ka oblast, Ukraine",47.50150670000001,34.6341859,Ukraine,Enerhodar,Zaporiz'ka oblast,
898,Лондон,"London, UK",51.5073509,-0.12775830000000002,United Kingdom,London,,
899,м.Біла Церква,"Bila Tserkva, Kyivs'ka oblast, Ukraine",49.798889,30.115278000000004,Ukraine,Bila Tserkva,Kyivs'ka oblast,
900,місто Чернівці,"Chernivtsi, Chernivets'ka oblast, Ukraine",48.2920787,25.9358367,Ukraine,Chernivtsi,Chernivets'ka oblast,
901,Mala Racha,"Mala Racha, Zhytomyrs'ka oblast, Ukraine",50.546110999999996,29.280278000000003,Ukraine,Mala Racha,Zhytomyrs'ka oblast,Radomyshl's'kyi district
902,Іллічівськ Одеська обл.,"Illichivs'k, Odessa Oblast, Ukraine",46.2952236,30.648085499999997,Ukraine,Illichivs'k,Odessa Oblast,
903,г. Ладыжин Винницкая область Украина,"Ladyzhyn, Vinnyts'ka oblast, Ukraine",48.6838051,29.2476274,Ukraine,Ladyzhyn,Vinnyts'ka oblast,
904,Kyiv  Київ,"Kyiv, Kyiv city, Ukraine",50.4501,30.5234,Ukraine,Kyiv,Kyiv city,Kyiv City
905,"Київська обл, с.Демидів. Але тимчасово проживаю в Алмати (Казахстан)","Demydiv, Kyivs'ka oblast, Ukraine",50.727222,30.327221999999995,Ukraine,Demydiv,Kyivs'ka oblast,Vyshhorods'kyi district
906,Берлін,"Berlin, Germany",52.52000659999999,13.404954,Germany,Berlin,Berlin,
907,м.Обухів,"Obukhiv, Kyivs'ka oblast, Ukraine",50.13,30.656667,Ukraine,Obukhiv,Kyivs'ka oblast,Obukhivs'kyi district
908,"Новоград-Волинський, Житомирська область","Novohrad-Volyns'kyi, Zhytomyrs'ka oblast, Ukraine",50.583333,27.633333,Ukraine,Novohrad-Volyns'kyi,Zhytomyrs'ka oblast,
909,М.Чернівці,"Chernivtsi, Chernivets'ka oblast, Ukraine",48.2920787,25.9358367,Ukraine,Chernivtsi,Chernivets'ka oblast,
910,"Чікаго, США","Chicago, IL, USA",41.8781136,-87.62979820000001,United States,Chicago,Illinois,Cook County
911,ЛЬВІВ ,"Lviv, Lviv Oblast, Ukraine",49.839683,24.029717,Ukraine,Lviv,Lviv Oblast,
912,"м. Шепетівка, Хмельницька область","Shepetivka, Khmel'nyts'ka oblast, Ukraine",50.183333000000005,27.066667,Ukraine,Shepetivka,Khmel'nyts'ka oblast,
913,"Краків, Польща.","Krakow, Poland",50.06465009999999,19.9449799,Poland,Krakow,Lesser Poland Voivodeship,Kraków County
914,Первомайськ,"Pervomais'k, Mykolaivs'ka oblast, Ukraine",48.05,30.84999999999999,Ukraine,Pervomais'k,Mykolaivs'ka oblast,Pervomais'ka district
915,"Одесса, Киев, Таллинн","Odessa, Odessa Oblast, Ukraine",46.482526,30.723309499999996,Ukraine,Odessa,Odessa Oblast,
916,"Донецьк, зараз Харків","Kharkiv, Kharkiv Oblast, Ukraine",49.9935,36.230383,Ukraine,Kharkiv,Kharkiv Oblast,
917,Відень,"Vienna, Austria",48.208174299999996,16.3738189,Austria,Vienna,Vienna,
918,М.Дніпропетровськ ,"Dnepropetrovsk, Dnipropetrovsk Oblast, Ukraine",48.464717,35.046183,Ukraine,Dnepropetrovsk,Dnipropetrovsk Oblast,
919,"Кривий Ріг, Київ","Hotel ""Kyiv"", Kryvyi Rih, Dnipropetrovsk Oblast, Ukraine",47.942796,33.418974,Ukraine,Kryvyi Rih,Dnipropetrovsk Oblast,
920,м.  Житомир,"Zhytomyr, Zhytomyrs'ka oblast, Ukraine",50.25465,28.658666999999998,Ukraine,Zhytomyr,Zhytomyrs'ka oblast,
921,Жовті Води,"Zhovti Vody, Dnipropetrovsk Oblast, Ukraine",48.34999999999999,33.5,Ukraine,Zhovti Vody,Dnipropetrovsk Oblast,
922, м. Харків,"Kharkiv, Kharkiv Oblast, Ukraine",49.9935,36.230383,Ukraine,Kharkiv,Kharkiv Oblast,
923,Комсомольск.,"Komsomol's'k, Poltavs'ka oblast, Ukraine",49.0156679,33.6450451,Ukraine,Komsomol's'k,Poltavs'ka oblast,Kremenchuts'kyi district
924,м. Борислав Львівська обл.,"Boryslav, Lviv Oblast, Ukraine",49.289167,23.418889,Ukraine,Boryslav,Lviv Oblast,
925,Снятин,"Snyatyn, Ivano-Frankivs'ka oblast, Ukraine",48.45,25.566667000000002,Ukraine,Snyatyn,Ivano-Frankivs'ka oblast,Snyatyns'kyi district
926,"м. Кременчук, Полтавська область","Kremenchuk, Poltavs'ka oblast, Ukraine",49.065783,33.410033,Ukraine,Kremenchuk,Poltavs'ka oblast,
927,пгт. Приморский,"Primorsky, Primorsky Krai, Russia, 692710",43.098611,131.591667,Russia,Primorsky,Primorsky Krai,Khasansky District
928,Новоград-Волинський,"Novohrad-Volyns'kyi, Zhytomyrs'ka oblast, Ukraine",50.583333,27.633333,Ukraine,Novohrad-Volyns'kyi,Zhytomyrs'ka oblast,
929,kharkiv,"Kharkiv, Kharkiv Oblast, Ukraine",49.9935,36.230383,Ukraine,Kharkiv,Kharkiv Oblast,
930,м.Дніпродзержинськ,"Dniprodzerzhyns'k, Dnipropetrovsk Oblast, Ukraine",48.523117,34.613683,Ukraine,Dniprodzerzhyns'k,Dnipropetrovsk Oblast,
931,Тростянець,"Trostyanets', Sums'ka oblast, Ukraine",50.466667,34.95,Ukraine,Trostyanets',Sums'ka oblast,Trostyanets'kyi district
932,Місто Черкаси,"Cherkasy, Cherkas'ka oblast, Ukraine",49.444433000000004,32.059767,Ukraine,Cherkasy,Cherkas'ka oblast,
933,Україна,Ukraine,48.379433,31.16558,Ukraine,,,
934,Кременчуг ,"Kremenchuk, Poltavs'ka oblast, Ukraine",49.065783,33.410033,Ukraine,Kremenchuk,Poltavs'ka oblast,
935,Любашівка,"Liubashivka, Odessa Oblast, Ukraine",47.083333,30.033333000000002,Ukraine,Liubashivka,Odessa Oblast,Velykomykhailivs'kyi district
936,Місто Одеса,"Odessa, Odessa Oblast, Ukraine",46.482526,30.723309499999996,Ukraine,Odessa,Odessa Oblast,
937,"Україна, місто Київ","Kyiv, Kyiv city, Ukraine",50.4501,30.5234,Ukraine,Kyiv,Kyiv city,Kyiv City
938,с. Добросин,"Dobrosyn, Lviv Oblast, Ukraine",50.133055999999996,23.851944,Ukraine,Dobrosyn,Lviv Oblast,Zhovkivs'kyi district
939,"Спліт, Хорватія
Київ, Україна","Kyiv, Kyiv city, Ukraine",50.4501,30.5234,Ukraine,Kyiv,Kyiv city,Kyiv City
940,Rome,"Rome, Italy",41.8723889,12.4801802,Italy,Rome,Lazio,Rome
941,Hluhiv,"Hlukhiv, Sums'ka oblast, Ukraine",51.678611,33.911389,Ukraine,Hlukhiv,Sums'ka oblast,
942,"м. Знам'янка, Кіровоградська обл.","Znam'yanka, Kirovohrads'ka oblast, Ukraine",48.713611,32.673333,Ukraine,Znam'yanka,Kirovohrads'ka oblast,
943,Мадрид,"Madrid, Madrid, Spain",40.4167754,-3.7037902000000003,Spain,Madrid,Community of Madrid,Madrid
944,"м.
Харков","Kharkiv, Kharkiv Oblast, Ukraine",49.9935,36.230383,Ukraine,Kharkiv,Kharkiv Oblast,
945,Херсон ,"Kherson, Khersons'ka oblast, Ukraine",46.635417,32.616867,Ukraine,Kherson,Khersons'ka oblast,
946,Золочів ,"Zolochiv, Lviv Oblast, Ukraine",49.80941,24.901370999999997,Ukraine,Zolochiv,Lviv Oblast,Zolochivs'kyi district
947,Ладыжин,"Ladyzhyn, Vinnyts'ka oblast, Ukraine",48.6838051,29.2476274,Ukraine,Ladyzhyn,Vinnyts'ka oblast,
948,"г. Горловка Донецкая область, сейчас г. Марганец Днепропетровская обл","Marhanets', Dnipropetrovsk Oblast, Ukraine",47.639722,34.636389,Ukraine,Marhanets',Dnipropetrovsk Oblast,
949,Борисполь,"Kyiv Boryspil International Airport (KBP), Boryspil', Kyivs'ka oblast, Ukraine",50.33822199999999,30.8939274,Ukraine,Boryspil',Kyivs'ka oblast,
950,Київ/Лондон,"London, UK",51.5073509,-0.12775830000000002,United Kingdom,London,,
951,zaporizhzhzya,"Zaporizhia, Zaporiz'ka oblast, Ukraine",47.8388,35.139567,Ukraine,Zaporizhia,Zaporiz'ka oblast,
952,"Краматорськ, Донецьк","Donets'ka street, Kramatorsk, Donetsk Oblast, Ukraine",48.716762,37.5768757,Ukraine,Kramatorsk,Donetsk Oblast,
953,м. Нікополь,"Nikopol', Dnipropetrovsk Oblast, Ukraine",47.56746,34.394815,Ukraine,Nikopol',Dnipropetrovsk Oblast,
954,Khmelnytska oblast,"Khmel'nyts'ka oblast, Ukraine",49.422983,26.987133,Ukraine,,Khmel'nyts'ka oblast,
955,м.Дніпрдзержинськ,"Dniprodzerzhyns'k, Dnipropetrovsk Oblast, Ukraine",48.523117,34.613683,Ukraine,Dniprodzerzhyns'k,Dnipropetrovsk Oblast,
956,   г. Николаев,"Mykolaiv, Mykolaivs'ka oblast, Ukraine",46.975033,31.994583000000002,Ukraine,Mykolaiv,Mykolaivs'ka oblast,
957,Івано-Франківськ\Львів,"Lviv, Lviv Oblast, Ukraine",49.839683,24.029717,Ukraine,Lviv,Lviv Oblast,
958,"м. Українка, Обухівський район","Ukrainka, Kyivs'ka oblast, Ukraine",50.15308599999999,30.743492,Ukraine,Ukrainka,Kyivs'ka oblast,Obukhivs'kyi district
959,м Тернопіль,"Ternopil, Ternopil's'ka oblast, Ukraine",49.553517,25.594767,Ukraine,Ternopil,Ternopil's'ka oblast,
960,"Харьков, предприниматель, риелтор","Kharkiv, Kharkiv Oblast, Ukraine",49.9935,36.230383,Ukraine,Kharkiv,Kharkiv Oblast,
961,Донецьк ,"Donetsk, Donetsk Oblast, Ukraine",48.015883,37.80285,Ukraine,Donetsk,Donetsk Oblast,
962,Slavutych,"Slavutych, Kyivs'ka oblast, Ukraine",51.520556,30.756944,Ukraine,Slavutych,Kyivs'ka oblast,
963,Сватове,"Svatove, Luhans'ka oblast, Ukraine",49.416667,38.15,Ukraine,Svatove,Luhans'ka oblast,Svativs'kyi district
964,Zhytomyr,"Zhytomyr, Zhytomyrs'ka oblast, Ukraine",50.25465,28.658666999999998,Ukraine,Zhytomyr,Zhytomyrs'ka oblast,
965,"Kharkiv, Ukraine","Kharkiv, Kharkiv Oblast, Ukraine",49.9935,36.230383,Ukraine,Kharkiv,Kharkiv Oblast,
966,"м. Сєвєродонецьк, Україна","Severodonetsk, Luhans'ka oblast, Ukraine",48.933333000000005,38.5,Ukraine,Severodonetsk,Luhans'ka oblast,
967,Ізюм. Харківська область. ,"Izyum, Kharkiv Oblast, Ukraine",49.21277800000001,37.256944,Ukraine,Izyum,Kharkiv Oblast,
968,Немішаєве,"Nemishajeve, Kyivs'ka oblast, Ukraine",50.564721999999996,30.093611,Ukraine,Nemishajeve,Kyivs'ka oblast,Borodyans'kyi district
969,м. Біла Церква,"Bila Tserkva, Kyivs'ka oblast, Ukraine",49.798889,30.115278000000004,Ukraine,Bila Tserkva,Kyivs'ka oblast,
970,м.Макіївка,"Makiivka, Donetsk Oblast, Ukraine",48.0459557,37.9666901,Ukraine,Makiivka,Donetsk Oblast,
971,"смт Глибока, Глибоцький район, Чернівецька область, Україна","Hlyboka, Chernivets'ka oblast, Ukraine",48.083333,25.933332999999998,Ukraine,Hlyboka,Chernivets'ka oblast,Hlybots'kyi district
972,"Киево-Святошинський  р-н, с. Крюківщина","v. Krykivschina, Kriukivshchyna, Kyivs'ka oblast, Ukraine",50.371922,30.37116199999999,Ukraine,Kriukivshchyna,Kyivs'ka oblast,Kyjevo-Svyatoshyns'kyi district
973,"Южне, Одеська область","Yuzhne, Odessa Oblast, Ukraine",46.624021299999995,31.1000648,Ukraine,Yuzhne,Odessa Oblast,
974,Черкаси ,"Cherkasy, Cherkas'ka oblast, Ukraine",49.444433000000004,32.059767,Ukraine,Cherkasy,Cherkas'ka oblast,
975,м. Одеса ,"Odessa, Odessa Oblast, Ukraine",46.482526,30.723309499999996,Ukraine,Odessa,Odessa Oblast,
976,Mexico D.F.,"Federal District, Mexico",19.2464696,-99.10134980000001,Mexico,,Federal District,
977,місто Херсон,"Kherson, Khersons'ka oblast, Ukraine",46.635417,32.616867,Ukraine,Kherson,Khersons'ka oblast,
978,м. Яремче,"Yaremche, Ivano-Frankivs'ka oblast, Ukraine",48.460278,24.558611,Ukraine,Yaremche,Ivano-Frankivs'ka oblast,
979,"м. Нова Каховка, Херсонська обл.","Nova Kakhovka, Khersons'ka oblast, Ukraine",46.766667,33.366667,Ukraine,Nova Kakhovka,Khersons'ka oblast,
980,"Коломия
","Kolomyya, Ivano-Frankivs'ka oblast, Ukraine",48.530556,25.040278,Ukraine,Kolomyya,Ivano-Frankivs'ka oblast,Kolomyis'kyi district
981,м.Миколаїв ,"Mykolaiv, Mykolaivs'ka oblast, Ukraine",46.975033,31.994583000000002,Ukraine,Mykolaiv,Mykolaivs'ka oblast,
982,чернівці,"Chernivtsi, Chernivets'ka oblast, Ukraine",48.2920787,25.9358367,Ukraine,Chernivtsi,Chernivets'ka oblast,
983,"Ерфурт, Німеччина","Erfurt, Germany",50.98476789999999,11.0298799,Germany,Erfurt,Thuringia,
984,город Киев,"Kyiv, Kyiv city, Ukraine",50.4501,30.5234,Ukraine,Kyiv,Kyiv city,Kyiv City
985,смт.Велика Димерка,"Likarnya smt.Velika Dimerka, Lenina Street, 13, Velyka Dymerka, Kyivs'ka oblast, Ukraine, 07442",50.5907602,30.8943781,Ukraine,Velyka Dymerka,Kyivs'ka oblast,Brovars'kyi district
986,Донецьк-Київ,"Kyiv-Konti, Donetsk, Donetsk Oblast, Ukraine",47.970924,37.770821000000005,Ukraine,Donetsk,Donetsk Oblast,
987,"Австрія, Зальцбург","Salzburg, Austria",47.809490000000004,13.055010000000001,Austria,Salzburg,Salzburg,Salzburg
988,М Чернівці,"Chernivtsi, Chernivets'ka oblast, Ukraine",48.2920787,25.9358367,Ukraine,Chernivtsi,Chernivets'ka oblast,
989,Лютіж,"Lyutizh, Kyivs'ka oblast, Ukraine",50.684722,30.394444,Ukraine,Lyutizh,Kyivs'ka oblast,Vyshhorods'kyi district
990,Santiago de Chile,"Santiago, Santiago Metropolitan Region, Chile",-33.469119899999995,-70.641997,Chile,Santiago,Santiago Metropolitan Region,
991,г. Ильичевск Одесская область,"Illichivs'k, Odessa Oblast, Ukraine",46.2952236,30.648085499999997,Ukraine,Illichivs'k,Odessa Oblast,
992,рівне,"Rivne, Rivnens'ka oblast, Ukraine",50.6199,26.251617,Ukraine,Rivne,Rivnens'ka oblast,
993,Яремче,"Yaremche, Ivano-Frankivs'ka oblast, Ukraine",48.460278,24.558611,Ukraine,Yaremche,Ivano-Frankivs'ka oblast,
994,Белополье,"Bilopillya, Sums'ka oblast, Ukraine",51.148333,34.300833000000004,Ukraine,Bilopillya,Sums'ka oblast,Bilopil's'kyi district
995,"Сумська область, Глухів","Hlukhiv, Sums'ka oblast, Ukraine",51.678611,33.911389,Ukraine,Hlukhiv,Sums'ka oblast,
996,Вроцлав,"Wroclaw, Poland",51.1078852,17.0385376,Poland,Wroclaw,Lower Silesian Voivodeship,Wrocław County
997,Львів / Коломия,"Вузлова лікарня станції Коломия Львівської залізниці, вул. Юрія Шкрумеляка, 26, Kolomyya, Ivano-Frankivs'ka oblast, Ukraine, 78200",48.52989729999999,25.053106699999997,Ukraine,Kolomyya,Ivano-Frankivs'ka oblast,Kolomyis'kyi district
998,"Ukraine, Kyiv","Kyiv, Kyiv city, Ukraine",50.4501,30.5234,Ukraine,Kyiv,Kyiv city,Kyiv City
999,Калуш Івано-Франківськоі обл.,"Kalush, Ivano-Frankivs'ka oblast, Ukraine",49.04416699999999,24.359722,Ukraine,Kalush,Ivano-Frankivs'ka oblast,
1000,Uzhorod,"Uzhhorod, Zakarpats'ka oblast, Ukraine",48.6208,22.287882999999997,Ukraine,Uzhhorod,Zakarpats'ka oblast,
1001,"с. Велика Вільшаниця, Золочівський р-н, Львівська обл.","Velyka Vil'shanytsya, Lviv Oblast, Ukraine",49.80694399999999,24.662778,Ukraine,Velyka Vil'shanytsya,Lviv Oblast,Zolochivs'kyi district
1002,Kyiv - Vienna,"Vienna, Austria",48.208174299999996,16.3738189,Austria,Vienna,Vienna,
1003,Vaduz ,"9490 Vaduz, Liechtenstein",47.14136999999999,9.5207,Liechtenstein,Vaduz,Vaduz,
1004,"Київ, Kyiv","Kyiv, Kyiv city, Ukraine",50.4501,30.5234,Ukraine,Kyiv,Kyiv city,Kyiv City
1005,"Ukraine, с. Rivne ","Rivne, Rivnens'ka oblast, Ukraine",50.6199,26.251617,Ukraine,Rivne,Rivnens'ka oblast,
1006,"Шахтарськ, Донецька область","Shakhtars'k, Donetsk Oblast, Ukraine",48.0625,38.416667,Ukraine,Shakhtars'k,Donetsk Oblast,
1007,"Україна, Закарпатська обл., м.Ужгород","Uzhhorod, Zakarpats'ka oblast, Ukraine",48.6208,22.287882999999997,Ukraine,Uzhhorod,Zakarpats'ka oblast,
1008,г.Запорожье,"Zaporizhia, Zaporiz'ka oblast, Ukraine",47.8388,35.139567,Ukraine,Zaporizhia,Zaporiz'ka oblast,
1009,"м. Ірпінь, Київська обл.","Irpin', Kyivs'ka oblast, Ukraine",50.51875,30.239783000000003,Ukraine,Irpin',Kyivs'ka oblast,
1010,Edmonton,"Edmonton, AB, Canada",53.544389,-113.4909267,Canada,Edmonton,Alberta,Division No. 11
1011,Олексіївка,"Oleksiivka, Dnipropetrovsk Oblast, Ukraine",47.594268,34.237697,Ukraine,Oleksiivka,Dnipropetrovsk Oblast,Nikopol's'kyi district
1012,м. Лозова Харківської області,"Панютинська загальноосвітня школа І-ІІ ступенів №2, Khlibne, Kharkiv Oblast, Ukraine, 64660",48.9265826,36.2743664,Ukraine,Khlibne,Kharkiv Oblast,
1013,Новомосковск,"Novomoskovsk, Tula Oblast, Russia",54.0109034,38.2963063,Russia,Novomoskovsk,Tula Oblast,gorod Novomoskovsk
1014,Сєвєродонецьк,"Severodonetsk, Luhans'ka oblast, Ukraine",48.933333000000005,38.5,Ukraine,Severodonetsk,Luhans'ka oblast,
1015,м. Гадяч,"Hadyach, Poltavs'ka oblast, Ukraine",50.366667,34.0,Ukraine,Hadyach,Poltavs'ka oblast,Hadyats'kyi district
1016,"м. Боярка, Києво-Святошинський р-н, Київська обл.","Boyarka, Kyivs'ka oblast, Ukraine",50.317116999999996,30.298167,Ukraine,Boyarka,Kyivs'ka oblast,Kyjevo-Svyatoshyns'kyi district
1017,"с.м.т. Новопсков, Луганська область","Novopskov, Luhans'ka oblast, Ukraine",49.529722,39.117222,Ukraine,Novopskov,Luhans'ka oblast,Novopskovs'kyi district
1018,Нова Каховка,"Nova Kakhovka, Khersons'ka oblast, Ukraine",46.766667,33.366667,Ukraine,Nova Kakhovka,Khersons'ka oblast,
1019,"Warszawa, PL","Warsaw, Poland",52.2296756,21.012228699999998,Poland,Warsaw,Masovian Voivodeship,Warszawa
1020,Каменец-Подольский,"Kam'yanets'-Podil's'kyi, Khmel'nyts'ka oblast, Ukraine",48.683333000000005,26.583333000000003,Ukraine,Kam'yanets'-Podil's'kyi,Khmel'nyts'ka oblast,
1021,"м. Олександрія, Кіровоградська обл.","Oleksandriya, Kirovohrads'ka oblast, Ukraine",48.666667,33.116667,Ukraine,Oleksandriya,Kirovohrads'ka oblast,
1022,г. Березань,"Berezan', Kyivs'ka oblast, Ukraine",50.3070969,31.46433,Ukraine,Berezan',Kyivs'ka oblast,
1023,"Chernivtsi
","Chernivtsi, Chernivets'ka oblast, Ukraine",48.2920787,25.9358367,Ukraine,Chernivtsi,Chernivets'ka oblast,
1024,Ватутіне,"Vatutine, Cherkas'ka oblast, Ukraine",49.016667,31.066667,Ukraine,Vatutine,Cherkas'ka oblast,
1025,"М.Стрий
","Stryi, Lviv Oblast, Ukraine",49.25,23.85,Ukraine,Stryi,Lviv Oblast,
1026,Славутич,"Slavutych, Kyivs'ka oblast, Ukraine",51.520556,30.756944,Ukraine,Slavutych,Kyivs'ka oblast,
1027,"Волинська обл. , м. Луцьк","Lutsk, Volyns'ka oblast, Ukraine",50.74723299999999,25.325383,Ukraine,Lutsk,Volyns'ka oblast,
1028,"Донецкая область, г. Доброполье","Dobropillya, Donetsk Oblast, Ukraine",48.420039,37.052291,Ukraine,Dobropillya,Donetsk Oblast,Dobropil's'kyi district
1029,"Умань, Черкаська обл.","Uman', Cherkas'ka oblast, Ukraine",48.75,30.216666999999998,Ukraine,Uman',Cherkas'ka oblast,
1030,Chernivtsy,"Chernivtsi, Chernivets'ka oblast, Ukraine",48.2920787,25.9358367,Ukraine,Chernivtsi,Chernivets'ka oblast,
1031,Вышгород,"Vyshhorod, Kyivs'ka oblast, Ukraine",50.5904776,30.4831982,Ukraine,Vyshhorod,Kyivs'ka oblast,Vyshhorods'kyi district
1032,Munich,"Munich, Germany",48.1351253,11.5819806,Germany,Munich,Bavaria,Upper Bavaria
1033,Костянтинівка,"Kostyantynivka, Donetsk Oblast, Ukraine",48.533333,37.716667,Ukraine,Kostyantynivka,Donetsk Oblast,
1034,Дзержинськ,"Dzerzhyns'k, Donetsk Oblast, Ukraine",48.4,37.833333,Ukraine,Dzerzhyns'k,Donetsk Oblast,
1035,"Славутич, Київська обл","Slavutych, Kyivs'ka oblast, Ukraine",51.520556,30.756944,Ukraine,Slavutych,Kyivs'ka oblast,
1036,"Украина, Донецкая область, г. Мариуполь","Mariupol', Donetsk Oblast, Ukraine",47.097133,37.543366999999996,Ukraine,Mariupol',Donetsk Oblast,
1037,Южноукраїнськ,"Yuzhnoukrains'k, Mykolaivs'ka oblast, Ukraine",47.8228,31.1775,Ukraine,Yuzhnoukrains'k,Mykolaivs'ka oblast,
1038,"Місто Українка, Київська область","Ukrainka, Kyivs'ka oblast, Ukraine",50.15308599999999,30.743492,Ukraine,Ukrainka,Kyivs'ka oblast,Obukhivs'kyi district
1039,Лисянка,"Lysyanka, Cherkas'ka oblast, Ukraine",49.256944,30.82333299999999,Ukraine,Lysyanka,Cherkas'ka oblast,Lysyans'kyi district
1040,"Крим, м. Сiмферополь",Simferopol,44.952117,34.102416999999996,,Simferopol,Crimea,
1041,г.Белая Церковь,"Bila Tserkva, Kyivs'ka oblast, Ukraine",49.798889,30.115278000000004,Ukraine,Bila Tserkva,Kyivs'ka oblast,
1042,Умань,"Uman', Cherkas'ka oblast, Ukraine",48.75,30.216666999999998,Ukraine,Uman',Cherkas'ka oblast,
1043,Світловодськ ,"Svitlovods'k, Kirovohrads'ka oblast, Ukraine",49.050278000000006,33.241944000000004,Ukraine,Svitlovods'k,Kirovohrads'ka oblast,
1044,"Бердичів, Житомирська обл.","Berdychiv, Zhytomyrs'ka oblast, Ukraine",49.9,28.566667,Ukraine,Berdychiv,Zhytomyrs'ka oblast,
1045,"м. Обухів, Київська обл.","Obukhiv, Kyivs'ka oblast, Ukraine",50.13,30.656667,Ukraine,Obukhiv,Kyivs'ka oblast,Obukhivs'kyi district
1046,Алчевск,"Alchevs'k, Luhans'ka oblast, Ukraine",48.477778,38.797778,Ukraine,Alchevs'k,Luhans'ka oblast,
1047,"Донецьк, Київ","Kyivs'kyi avenue, Donetsk, Donetsk Oblast, Ukraine",48.050048,37.778167100000005,Ukraine,Donetsk,Donetsk Oblast,
1048,Новопсков,"Novopskov, Luhans'ka oblast, Ukraine",49.529722,39.117222,Ukraine,Novopskov,Luhans'ka oblast,Novopskovs'kyi district
1049,Seattle WA ,"Seattle, WA, USA",47.6062095,-122.33207079999998,United States,Seattle,Washington,King County
1050,місто Івано-Франківськ,"Ivano-Frankivsk, Ivano-Frankivs'ka oblast, Ukraine",48.922633000000005,24.711117,Ukraine,Ivano-Frankivsk,Ivano-Frankivs'ka oblast,
1051,"м.Бердянськ, Запорізька обл. Україна","Berdyans'k, Zaporiz'ka oblast, Ukraine",46.759722,36.784444,Ukraine,Berdyans'k,Zaporiz'ka oblast,
1052,м. Боярка,"Boyarka, Kyivs'ka oblast, Ukraine",50.317116999999996,30.298167,Ukraine,Boyarka,Kyivs'ka oblast,Kyjevo-Svyatoshyns'kyi district
1053,м.Нововолинськ,"Novovolynsk, Volyns'ka oblast, Ukraine",50.73333299999999,24.166667,Ukraine,Novovolynsk,Volyns'ka oblast,
1054,Кіровоград / Київ,"Kirovohrads'kyi lane, Kyiv, Kyiv city, Ukraine",50.414115,30.511199199999997,Ukraine,Kyiv,Kyiv city,Kyiv City
1055,Місто Фастів,"Fastiv, Kyivs'ka oblast, Ukraine",50.083333,29.916666999999997,Ukraine,Fastiv,Kyivs'ka oblast,
1056,"Комсомольськ, Полтавської обл.","Komsomol's'k, Poltavs'ka oblast, Ukraine",49.0156679,33.6450451,Ukraine,Komsomol's'k,Poltavs'ka oblast,Kremenchuts'kyi district
1057,Київ - Володимир-Волинський,"Kyiv, Kyiv city, Ukraine",50.4501,30.5234,Ukraine,Kyiv,Kyiv city,Kyiv City
1058,"Київ, Черкаси","Cherkaska Street, Kyiv, Kyiv city, Ukraine",50.46839310000001,30.4223105,Ukraine,Kyiv,Kyiv city,Kyiv City
1059,Новий Розділ,"Novyi Rozdil, Lviv Oblast, Ukraine",49.471944,24.133333,Ukraine,Novyi Rozdil,Lviv Oblast,
1060,"Львів, Афіни","Athens, Greece",37.983917,23.7293599,Greece,Athens,Attica,Attica
1061,Smila,"Smila, Cherkas'ka oblast, Ukraine",49.227717,31.852233000000002,Ukraine,Smila,Cherkas'ka oblast,
1062,"Підволочиськ, Тернопільська область","Pidvolochys'k, Ternopil's'ka oblast, Ukraine",49.52638899999999,26.141389,Ukraine,Pidvolochys'k,Ternopil's'ka oblast,Pidvolochys'kyi district
1063,Розвадів,"Rozvadiv, Lviv Oblast, Ukraine",49.50027799999999,23.966944,Ukraine,Rozvadiv,Lviv Oblast,Mykolaivs'kyi district
1064,Романів,"Romaniv, Zhytomyrs'ka oblast, Ukraine",50.149167,27.933333,Ukraine,Romaniv,Zhytomyrs'ka oblast,Romanivs'kyi district
1065,Донецк-Киев,"Kyiv, Kyiv city, Ukraine",50.4501,30.5234,Ukraine,Kyiv,Kyiv city,Kyiv City
1066,м. Ковель,"Kovel', Volyns'ka oblast, Ukraine",51.216667,24.716667,Ukraine,Kovel',Volyns'ka oblast,
1067,Дубно місто,"Dubno, Rivnens'ka oblast, Ukraine",50.416667,25.75,Ukraine,Dubno,Rivnens'ka oblast,
1068,Франкфурт,"Frankfurt, Germany",50.1109221,8.6821267,Germany,Frankfurt,Hesse,Darmstadt
1069,M.львів,"Lviv, Lviv Oblast, Ukraine",49.839683,24.029717,Ukraine,Lviv,Lviv Oblast,
1070,Chernivtsi,"Chernivtsi, Chernivets'ka oblast, Ukraine",48.2920787,25.9358367,Ukraine,Chernivtsi,Chernivets'ka oblast,
1071,Вузлове,"Vuzlove, Lviv Oblast, Ukraine",50.225258000000004,24.547098899999998,Ukraine,Vuzlove,Lviv Oblast,Radekhivs'kyi district
1072,М. Львів,"Lviv, Lviv Oblast, Ukraine",49.839683,24.029717,Ukraine,Lviv,Lviv Oblast,
1073,"м. Рудки, Самбірський р-н., Львівська обл.","Rudky, Lviv Oblast, Ukraine",49.653056,23.488056,Ukraine,Rudky,Lviv Oblast,Sambirs'kyi district
1074,г.Николаев,"Mykolaiv, Mykolaivs'ka oblast, Ukraine",46.975033,31.994583000000002,Ukraine,Mykolaiv,Mykolaivs'ka oblast,
1075,Berlin,"Berlin, Germany",52.52000659999999,13.404954,Germany,Berlin,Berlin,
1076,"Місто Стрий,Львівська область.","Stryi, Lviv Oblast, Ukraine",49.25,23.85,Ukraine,Stryi,Lviv Oblast,
1077,м. Заліщики,"Zalishchyky, Ternopil's'ka oblast, Ukraine",48.65,25.733333,Ukraine,Zalishchyky,Ternopil's'ka oblast,Zalishchyts'kyi district
1078,Богуслав,"Bohuslav, Kyivs'ka oblast, Ukraine",49.546667,30.872778000000004,Ukraine,Bohuslav,Kyivs'ka oblast,Bohuslavs'kyi district
1079,Украина. Днепродзержинск,"Dniprodzerzhyns'k, Dnipropetrovsk Oblast, Ukraine",48.523117,34.613683,Ukraine,Dniprodzerzhyns'k,Dnipropetrovsk Oblast,
1080,"м. Вінниця, Україна","Vinnytsia, Vinnyts'ka oblast, Ukraine",49.233083,28.468217,Ukraine,Vinnytsia,Vinnyts'ka oblast,
1081,с. Рожневі Поля,"Rozhnevi Polya, Ivano-Frankivs'ka oblast, Ukraine",48.524444,25.38,Ukraine,Rozhnevi Polya,Ivano-Frankivs'ka oblast,Snyatyns'kyi district
1082,г.Новая Каховка,"Nova Kakhovka, Khersons'ka oblast, Ukraine",46.766667,33.366667,Ukraine,Nova Kakhovka,Khersons'ka oblast,
1083,"Боярка, Київська обл","Boyarka, Kyivs'ka oblast, Ukraine",50.317116999999996,30.298167,Ukraine,Boyarka,Kyivs'ka oblast,Kyjevo-Svyatoshyns'kyi district
1084,"Нижньогірський,Крим",Nyzhn'ohirs'kyi,45.4465898,34.7383516,,Nyzhn'ohirs'kyi,Crimea,
1085,"Село Мотижин, Макарівський район, Київська область","Motyzhyn, Kyivs'ka oblast, Ukraine",50.381667,29.936389000000002,Ukraine,Motyzhyn,Kyivs'ka oblast,Makarivs'kyi district
1086,Новояворівськ,"Novoyavorivs'k, Lviv Oblast, Ukraine",49.93111099999999,23.573056,Ukraine,Novoyavorivs'k,Lviv Oblast,Yavorivs'kyi district
1087,"Джанкой, Автономна Республіка Крим ",Dzhankoi,45.7089869,34.3874785,,Dzhankoi,Crimea,
1088,"Армянськ, АР Крим",Armyans'k,46.1140519,33.6876019,,Armyans'k,Crimea,
1089,г.Южне Одеська область,"Yuzhne, Odessa Oblast, Ukraine",46.624021299999995,31.1000648,Ukraine,Yuzhne,Odessa Oblast,
1090,м. Краматорськ,"Kramatorsk, Donetsk Oblast, Ukraine",48.738966999999995,37.58435,Ukraine,Kramatorsk,Donetsk Oblast,
1091,Рокитне,"Rokytne, Kyivs'ka oblast, Ukraine",49.691180200000005,30.478015399999997,Ukraine,Rokytne,Kyivs'ka oblast,Rokytnyans'kyi district
1092,"Україна, Київська обл., м Українка","Ukrainka, Kyivs'ka oblast, Ukraine",50.15308599999999,30.743492,Ukraine,Ukrainka,Kyivs'ka oblast,Obukhivs'kyi district
1093,"Києво-Святошинський район, село Софієвська Борщагівка вулиця Щорса 22 А","Shchorsa street, 22, Sofiivs'ka Borshchahivka, Kyivs'ka oblast, Ukraine, 08131",50.420116,30.357884999999996,Ukraine,Sofiivs'ka Borshchahivka,Kyivs'ka oblast,Kyjevo-Svyatoshyns'kyi district
1094,Хоростків,"Khorostkiv, Ternopil's'ka oblast, Ukraine",49.2030849,25.903470199999997,Ukraine,Khorostkiv,Ternopil's'ka oblast,Husyatyns'kyi district
1095,Лубны,"Lubny, Poltavs'ka oblast, Ukraine",50.016667,33.0,Ukraine,Lubny,Poltavs'ka oblast,
1096,"Лілль, Франція","Lille, France",50.62925,3.057256,France,Lille,Nord-Pas-de-Calais,Nord
1097,Bruxelles,"Brussels, Belgium",50.8503396,4.3517103,Belgium,Brussels,Brussels,
1098,П'ядиківці,"P'yadykivtsi, Chernivets'ka oblast, Ukraine",48.38,25.651667,Ukraine,P'yadykivtsi,Chernivets'ka oblast,Kitsmans'kyi district
1099,М.Вінниця,"Vinnytsia, Vinnyts'ka oblast, Ukraine",49.233083,28.468217,Ukraine,Vinnytsia,Vinnyts'ka oblast,
1100,г. Николаев.,"Mykolaiv, Mykolaivs'ka oblast, Ukraine",46.975033,31.994583000000002,Ukraine,Mykolaiv,Mykolaivs'ka oblast,
1101,г. Токмак Украина,"Tokmak, Zaporiz'ka oblast, Ukraine",47.25,35.7,Ukraine,Tokmak,Zaporiz'ka oblast,
1102,Запоріжжя.,"Zaporizhia, Zaporiz'ka oblast, Ukraine",47.8388,35.139567,Ukraine,Zaporizhia,Zaporiz'ka oblast,
1103,Димитров,"Dymytrov, Donetsk Oblast, Ukraine",48.296211799999995,37.270003499999994,Ukraine,Dymytrov,Donetsk Oblast,
1104,Київ-Нововолинськ,"Kyiv, Kyiv city, Ukraine",50.4501,30.5234,Ukraine,Kyiv,Kyiv city,Kyiv City
1105,"Чернівці, Chernivtsi Ukraine","Chernivtsi, Chernivets'ka oblast, Ukraine",48.2920787,25.9358367,Ukraine,Chernivtsi,Chernivets'ka oblast,
1106,Shanghai,"Shanghai, Shanghai, China",31.230415999999998,121.473701,China,Shanghai,Shanghai,
1107,м. Козятин,"Kozyatyn, Vinnyts'ka oblast, Ukraine",49.7149346,28.8363647,Ukraine,Kozyatyn,Vinnyts'ka oblast,
1108,"Львівська область,Стрийський район.","Stryis'kyi district, Lviv Oblast, Ukraine",49.18957279999999,23.9696786,Ukraine,,Lviv Oblast,Stryis'kyi district
1109,"Краматорськ
","Kramatorsk, Donetsk Oblast, Ukraine",48.738966999999995,37.58435,Ukraine,Kramatorsk,Donetsk Oblast,
1110,Київ чи Херсон,"Kherson, Khersons'ka oblast, Ukraine",46.635417,32.616867,Ukraine,Kherson,Khersons'ka oblast,
1111,Новая Каховка,"Nova Kakhovka, Khersons'ka oblast, Ukraine",46.766667,33.366667,Ukraine,Nova Kakhovka,Khersons'ka oblast,
1112, Бурштин,"Burshtyn, Ivano-Frankivs'ka oblast, Ukraine",49.266667,24.633333,Ukraine,Burshtyn,Ivano-Frankivs'ka oblast,Halyts'kyi district
1113,"usa, iowa, ames","Ames, IA, USA",42.034721999999995,-93.62,United States,Ames,Iowa,Story County
1114,"м.Маріуполь, Донецька область","Mariupol', Donetsk Oblast, Ukraine",47.097133,37.543366999999996,Ukraine,Mariupol',Donetsk Oblast,
1115,Івано-Франківська обл. м.Калуш ,"Kalush, Ivano-Frankivs'ka oblast, Ukraine",49.04416699999999,24.359722,Ukraine,Kalush,Ivano-Frankivs'ka oblast,
1116,Березівка ,"Berezivka, Odessa Oblast, Ukraine",47.200556,30.917222,Ukraine,Berezivka,Odessa Oblast,Berezivs'kyi district
1117,Харьков  ,"Kharkiv, Kharkiv Oblast, Ukraine",49.9935,36.230383,Ukraine,Kharkiv,Kharkiv Oblast,
1118,Борислав,"Boryslav, Lviv Oblast, Ukraine",49.289167,23.418889,Ukraine,Boryslav,Lviv Oblast,
1119,Днепродзержинск Днепропетровская Обл.,"Dniprodzerzhyns'k, Dnipropetrovsk Oblast, Ukraine",48.523117,34.613683,Ukraine,Dniprodzerzhyns'k,Dnipropetrovsk Oblast,
1120,с. Шульгінка,"Shul'hynka, Luhans'ka oblast, Ukraine",49.143333,38.926389,Ukraine,Shul'hynka,Luhans'ka oblast,Starobil's'kyi district
1121,донецьк,"Donetsk, Donetsk Oblast, Ukraine",48.015883,37.80285,Ukraine,Donetsk,Donetsk Oblast,
1122,Zytomyr,"Zhytomyr, Zhytomyrs'ka oblast, Ukraine",50.25465,28.658666999999998,Ukraine,Zhytomyr,Zhytomyrs'ka oblast,
1123,м Ужгород,"Uzhhorod, Zakarpats'ka oblast, Ukraine",48.6208,22.287882999999997,Ukraine,Uzhhorod,Zakarpats'ka oblast,
1124,м. Горлівка Донецької області,"Горлівський відділ УСБУ в Донецькій області, Hor'koho street, 15, Horlivka, Donetsk Oblast, Ukraine, 84600",48.3054062,38.0277908,Ukraine,Horlivka,Donetsk Oblast,
1125,"Таромське, Дніпропетровськ","Taroms'ke, Dnepropetrovsk, Dnipropetrovsk Oblast, Ukraine",48.439552,34.793683,Ukraine,Dnepropetrovsk,Dnipropetrovsk Oblast,
1126,Демидів,"Demydiv, Kyivs'ka oblast, Ukraine",50.727222,30.327221999999995,Ukraine,Demydiv,Kyivs'ka oblast,Vyshhorods'kyi district
1127,Київ/Миргород,"Kyiv, Kyiv city, Ukraine",50.4501,30.5234,Ukraine,Kyiv,Kyiv city,Kyiv City
1128,"Ivano-Frankivsk, Ukraine","Ivano-Frankivsk, Ivano-Frankivs'ka oblast, Ukraine",48.922633000000005,24.711117,Ukraine,Ivano-Frankivsk,Ivano-Frankivs'ka oblast,
1129,"с. Журатин, Львівської області","Zhuratyn, Lviv Oblast, Ukraine",49.941666999999995,24.600832999999998,Ukraine,Zhuratyn,Lviv Oblast,Bus'kyi district
1130,М. Чернігів,"Chernihiv, Chernihivs'ka oblast, Ukraine",51.4982,31.28935,Ukraine,Chernihiv,Chernihivs'ka oblast,
1131,смт.Новопсков,"Novopskov, Luhans'ka oblast, Ukraine",49.529722,39.117222,Ukraine,Novopskov,Luhans'ka oblast,Novopskovs'kyi district
1132,г. Николаев,"Mykolaiv, Mykolaivs'ka oblast, Ukraine",46.975033,31.994583000000002,Ukraine,Mykolaiv,Mykolaivs'ka oblast,
1133,L'viv,"Lviv, Lviv Oblast, Ukraine",49.839683,24.029717,Ukraine,Lviv,Lviv Oblast,
1134,Київ-Львів,"Lviv, Lviv Oblast, Ukraine",49.839683,24.029717,Ukraine,Lviv,Lviv Oblast,
1135,Червоноград,"Chervonohrad, Lviv Oblast, Ukraine",50.39,24.23,Ukraine,Chervonohrad,Lviv Oblast,
1136,"Череповец, Вологодская область, Россия","Cherepovets, Vologda Oblast, Russia",59.132332999999996,37.9091811,Russia,Cherepovets,Vologda Oblast,gorod Cherepovets
1137,смт Коцюбинське ,"Selsovet pgt Kotsyubinskoye, Dokivska Street, Kotsyubyns'ke, Kyivs'ka oblast, Ukraine, 08298",50.4884976,30.3357115,Ukraine,Kotsyubyns'ke,Kyivs'ka oblast,
1138,"Черкаська обл, м.Смiла","Smila, Cherkas'ka oblast, Ukraine",49.227717,31.852233000000002,Ukraine,Smila,Cherkas'ka oblast,
1139,Бердянськ Запорізька обл.,"Berdyans'k, Zaporiz'ka oblast, Ukraine",46.759722,36.784444,Ukraine,Berdyans'k,Zaporiz'ka oblast,
1140,"Львівська обл., м.Дрогобич","Drohobych, Lviv Oblast, Ukraine",49.358011600000005,23.5123193,Ukraine,Drohobych,Lviv Oblast,
1141,"Київська область, місто Біла Церква ","Bila Tserkva, Kyivs'ka oblast, Ukraine",49.798889,30.115278000000004,Ukraine,Bila Tserkva,Kyivs'ka oblast,
1142,"Sydney, Australia","Sydney NSW, Australia",-33.8674869,151.20699019999998,Australia,Sydney,New South Wales,
1143,Краків,"Krakow, Poland",50.06465009999999,19.9449799,Poland,Krakow,Lesser Poland Voivodeship,Kraków County
1144,"м. Димитров, Донецька область","Dymytrov, Donetsk Oblast, Ukraine",48.296211799999995,37.270003499999994,Ukraine,Dymytrov,Donetsk Oblast,
1145,"Ніжин
","Nizhyn, Chernihivs'ka oblast, Ukraine",51.038056,31.886111,Ukraine,Nizhyn,Chernihivs'ka oblast,
1146,м.Калуш,"Kalush, Ivano-Frankivs'ka oblast, Ukraine",49.04416699999999,24.359722,Ukraine,Kalush,Ivano-Frankivs'ka oblast,
1147,Енакиево,"Yenakijeve, Donetsk Oblast, Ukraine",48.216667,38.2,Ukraine,Yenakijeve,Donetsk Oblast,
1148,"село Башмачка, Дніпропетровська область","Bashmachka, Dnipropetrovsk Oblast, Ukraine",48.156019,35.010940999999995,Ukraine,Bashmachka,Dnipropetrovsk Oblast,Solonyans'kyi district
1149,Курахово,"Kurakhove, Donetsk Oblast, Ukraine",47.98333299999999,37.266667,Ukraine,Kurakhove,Donetsk Oblast,Mar'ins'kyi district
1150,с.Косів,"Kosiv, Ivano-Frankivs'ka oblast, Ukraine",48.315,25.095278,Ukraine,Kosiv,Ivano-Frankivs'ka oblast,Kosivs'kyi district
1151,Самбір,"Sambir, Lviv Oblast, Ukraine",49.516667,23.202778,Ukraine,Sambir,Lviv Oblast,
1152,"селище Новопсков, Луганська область","Novopskov, Luhans'ka oblast, Ukraine",49.529722,39.117222,Ukraine,Novopskov,Luhans'ka oblast,Novopskovs'kyi district
1153,Новогродівка,"Novohrodivka, Donetsk Oblast, Ukraine",48.2,37.339444,Ukraine,Novohrodivka,Donetsk Oblast,
1154,"Новопсков, Луганська область","Novopskov, Luhans'ka oblast, Ukraine",49.529722,39.117222,Ukraine,Novopskov,Luhans'ka oblast,Novopskovs'kyi district
1155,м. Пустомити,"Pustomyty, Lviv Oblast, Ukraine",49.71388899999999,23.910833,Ukraine,Pustomyty,Lviv Oblast,Pustomytivs'kyi district
1156,Донецьк/Дніпропетровськ,"Donetsk, Rostov Oblast, Russia",48.333333,39.933333000000005,Russia,Donets'k,Rostov Oblast,Donetsk
1157,Днепр,"(122) Dnipro, Kyiv, Kyiv city, Ukraine",50.44121999999999,30.559313,Ukraine,Kyiv,Kyiv city,Kyiv City
1158,Глибока,"Hlyboka, Chernivets'ka oblast, Ukraine",48.083333,25.933332999999998,Ukraine,Hlyboka,Chernivets'ka oblast,Hlybots'kyi district
1159,"Біла Церква, Київська обл.","Bila Tserkva, Kyivs'ka oblast, Ukraine",49.798889,30.115278000000004,Ukraine,Bila Tserkva,Kyivs'ka oblast,
1160,"Казань, Татарстан, Росія","Kazan, Tatarstan, Russia",55.790278,49.134722,Russia,Kazan,Tatarstan,gorod Kazan'
1161,"м. Коростень, Житомирська обл.","Korosten', Zhytomyrs'ka oblast, Ukraine",50.95,28.633333,Ukraine,Korosten',Zhytomyrs'ka oblast,
1162,KYIV,"Kyiv, Kyiv city, Ukraine",50.4501,30.5234,Ukraine,Kyiv,Kyiv city,Kyiv City
1163,Augsburg,"Augsburg, Germany",48.3705449,10.897789999999999,Germany,Augsburg,Bavaria,Swabia
1164,Світловодськ,"Svitlovods'k, Kirovohrads'ka oblast, Ukraine",49.050278000000006,33.241944000000004,Ukraine,Svitlovods'k,Kirovohrads'ka oblast,
1165,"Україна, Херсонська область","Khersons'ka oblast, Ukraine",46.635417,32.616867,Ukraine,,Khersons'ka oblast,
1166,Косів,"Kosiv, Ivano-Frankivs'ka oblast, Ukraine",48.315,25.095278,Ukraine,Kosiv,Ivano-Frankivs'ka oblast,Kosivs'kyi district
1167,chernivtsi,"Chernivtsi, Chernivets'ka oblast, Ukraine",48.2920787,25.9358367,Ukraine,Chernivtsi,Chernivets'ka oblast,
1168,смт.Немішаєве,"Nemishajeve, Kyivs'ka oblast, Ukraine",50.564721999999996,30.093611,Ukraine,Nemishajeve,Kyivs'ka oblast,Borodyans'kyi district
1169,Bydgoszcz,"Bydgoszcz, Poland",53.12348040000001,18.0084378,Poland,Bydgoszcz,Kuyavian-Pomeranian Voivodeship,Bydgoszcz County
1170,Кіцмань,"Kitsman', Chernivets'ka oblast, Ukraine",48.441666999999995,25.76,Ukraine,Kitsman',Chernivets'ka oblast,Kitsmans'kyi district
1171,Slavuta,"Slavuta, Khmel'nyts'ka oblast, Ukraine",50.302778,26.868333000000003,Ukraine,Slavuta,Khmel'nyts'ka oblast,
1172,м.Тульчин,"Tul'chyn, Vinnyts'ka oblast, Ukraine",48.674444,28.849721999999996,Ukraine,Tul'chyn,Vinnyts'ka oblast,Tul'chyns'kyi district
1173, м.Хмельницький ,"Khmelnytskyi, Khmel'nyts'ka oblast, Ukraine",49.422983,26.987133,Ukraine,Khmelnytskyi,Khmel'nyts'ka oblast,
1174,"Ірпінь, Київська обл ","Irpin', Kyivs'ka oblast, Ukraine",50.51875,30.239783000000003,Ukraine,Irpin',Kyivs'ka oblast,
1175,"м. Нововолинськ, Волинська обл.","Novovolynsk, Volyns'ka oblast, Ukraine",50.73333299999999,24.166667,Ukraine,Novovolynsk,Volyns'ka oblast,
1176,Lausanne,"Lausanne, Switzerland",46.5199617,6.6335970999999985,Switzerland,Lausanne,Vaud,Lausanne District
1177,м.Кривий Рiг,"Kryvyi Rih, Dnipropetrovsk Oblast, Ukraine",47.910483,33.391783000000004,Ukraine,Kryvyi Rih,Dnipropetrovsk Oblast,
1178,Zdolbuniv,"Zdolbuniv, Rivnens'ka oblast, Ukraine",50.516667,26.25,Ukraine,Zdolbuniv,Rivnens'ka oblast,Zdolbunivs'kyi district
1179,с. Музичі,"Muzychi, Kyivs'ka oblast, Ukraine",50.360278,30.1125,Ukraine,Muzychi,Kyivs'ka oblast,Kyjevo-Svyatoshyns'kyi district
1180,Cеверодонецк,"Severodonetsk, Luhans'ka oblast, Ukraine",48.933333000000005,38.5,Ukraine,Severodonetsk,Luhans'ka oblast,
1181,Kyyv,"Kyiv, Kyiv city, Ukraine",50.4501,30.5234,Ukraine,Kyiv,Kyiv city,Kyiv City
1182,"Рідне місто-Донецьк
Живу і працюю-Львів","Lviv, Lviv Oblast, Ukraine",49.839683,24.029717,Ukraine,Lviv,Lviv Oblast,
1183,Рожневі Поля,"Rozhnevi Polya, Ivano-Frankivs'ka oblast, Ukraine",48.524444,25.38,Ukraine,Rozhnevi Polya,Ivano-Frankivs'ka oblast,Snyatyns'kyi district
1184,м. Кривий Рiг,"Kryvyi Rih, Dnipropetrovsk Oblast, Ukraine",47.910483,33.391783000000004,Ukraine,Kryvyi Rih,Dnipropetrovsk Oblast,
1185,Kremenchug,"Kremenchuk, Poltavs'ka oblast, Ukraine",49.065783,33.410033,Ukraine,Kremenchuk,Poltavs'ka oblast,
1186,г. Керчь,Kerch,45.357314,36.468293,,Kerch,Crimea,
1187,м Львів,"Lviv, Lviv Oblast, Ukraine",49.839683,24.029717,Ukraine,Lviv,Lviv Oblast,
1188,"Харків,  Ккраїна","Kharkiv, Kharkiv Oblast, Ukraine",49.9935,36.230383,Ukraine,Kharkiv,Kharkiv Oblast,
1189,"Kyrenia, Northern Cyprus",Girne,35.323710399999996,33.3149413,,Girne,,
1190,м. Київ ,"Kyiv, Kyiv city, Ukraine",50.4501,30.5234,Ukraine,Kyiv,Kyiv city,Kyiv City
1191,Алчевськ. Луганська обл. Україна,"Alchevs'k, Luhans'ka oblast, Ukraine",48.477778,38.797778,Ukraine,Alchevs'k,Luhans'ka oblast,
1192,Mukachevo,"Mukacheve, Zakarpats'ka oblast, Ukraine",48.45,22.75,Ukraine,Mukacheve,Zakarpats'ka oblast,
1193,Белогородка,"Bilohorodka, Kyivs'ka oblast, Ukraine",50.3750037,30.2227951,Ukraine,Bilohorodka,Kyivs'ka oblast,Kyjevo-Svyatoshyns'kyi district
1194,"Київ, Одеса","Kyivs'kyi District, Odessa, Odessa Oblast, Ukraine",46.375272499999994,30.7164464,Ukraine,Odessa,Odessa Oblast,
1195,"Київ, Полтава","Poltava, Poltava, Poltavs'ka oblast, Ukraine",49.657199600000006,34.533910299999995,Ukraine,Poltava,Poltavs'ka oblast,Poltavs'kyi district
1196,Місто Стебник,"Stebnyk, Lviv Oblast, Ukraine",49.3,23.566667000000002,Ukraine,Stebnyk,Lviv Oblast,
1197,Київ (Соф.Борщагівка),"Kyiv, Kyiv city, Ukraine",50.4501,30.5234,Ukraine,Kyiv,Kyiv city,Kyiv City
1198,Тальне,"Tal'ne, Cherkas'ka oblast, Ukraine",48.883333,30.7,Ukraine,Tal'ne,Cherkas'ka oblast,Tal'nivs'kyi district
1199,"г. Краматорск, Донецкая обл., Украина","Kramatorsk, Donetsk Oblast, Ukraine",48.738966999999995,37.58435,Ukraine,Kramatorsk,Donetsk Oblast,
1200,"Одеська область, м.Татарбунари","Tatarbunary, Odessa Oblast, Ukraine",45.83911320000001,29.6145761,Ukraine,Tatarbunary,Odessa Oblast,Tatarbunars'kyi district
1201,"Місто Стрий, Львівська область","Stryi, Lviv Oblast, Ukraine",49.25,23.85,Ukraine,Stryi,Lviv Oblast,
1202, м.Новий Розділ Львівська область,"Novyi Rozdil, Lviv Oblast, Ukraine",49.471944,24.133333,Ukraine,Novyi Rozdil,Lviv Oblast,
1203, с. Скоморохи,"Skomorokhy, Ternopil's'ka oblast, Ukraine",49.406667,25.725278,Ukraine,Skomorokhy,Ternopil's'ka oblast,Ternopil's'kyi district
1204,"Львівська обл., м. Стебник","Stebnyk, Lviv Oblast, Ukraine",49.3,23.566667000000002,Ukraine,Stebnyk,Lviv Oblast,
1205,"Вишгородкьий р-н,с.Нові-Петрівці","v. Novi Pertivtsi, Novi Petrivtsi, Kyivs'ka oblast, Ukraine",50.627093,30.442689,Ukraine,Novi Petrivtsi,Kyivs'ka oblast,Vyshhorods'kyi district
1206,Республика Беларусь,Belarus,53.709807,27.953389,Belarus,,,
1207,Dublin,"Dublin, Ireland",53.34980529999999,-6.2603097000000005,Ireland,Dublin,Dublin,Dublin City
1208,Макіївка,"Makiivka, Donetsk Oblast, Ukraine",48.0459557,37.9666901,Ukraine,Makiivka,Donetsk Oblast,
1209,Житомир - Київ,"(111) Zhytomyrska, Kyiv, Kyiv city, Ukraine",50.456134999999996,30.365285999999998,Ukraine,Kyiv,Kyiv city,Kyiv City
1210,Село Митниця,"Mytnytsya, Kyivs'ka oblast, Ukraine",50.128611,30.243056,Ukraine,Mytnytsya,Kyivs'ka oblast,Vasyl'kivs'kyi district
1211,г.Горловка,"Horlivka, Donetsk Oblast, Ukraine",48.3071,38.029633000000004,Ukraine,Horlivka,Donetsk Oblast,
1212,УКРАЇНА,Ukraine,48.379433,31.16558,Ukraine,,,
1213,"м.Мурсія, Іспанія","Murcia, Murcia, Spain",37.992239899999994,-1.1306544,Spain,Murcia,Region of Murcia,Murcia
1214,Lublin,"Lublin, Poland",51.2464536,22.5684463,Poland,Lublin,Lublin Voivodeship,Lublin County
1215,село Ценява,"Tsenyava, Ivano-Frankivs'ka oblast, Ukraine",48.550278000000006,25.124722,Ukraine,Tsenyava,Ivano-Frankivs'ka oblast,Kolomyis'kyi district
1216,Dolyna,"Dolyna, Ivano-Frankivs'ka oblast, Ukraine",48.970556,24.011111,Ukraine,Dolyna,Ivano-Frankivs'ka oblast,Dolyns'kyi district
1217,"с. Сокільники, Львівська область","Sokilnyky, Lviv Oblast, Ukraine",49.77694400000001,23.961389,Ukraine,Sokilnyky,Lviv Oblast,Pustomytivs'kyi district
1218,Городок,"Haradok, Belarus",55.466666999999994,30.0,Belarus,Haradok,Vitebsk Province,Haradok District
1219,м. Луцьк Волинська область,"Lutsk, Volyns'ka oblast, Ukraine",50.74723299999999,25.325383,Ukraine,Lutsk,Volyns'ka oblast,
1220,"Хмельницька область, м. Славута","Slavuta, Khmel'nyts'ka oblast, Ukraine",50.302778,26.868333000000003,Ukraine,Slavuta,Khmel'nyts'ka oblast,
1221,"Чернівецька область, Новоселицький район","Novoselyts'kyi district, Chernivets'ka oblast, Ukraine",48.2820998,26.392416100000002,Ukraine,,Chernivets'ka oblast,Novoselyts'kyi district
1222,Дніпропетровськ /Донецьк,"Donetsk, Rostov Oblast, Russia",48.333333,39.933333000000005,Russia,Donets'k,Rostov Oblast,Donetsk
1223,Козятин,"Kozyatyn, Vinnyts'ka oblast, Ukraine",49.7149346,28.8363647,Ukraine,Kozyatyn,Vinnyts'ka oblast,
1224,"Павлоград, Дніпропетровська обл.","Pavlohrad, Dnipropetrovsk Oblast, Ukraine",48.516667,35.866667,Ukraine,Pavlohrad,Dnipropetrovsk Oblast,
1225,Polonne ,"Polonne, Khmel'nyts'ka oblast, Ukraine",50.116667,27.516666999999998,Ukraine,Polonne,Khmel'nyts'ka oblast,Polons'kyi district
1226,Г. Днепропетровск,"Dnepropetrovsk, Dnipropetrovsk Oblast, Ukraine",48.464717,35.046183,Ukraine,Dnepropetrovsk,Dnipropetrovsk Oblast,
1227,"м.Іллічівськ, Одеська обл., Україна","Illichivs'k, Odessa Oblast, Ukraine",46.2952236,30.648085499999997,Ukraine,Illichivs'k,Odessa Oblast,
1228,    Запорожье,"Zaporizhia, Zaporiz'ka oblast, Ukraine",47.8388,35.139567,Ukraine,Zaporizhia,Zaporiz'ka oblast,
1229,Madrid,"Madrid, Madrid, Spain",40.4167754,-3.7037902000000003,Spain,Madrid,Community of Madrid,Madrid
1230,Nthyjgskm,"Ternopil, Ternopil's'ka oblast, Ukraine",49.553517,25.594767,Ukraine,Ternopil,Ternopil's'ka oblast,
1231,"Іванків, Київська область","Ivankiv, Kyivs'ka oblast, Ukraine",50.933333000000005,29.9,Ukraine,Ivankiv,Kyivs'ka oblast,Ivankivs'kyi district
1232, Одесса,"Odessa, Odessa Oblast, Ukraine",46.482526,30.723309499999996,Ukraine,Odessa,Odessa Oblast,
1233,місто Київ.,"Kyiv, Kyiv city, Ukraine",50.4501,30.5234,Ukraine,Kyiv,Kyiv city,Kyiv City
1234,Prague,"Prague, Czech Republic",50.0755381,14.4378005,Czech Republic,Prague,Hlavní město Praha,Hlavní město Praha
1235,М. Київ ,"Kyiv, Kyiv city, Ukraine",50.4501,30.5234,Ukraine,Kyiv,Kyiv city,Kyiv City
1236,г. Винница,"Vinnytsia, Vinnyts'ka oblast, Ukraine",49.233083,28.468217,Ukraine,Vinnytsia,Vinnyts'ka oblast,
1237,Perechin,"Perechyn, Zakarpats'ka oblast, Ukraine",48.734167,22.474167,Ukraine,Perechyn,Zakarpats'ka oblast,Perechyns'kyi district
1238,"Calgary, Alberta, Canada.","Calgary, AB, Canada",51.04532460000001,-114.05810120000001,Canada,Calgary,Alberta,Division No. 6
1239,Лисичанськ,"Lysychans'k, Luhans'ka oblast, Ukraine",48.916667,38.4,Ukraine,Lysychans'k,Luhans'ka oblast,
1240,Г. Южный,"Yuzhne, Odessa Oblast, Ukraine",46.624021299999995,31.1000648,Ukraine,Yuzhne,Odessa Oblast,
1241,"пгт. Ольшанское, Николаевская область","Ol'shans'ke, Mykolaivs'ka oblast, Ukraine",47.184444,31.793889,Ukraine,Ol'shans'ke,Mykolaivs'ka oblast,Mykolaivs'kyi district
1242,"Дніпродзержинськ, Дніпропетроськ","Dniprodzerzhyns'k, Dnipropetrovsk Oblast, Ukraine",48.523117,34.613683,Ukraine,Dniprodzerzhyns'k,Dnipropetrovsk Oblast,
1243,Київ/Осло,"Oslo, Norway",59.913868799999996,10.7522454,Kingdom of Norway,Oslo,Oslo,
1244,м.Богуслав. Київська обл,"Bohuslav, Kyivs'ka oblast, Ukraine",49.546667,30.872778000000004,Ukraine,Bohuslav,Kyivs'ka oblast,Bohuslavs'kyi district
1245,Ямпіль,"Yampil', Vinnyts'ka oblast, Ukraine",48.243612,28.287041,Ukraine,Yampil',Vinnyts'ka oblast,Yampil's'kyi district
1246,Rio de Janeiro,"Rio de Janeiro - State of Rio de Janeiro, Brazil",-22.9082998,-43.1970773,Brazil,Rio de Janeiro,State of Rio de Janeiro,Rio de Janeiro
1247,місто Обухів,"Obukhiv, Kyivs'ka oblast, Ukraine",50.13,30.656667,Ukraine,Obukhiv,Kyivs'ka oblast,Obukhivs'kyi district
1248,IvanoFrankivsk,"Ivano-Frankivsk, Ivano-Frankivs'ka oblast, Ukraine",48.922633000000005,24.711117,Ukraine,Ivano-Frankivsk,Ivano-Frankivs'ka oblast,
1249,м.Боярка,"Boyarka, Kyivs'ka oblast, Ukraine",50.317116999999996,30.298167,Ukraine,Boyarka,Kyivs'ka oblast,Kyjevo-Svyatoshyns'kyi district
1250,М. Ніжин,"Nizhyn, Chernihivs'ka oblast, Ukraine",51.038056,31.886111,Ukraine,Nizhyn,Chernihivs'ka oblast,
1251,с. Наталине,"Natalyne, Kharkiv Oblast, Ukraine",49.34555599999999,35.482778,Ukraine,Natalyne,Kharkiv Oblast,Krasnohrads'kyi district
1252,Гомель,"Gomel, Belarus",52.44527799999999,30.984167,Belarus,Gomel,Homiel Province,Gomel District
1253,"Львівська область, місто Радехів","Radekhiv, Lviv Oblast, Ukraine",50.282778,24.6375,Ukraine,Radekhiv,Lviv Oblast,Radekhivs'kyi district
1254,Бельфорт - Франція,"Belfortes, 81260 Le Bez, France",43.637267,2.4546810000000003,France,Le Bez,Midi-Pyrénées,Tarn
1255,"село Новосілки, Київська обл.","Novosilky, Kyivs'ka oblast, Ukraine",50.354444,30.454444,Ukraine,Novosilky,Kyivs'ka oblast,Kyjevo-Svyatoshyns'kyi district
1256,м.Золочів Львівска обл,"Zolochiv, Lviv Oblast, Ukraine",49.80941,24.901370999999997,Ukraine,Zolochiv,Lviv Oblast,Zolochivs'kyi district
1257,Chernigiv,"Chernihiv, Chernihivs'ka oblast, Ukraine",51.4982,31.28935,Ukraine,Chernihiv,Chernihivs'ka oblast,
1258,"Cherkasy,Ukraine","Cherkasy, Cherkas'ka oblast, Ukraine",49.444433000000004,32.059767,Ukraine,Cherkasy,Cherkas'ka oblast,
1259,"Херсонська обл., м. Херсон","Kherson, Khersons'ka oblast, Ukraine",46.635417,32.616867,Ukraine,Kherson,Khersons'ka oblast,
1260,Сiмферополь,Simferopol,44.952117,34.102416999999996,,Simferopol,Crimea,
1261,"Україна, м.Харків","Kharkiv, Kharkiv Oblast, Ukraine",49.9935,36.230383,Ukraine,Kharkiv,Kharkiv Oblast,
1262,Khmelnitskiy city,"Khmelnytskyi, Khmel'nyts'ka oblast, Ukraine",49.422983,26.987133,Ukraine,Khmelnytskyi,Khmel'nyts'ka oblast,
1263,м. Здолбунів,"Zdolbuniv, Rivnens'ka oblast, Ukraine",50.516667,26.25,Ukraine,Zdolbuniv,Rivnens'ka oblast,Zdolbunivs'kyi district
1264,м. Бердянск,"Berdyans'k, Zaporiz'ka oblast, Ukraine",46.759722,36.784444,Ukraine,Berdyans'k,Zaporiz'ka oblast,
1265,м.Обухів Київська обл.,"Obukhiv, Kyivs'ka oblast, Ukraine",50.13,30.656667,Ukraine,Obukhiv,Kyivs'ka oblast,Obukhivs'kyi district
1266,г. Зеньков,"Zin'kiv, Poltavs'ka oblast, Ukraine",50.2,34.35,Ukraine,Zin'kiv,Poltavs'ka oblast,Zin'kivs'kyi district
1267,с. Берестівка,"Berestivka, Zhytomyrs'ka oblast, Ukraine",50.340556,27.476111,Ukraine,Berestivka,Zhytomyrs'ka oblast,Baranivs'kyi district
1268,Александрия,"Alexandria, Alexandria Governorate, Egypt",31.2000924,29.9187387,Egypt,Alexandria,Alexandria Governorate,
1269,село Загаття,"Zahattya, Zakarpats'ka oblast, Ukraine",48.398027299999995,22.9507674,Ukraine,Zahattya,Zakarpats'ka oblast,Irshavs'kyi district
1270,чернівці глибоцький р-н с.кам'янка ,"Chernivtsi, Chernivets'ka oblast, Ukraine",48.2920787,25.9358367,Ukraine,Chernivtsi,Chernivets'ka oblast,
1271,м.Шепетівка,"Shepetivka, Khmel'nyts'ka oblast, Ukraine",50.183333000000005,27.066667,Ukraine,Shepetivka,Khmel'nyts'ka oblast,
1272,с. Маслянка,"Maslyanka, Rivnens'ka oblast, Ukraine",50.530833,25.613889,Ukraine,Maslyanka,Rivnens'ka oblast,Mlynivs'kyi district
1273,Іллічівськ,"Illichivs'k, Odessa Oblast, Ukraine",46.2952236,30.648085499999997,Ukraine,Illichivs'k,Odessa Oblast,
1274,Тернопільска обл.,"Ternopil's'ka oblast, Ukraine",49.553517,25.594767,Ukraine,,Ternopil's'ka oblast,
1275,Богородчани,"Bohorodchany, Ivano-Frankivs'ka oblast, Ukraine",48.808056,24.538056,Ukraine,Bohorodchany,Ivano-Frankivs'ka oblast,Bohorodchans'kyi district
1276,"Одеська обл., м. Іллічівськ. У зв'язку з навчанням у НУ ""Острозька академія"" проживаю у м. Острог.","Odessa Oblast, Ukraine",46.484583,30.7326,Ukraine,,Odessa Oblast,
1277,м.Токмак,"Tokmak, Zaporiz'ka oblast, Ukraine",47.25,35.7,Ukraine,Tokmak,Zaporiz'ka oblast,
1278,місто Одеса ,"Odessa, Odessa Oblast, Ukraine",46.482526,30.723309499999996,Ukraine,Odessa,Odessa Oblast,
1279,Харьков-Луганск,"Luhansk, Luhans'ka oblast, Ukraine",48.574040999999994,39.307815000000005,Ukraine,Luhansk,Luhans'ka oblast,
1280,Макеевка,"Makiivka, Donetsk Oblast, Ukraine",48.0459557,37.9666901,Ukraine,Makiivka,Donetsk Oblast,
1281,"м. Зміїв, Харківська обл.","Zmiiv, Kharkiv Oblast, Ukraine",49.6944064,36.3595476,Ukraine,Zmiiv,Kharkiv Oblast,Zmiivs'kyi district
1282,Чернівці ,"Chernivtsi, Chernivets'ka oblast, Ukraine",48.2920787,25.9358367,Ukraine,Chernivtsi,Chernivets'ka oblast,
1283,"Барселона, Іспанія","Barcelona, Barcelona, Spain",41.3850639,2.1734035,Spain,Barcelona,Catalonia,Barcelona
1284,Kiew,"Kyiv, Kyiv city, Ukraine",50.4501,30.5234,Ukraine,Kyiv,Kyiv city,Kyiv City
1285,місто Ірпінь,"Irpin', Kyivs'ka oblast, Ukraine",50.51875,30.239783000000003,Ukraine,Irpin',Kyivs'ka oblast,
1286,Красноармійськ Дон. обл.,"Krasnoarmiis'k, Donetsk Oblast, Ukraine",48.28277800000001,37.182778000000006,Ukraine,Krasnoarmiis'k,Donetsk Oblast,
1287,Київ/Донецьк,"Kyiv-Konti, Donetsk, Donetsk Oblast, Ukraine",47.970924,37.770821000000005,Ukraine,Donetsk,Donetsk Oblast,
1288,Toronto,"Toronto, ON, Canada",43.653226000000004,-79.3831843,Canada,Toronto,Ontario,Toronto Division
1289,"Ukraine, Dnepropetrovsk","Dnepropetrovsk, Dnipropetrovsk Oblast, Ukraine",48.464717,35.046183,Ukraine,Dnepropetrovsk,Dnipropetrovsk Oblast,
1290,"Kherson
","Kherson, Khersons'ka oblast, Ukraine",46.635417,32.616867,Ukraine,Kherson,Khersons'ka oblast,
1291,Місто Сквира,"Skvyra, Kyivs'ka oblast, Ukraine",49.7328752,29.6642904,Ukraine,Skvyra,Kyivs'ka oblast,Skvyrs'kyi district
1292,"Луцк, Волынская область","Lutsk, Volyns'ka oblast, Ukraine",50.74723299999999,25.325383,Ukraine,Lutsk,Volyns'ka oblast,
1293,Косівська Поляна,"Kosivs'ka Polyana, Zakarpats'ka oblast, Ukraine",48.0084202,24.1135333,Ukraine,Kosivs'ka Polyana,Zakarpats'ka oblast,Rakhivs'kyi district
1294,М. Одеса,"Odessa, Odessa Oblast, Ukraine",46.482526,30.723309499999996,Ukraine,Odessa,Odessa Oblast,
1295,"Львів, Соснівка","вулиця Львівська, Sosnivka, Lviv Oblast, Ukraine, 80193",50.29969440000001,24.247116600000002,Ukraine,Sosnivka,Lviv Oblast,Sokal's'kyi district
1296,"Київська обл., м. Ірпінь","Irpin', Kyivs'ka oblast, Ukraine",50.51875,30.239783000000003,Ukraine,Irpin',Kyivs'ka oblast,
1297,"Місто Ірпінь, Київської області","Irpin', Kyivs'ka oblast, Ukraine",50.51875,30.239783000000003,Ukraine,Irpin',Kyivs'ka oblast,
1298,"Волинська область, місто Луцьк","Lutsk, Volyns'ka oblast, Ukraine",50.74723299999999,25.325383,Ukraine,Lutsk,Volyns'ka oblast,
1299,Khmelnitskiy,"Khmelnytskyi, Khmel'nyts'ka oblast, Ukraine",49.422983,26.987133,Ukraine,Khmelnytskyi,Khmel'nyts'ka oblast,
1300,Горловка ,"Horlivka, Donetsk Oblast, Ukraine",48.3071,38.029633000000004,Ukraine,Horlivka,Donetsk Oblast,
1301,м.Мукачево,"Mukacheve, Zakarpats'ka oblast, Ukraine",48.45,22.75,Ukraine,Mukacheve,Zakarpats'ka oblast,
1302,М.  Київ,"Kyiv, Kyiv city, Ukraine",50.4501,30.5234,Ukraine,Kyiv,Kyiv city,Kyiv City
1303,Chervonograd,"Chervonohrad, Lviv Oblast, Ukraine",50.39,24.23,Ukraine,Chervonohrad,Lviv Oblast,
1304,Луганська область місто Сватове ,"Svatove, Luhans'ka oblast, Ukraine",49.416667,38.15,Ukraine,Svatove,Luhans'ka oblast,Svativs'kyi district
1305,Дубно,"Dubno, Rivnens'ka oblast, Ukraine",50.416667,25.75,Ukraine,Dubno,Rivnens'ka oblast,
1306,місто Слов'янськ,"Slovyansk, Donetsk Oblast, Ukraine",48.8532,37.6053,Ukraine,Slovyansk,Donetsk Oblast,Slov'yans'kyi district
1307,Cherkasy,"Cherkasy, Cherkas'ka oblast, Ukraine",49.444433000000004,32.059767,Ukraine,Cherkasy,Cherkas'ka oblast,
1308,"Дубно

","Dubno, Rivnens'ka oblast, Ukraine",50.416667,25.75,Ukraine,Dubno,Rivnens'ka oblast,
1309,місто Севастополь,Sevastopol,44.61665,33.525366999999996,,Sevastopol,Sevastopol' city,Sevastopol' city
1310,м.Любомль,"Lyuboml', Volyns'ka oblast, Ukraine",51.223056,24.037778,Ukraine,Lyuboml',Volyns'ka oblast,Lyuboml's'kyi district
1311, Харків,"Kharkiv, Kharkiv Oblast, Ukraine",49.9935,36.230383,Ukraine,Kharkiv,Kharkiv Oblast,
1312, Суми,"Sumy, Sums'ka oblast, Ukraine",50.9077,34.7981,Ukraine,Sumy,Sums'ka oblast,Sums'kyi district
1313,Новосілки,"Novosilky, Kyivs'ka oblast, Ukraine",50.354444,30.454444,Ukraine,Novosilky,Kyivs'ka oblast,Kyjevo-Svyatoshyns'kyi district
1314,Хуст,"Khust, Zakarpats'ka oblast, Ukraine",48.181389,23.297778,Ukraine,Khust,Zakarpats'ka oblast,
1315,"Єнакієве, Донецька обл., Україна","Yenakijeve, Donetsk Oblast, Ukraine",48.216667,38.2,Ukraine,Yenakijeve,Donetsk Oblast,
1316,"Україна, Львів","Lviv, Lviv Oblast, Ukraine",49.839683,24.029717,Ukraine,Lviv,Lviv Oblast,
1317,Макіївка Донецька обл.,"Makiivka, Donetsk Oblast, Ukraine",48.0459557,37.9666901,Ukraine,Makiivka,Donetsk Oblast,
1318,Місто Житомир,"Zhytomyr, Zhytomyrs'ka oblast, Ukraine",50.25465,28.658666999999998,Ukraine,Zhytomyr,Zhytomyrs'ka oblast,
1319,Алчевськ,"Alchevs'k, Luhans'ka oblast, Ukraine",48.477778,38.797778,Ukraine,Alchevs'k,Luhans'ka oblast,
1320,"Берлін, Німеччина","Berlin, Germany",52.52000659999999,13.404954,Germany,Berlin,Berlin,
1321,Vinnytsya,"Vinnytsia, Vinnyts'ka oblast, Ukraine",49.233083,28.468217,Ukraine,Vinnytsia,Vinnyts'ka oblast,
1322,Stuttgart,"Stuttgart, Germany",48.7754181,9.1817588,Germany,Stuttgart,Baden-Württemberg,Stuttgart
1323,"м. Львів, Україна","Lviv, Lviv Oblast, Ukraine",49.839683,24.029717,Ukraine,Lviv,Lviv Oblast,
1324,Сколе,"Skole, Lviv Oblast, Ukraine",49.033333,23.516667,Ukraine,Skole,Lviv Oblast,Skolivs'kyi district
1325,"Дніпродзержинськ, Дніпропетровська обл.","Dniprodzerzhyns'k, Dnipropetrovsk Oblast, Ukraine",48.523117,34.613683,Ukraine,Dniprodzerzhyns'k,Dnipropetrovsk Oblast,
1326,Миргород,"Myrhorod, Poltavs'ka oblast, Ukraine",49.966667,33.6,Ukraine,Myrhorod,Poltavs'ka oblast,
1327,Любешів,"Lyubeshiv, Volyns'ka oblast, Ukraine",51.75506729999999,25.498235,Ukraine,Lyubeshiv,Volyns'ka oblast,Lyubeshivs'kyi district
1328,смт.Гусятин,"Husyatyn, Ternopil's'ka oblast, Ukraine",49.073147,26.1831731,Ukraine,Husyatyn,Ternopil's'ka oblast,Husyatyns'kyi district
1329,м. Червоноград ,"Chervonohrad, Lviv Oblast, Ukraine",50.39,24.23,Ukraine,Chervonohrad,Lviv Oblast,
1330,"Ukraine, Odessa","Odessa, Odessa Oblast, Ukraine",46.482526,30.723309499999996,Ukraine,Odessa,Odessa Oblast,
1331,"Закарпатська область, м. Перечин","Perechyn, Zakarpats'ka oblast, Ukraine",48.734167,22.474167,Ukraine,Perechyn,Zakarpats'ka oblast,Perechyns'kyi district
1332,Козова,"Kozova, Ternopil's'ka oblast, Ukraine",49.433333000000005,25.15,Ukraine,Kozova,Ternopil's'ka oblast,Kozivs'kyi district
1333,Глухів,"Hlukhiv, Sums'ka oblast, Ukraine",51.678611,33.911389,Ukraine,Hlukhiv,Sums'ka oblast,
1334,м.Стебник Львівська обл.,"Stebnyk, Lviv Oblast, Ukraine",49.3,23.566667000000002,Ukraine,Stebnyk,Lviv Oblast,
1335,"м. Іллічівськ, Одеська область","Illichivs'k, Odessa Oblast, Ukraine",46.2952236,30.648085499999997,Ukraine,Illichivs'k,Odessa Oblast,
1336,місто Хмельницький,"Khmelnytskyi, Khmel'nyts'ka oblast, Ukraine",49.422983,26.987133,Ukraine,Khmelnytskyi,Khmel'nyts'ka oblast,
1337,"Бруклiн, Нью-Йорк","Brooklyn, NY, USA",40.6781784,-73.94415790000001,United States,New York,New York,Kings County
1338,Горловка,"Horlivka, Donetsk Oblast, Ukraine",48.3071,38.029633000000004,Ukraine,Horlivka,Donetsk Oblast,
1339,Kiyv ,"Kyiv, Kyiv city, Ukraine",50.4501,30.5234,Ukraine,Kyiv,Kyiv city,Kyiv City
1340,Жиліна,"Žilina, Slovakia",49.2215903,18.741951899999997,Slovakia,Žilina,Žilina Region,Žilina District
1341,Chernigov,"Chernihiv, Chernihivs'ka oblast, Ukraine",51.4982,31.28935,Ukraine,Chernihiv,Chernihivs'ka oblast,
1342,Ostrog,"Ostroh, Rivnens'ka oblast, Ukraine",50.333333,26.516666999999998,Ukraine,Ostroh,Rivnens'ka oblast,
1343,"Рівненська область, м. Острог.","Ostroh, Rivnens'ka oblast, Ukraine",50.333333,26.516666999999998,Ukraine,Ostroh,Rivnens'ka oblast,
1344,Краматорськ Донецької області,"Краматорський міський відділ УСБУ в Донецькій області, 19-ho Partz'izdu street, 56А, Kramatorsk, Donetsk Oblast, Ukraine, 84300",48.7330967,37.5905532,Ukraine,Kramatorsk,Donetsk Oblast,
1345,Бердянськ.Запорізька обл,"Berdyans'k, Zaporiz'ka oblast, Ukraine",46.759722,36.784444,Ukraine,Berdyans'k,Zaporiz'ka oblast,
1346,Донецк/Киев,"Kyiv, Kyiv city, Ukraine",50.4501,30.5234,Ukraine,Kyiv,Kyiv city,Kyiv City
1347,"Александровка, Александровский район, Донецкая область, Украина.","Oleksandrivka, Donetsk Oblast, Ukraine",48.7,36.916667,Ukraine,Oleksandrivka,Donetsk Oblast,Oleksandrivs'kyi district
1348,Красний Лиман,"Krasnyi Lyman, Donetsk Oblast, Ukraine",48.9897585,37.8049964,Ukraine,Krasnyi Lyman,Donetsk Oblast,
1349,Шумськ,"Shumsk, Zhytomyrs'ka oblast, Ukraine",50.183333000000005,28.55,Ukraine,Shumsk,Zhytomyrs'ka oblast,Zhytomyrs'kyi district
1350,Богуслав ,"Bohuslav, Kyivs'ka oblast, Ukraine",49.546667,30.872778000000004,Ukraine,Bohuslav,Kyivs'ka oblast,Bohuslavs'kyi district
1351,Ровно,"Rivne, Rivnens'ka oblast, Ukraine",50.6199,26.251617,Ukraine,Rivne,Rivnens'ka oblast,
1352,"м. Боярка, Київська область","Boyarka, Kyivs'ka oblast, Ukraine",50.317116999999996,30.298167,Ukraine,Boyarka,Kyivs'ka oblast,Kyjevo-Svyatoshyns'kyi district
1353,м. Обухів,"Obukhiv, Kyivs'ka oblast, Ukraine",50.13,30.656667,Ukraine,Obukhiv,Kyivs'ka oblast,Obukhivs'kyi district
1354,c. Пологи,"Polohy, Zaporiz'ka oblast, Ukraine",47.476110999999996,36.259167,Ukraine,Polohy,Zaporiz'ka oblast,Polohivs'kyi district
1355,"Черкаська область, місто Умань","Uman', Cherkas'ka oblast, Ukraine",48.75,30.216666999999998,Ukraine,Uman',Cherkas'ka oblast,
1356,"м. Пустомити, Львівська обл.","Pustomyty, Lviv Oblast, Ukraine",49.71388899999999,23.910833,Ukraine,Pustomyty,Lviv Oblast,Pustomytivs'kyi district
1357,"смт. Новоайдар, Луганська область, Україна","Новоайдарський районний суд Луганської області, смт. Новоайдар, Luhans'ka oblast, Ukraine, 93500",48.96685739999999,38.991712400000004,Ukraine,смт. Новоайдар,Luhans'ka oblast,Novoaidars'kyi district
1358,"Львівська обл., м.Самбір","Sambir, Lviv Oblast, Ukraine",49.516667,23.202778,Ukraine,Sambir,Lviv Oblast,
1359,"Іршава, Закарпатська область","Irshava, Zakarpats'ka oblast, Ukraine",48.316666999999995,23.05,Ukraine,Irshava,Zakarpats'ka oblast,Irshavs'kyi district
1360,KHARKIV,"Kharkiv, Kharkiv Oblast, Ukraine",49.9935,36.230383,Ukraine,Kharkiv,Kharkiv Oblast,
1361,Черкаси/Маастрихт,"Maastricht, The Netherlands",50.8513682,5.6909725,The Netherlands,Maastricht,Limburg,Maastricht
1362,м. Першотравенськ,"Pershotravens'k, Dnipropetrovsk Oblast, Ukraine",48.34638899999999,36.404444,Ukraine,Pershotravens'k,Dnipropetrovsk Oblast,
1363,Городок Львівська область,"Horodok, Lviv Oblast, Ukraine",49.782222,23.643611,Ukraine,Horodok,Lviv Oblast,Horodots'kyi district
1364,"Poland, Lublin","Lublin, Poland",51.2464536,22.5684463,Poland,Lublin,Lublin Voivodeship,Lublin County
1365,"м. Луцьк, Волинська область","Lutsk, Volyns'ka oblast, Ukraine",50.74723299999999,25.325383,Ukraine,Lutsk,Volyns'ka oblast,
1366,Турійськ,"Turiis'k, Volyns'ka oblast, Ukraine",51.088333,24.524444,Ukraine,Turiis'k,Volyns'ka oblast,Turiis'kyi district
1367,   Біла Церква,"Bila Tserkva, Kyivs'ka oblast, Ukraine",49.798889,30.115278000000004,Ukraine,Bila Tserkva,Kyivs'ka oblast,
1368,Мілан,"Milan, Italy",45.465421899999996,9.1859243,Italy,Milan,Lombardy,Milan
1369,"Донецьк, Донецька область, Україна","Donetsk, Donetsk Oblast, Ukraine",48.015883,37.80285,Ukraine,Donetsk,Donetsk Oblast,
1370,"Katowice, Poland","Katowice, Poland",50.26489189999999,19.023781500000002,Poland,Katowice,Silesian Voivodeship,Katowice
1371,Луцк,"Lutsk, Volyns'ka oblast, Ukraine",50.74723299999999,25.325383,Ukraine,Lutsk,Volyns'ka oblast,
1372,"м. Дрогобич, Львівська обл.","Drohobych, Lviv Oblast, Ukraine",49.358011600000005,23.5123193,Ukraine,Drohobych,Lviv Oblast,
1373,"с. Сонцедарівка, Харківська обл.","Sontsedarivka, Kharkiv Oblast, Ukraine",49.940833000000005,35.359444,Ukraine,Sontsedarivka,Kharkiv Oblast,Krasnokuts'kyi district
1374,м Суми,"Sumy, Sums'ka oblast, Ukraine",50.9077,34.7981,Ukraine,Sumy,Sums'ka oblast,Sums'kyi district
1375,місто Полтава,"Poltava, Poltavs'ka oblast, Ukraine",49.58826699999999,34.551417,Ukraine,Poltava,Poltavs'ka oblast,
1376,м. Новоград-Волинський,"Novohrad-Volyns'kyi, Zhytomyrs'ka oblast, Ukraine",50.583333,27.633333,Ukraine,Novohrad-Volyns'kyi,Zhytomyrs'ka oblast,
1377,ЛЬВІВ,"Lviv, Lviv Oblast, Ukraine",49.839683,24.029717,Ukraine,Lviv,Lviv Oblast,
1378, Біла Церква,"Bila Tserkva, Kyivs'ka oblast, Ukraine",49.798889,30.115278000000004,Ukraine,Bila Tserkva,Kyivs'ka oblast,
1379,"40009, м. Суми, вул. Якіра, 10, 403/2","Yakira street, 10, Sumy, Sums'ka oblast, Ukraine",50.91499899999999,34.785975,Ukraine,Sumy,Sums'ka oblast,Sums'kyi district
1380,місто Стрий,"Stryi, Lviv Oblast, Ukraine",49.25,23.85,Ukraine,Stryi,Lviv Oblast,
1381,М.Сокаль,"Sokal', Lviv Oblast, Ukraine",50.48333299999999,24.283333,Ukraine,Sokal',Lviv Oblast,Sokal's'kyi district
1382,Київ-Калуш,"Kalush, Ivano-Frankivs'ka oblast, Ukraine",49.04416699999999,24.359722,Ukraine,Kalush,Ivano-Frankivs'ka oblast,
1383,"Вінниця, Київ","Vinnytska Street, Kyiv, Kyiv city, Ukraine",50.419258,30.4490048,Ukraine,Kyiv,Kyiv city,Kyiv City
1384,"Лашківка, Чернівецька область","Lashkivka, Chernivets'ka oblast, Ukraine",48.413610999999996,25.780556,Ukraine,Lashkivka,Chernivets'ka oblast,Kitsmans'kyi district
1385,Stuttgart ,"Stuttgart, Germany",48.7754181,9.1817588,Germany,Stuttgart,Baden-Württemberg,Stuttgart
1386,"Trippstadt, Germany","Trippstadt, Germany",49.3589666,7.7742651999999985,Germany,Trippstadt,Rhineland-Palatinate,
1387,"Мукачево, Украина","Mukacheve, Zakarpats'ka oblast, Ukraine",48.45,22.75,Ukraine,Mukacheve,Zakarpats'ka oblast,
1388,Городище Черкаська,"Городищенський РВ УМВС України в Черкаській області, T2408, Horodyshche, Cherkas'ka oblast, Ukraine, 19500",49.2890933,31.444505100000004,Ukraine,Horodyshche,Cherkas'ka oblast,Horodyshchens'kyi district
1389,місто Пустомити,"Pustomyty, Lviv Oblast, Ukraine",49.71388899999999,23.910833,Ukraine,Pustomyty,Lviv Oblast,Pustomytivs'kyi district
1390,м. Перемишляни,"Peremyshlyany, Lviv Oblast, Ukraine",49.66999999999999,24.559444,Ukraine,Peremyshlyany,Lviv Oblast,Peremyshlyans'kyi district
1391,"Mariupol, Donetsk region","Mariupol', Donetsk Oblast, Ukraine",47.097133,37.543366999999996,Ukraine,Mariupol',Donetsk Oblast,
1392,Днепропетрвск,"Dnepropetrovsk, Dnipropetrovsk Oblast, Ukraine",48.464717,35.046183,Ukraine,Dnepropetrovsk,Dnipropetrovsk Oblast,
1393,г. Харьков пгт. Песочин,"Pisochyn, Kharkiv Oblast, Ukraine",49.953889000000004,36.109167,Ukraine,Pisochyn,Kharkiv Oblast,Kharkivs'kyi district
1394,"Lvivska obl, m. Zolochiv","Zolochiv, Lviv Oblast, Ukraine",49.80941,24.901370999999997,Ukraine,Zolochiv,Lviv Oblast,Zolochivs'kyi district
1395,Братислава,"Bratislava, Slovakia",48.14589229999999,17.1071373,Slovakia,Bratislava,Bratislava Region,
1396, Феодосія,Feodosiya,45.031933,35.382433,,Feodosiya,Crimea,
1397,місто Скадовськ,"Skadovs'k, Khersons'ka oblast, Ukraine",46.116667,32.916667,Ukraine,Skadovs'k,Khersons'ka oblast,Skadovs'kyi district
1398,м.Самбір,"Sambir, Lviv Oblast, Ukraine",49.516667,23.202778,Ukraine,Sambir,Lviv Oblast,
1399,м.Берислав,"Beryslav, Khersons'ka oblast, Ukraine",46.833333,33.416667,Ukraine,Beryslav,Khersons'ka oblast,Beryslavs'kyi district
1400,"Київ, Вишгород","Vyshhorod, Kyivs'ka oblast, Ukraine",50.5904776,30.4831982,Ukraine,Vyshhorod,Kyivs'ka oblast,Vyshhorods'kyi district
1401,м. Дружківка,"Druzhkivka, Donetsk Oblast, Ukraine",48.621389,37.527778000000005,Ukraine,Druzhkivka,Donetsk Oblast,
1402,Киiв,"Kyiv, Kyiv city, Ukraine",50.4501,30.5234,Ukraine,Kyiv,Kyiv city,Kyiv City
1403,Киів,"Kyiv, Kyiv city, Ukraine",50.4501,30.5234,Ukraine,Kyiv,Kyiv city,Kyiv City
1404,Днiпропетровськ ,"Dnepropetrovsk, Dnipropetrovsk Oblast, Ukraine",48.464717,35.046183,Ukraine,Dnepropetrovsk,Dnipropetrovsk Oblast,
1405,Харкiв,"Kharkiv, Kharkiv Oblast, Ukraine",49.9935,36.230383,Ukraine,Kharkiv,Kharkiv Oblast,
1406,місто Красноармыйськ,"Krasnoarmiis'k, Donetsk Oblast, Ukraine",48.28277800000001,37.182778000000006,Ukraine,Krasnoarmiis'k,Donetsk Oblast,
1407,киів,"Kyiv, Kyiv city, Ukraine",50.4501,30.5234,Ukraine,Kyiv,Kyiv city,Kyiv City
1408,Харьків,"Kharkiv, Kharkiv Oblast, Ukraine",49.9935,36.230383,Ukraine,Kharkiv,Kharkiv Oblast,
1409,Село Корделівка Калинівського району Вінницької області,,,,,,,
1410,Кіїв,"Dim kino, Simferopol",44.95317,34.102965000000005,,Simferopol,Crimea,
1411,Киъв,"Kyiv, Kyiv city, Ukraine",50.4501,30.5234,Ukraine,Kyiv,Kyiv city,Kyiv City
1412,м. Харкiв,"Kharkivskyi, Kyiv, Kyiv city, Ukraine",50.412566,30.6436,Ukraine,Kyiv,Kyiv city,Kyiv City
1413,Пiсочин,,,,,,,
1414,Киїі,"Kyiv, Kyiv city, Ukraine",50.4501,30.5234,Ukraine,Kyiv,Kyiv city,Kyiv City
1415,Черныгів,"Chernihiv, Chernihivs'ka oblast, Ukraine",51.4982,31.28935,Ukraine,Chernihiv,Chernihivs'ka oblast,
1416,"Боярка, Київської обл.",,,,,,,
1417,Днiпропетровськ,"Dnepropetrovsk, Dnipropetrovsk Oblast, Ukraine",48.464717,35.046183,Ukraine,Dnepropetrovsk,Dnipropetrovsk Oblast,
1418,"Саутгемпон, Велика Британiя","Southampton, Southampton, UK",50.90970040000001,-1.4043508999999998,United Kingdom,Southampton,England,Southampton
1419,"мБрянка, Луганська обл.",,,,,,,
1420,м.Днепропетровськ,,,,,,,
1421,Краматорськ Донецької обл.,"Kramators'ka street, Horlivka, Donetsk Oblast, Ukraine",48.332916,38.008548,Ukraine,Horlivka,Donetsk Oblast,
1422,Кихв,"Kyiv, Kyiv city, Ukraine",50.4501,30.5234,Ukraine,Kyiv,Kyiv city,Kyiv City
1423,kMDSD,,,,,,,
1424,Тернопiль,"Ternopil, Ternopil's'ka oblast, Ukraine",49.553517,25.594767,Ukraine,Ternopil,Ternopil's'ka oblast,
1425,"Я проживав у смт. Буштино, тячівський рйр що в Закарпатській обл, але вже більже 5 років живу за кордоном а саме с Чехії",,,,,,,
1426,Місто Харьків,"Kharkiv, Kharkiv Oblast, Ukraine",49.9935,36.230383,Ukraine,Kharkiv,Kharkiv Oblast,
1427,Умань Черкаської області,,,,,,,
1428,В1нниця,,,,,,,
1429,селище Власівка кіровоградської області,,,,,,,
1430,"М.Красний Луч 
Луганскька область","Krasnyi Luch, Luhans'ka oblast, Ukraine",48.133333,38.933333000000005,Ukraine,Krasnyi Luch,Luhans'ka oblast,
1431,"Cуми, Україна",,,,,,,
1432,м. Дніпродзержинськ Дніпропетровської області,,,,,,,
1433,Харкыв,,,,,,,
1434,molipden@gmail.com,,,,,,,
1435,м. Дніпропетровск,"Прокуратура м. Дніпропетровська, Naberezhna V.I. Lenina street, 29, Dnepropetrovsk, Dnipropetrovsk Oblast, Ukraine, 49000",48.4702823,35.0500828,Ukraine,Dnepropetrovsk,Dnipropetrovsk Oblast,
1436,"Київська область, с. Копилов",,,,,,,
1437,смт. Немішаєве Київської обл. ,,,,,,,
1438,"м.Київ
вул. Волинська 25, кв.19",,,,,,,
1439,Дныпропетровськ,"Dnepropetrovsk, Dnipropetrovsk Oblast, Ukraine",48.464717,35.046183,Ukraine,Dnepropetrovsk,Dnipropetrovsk Oblast,
1440,м.Киъв,,,,,,,
1441,Кiev,,,,,,,
1442,Львіів,"Lviv, Lviv Oblast, Ukraine",49.839683,24.029717,Ukraine,Lviv,Lviv Oblast,
1443,Миколаів,"Micola, 31810 Clermont-le-Fort, France",43.4595011,1.4713389,France,Clermont-le-Fort,Midi-Pyrénées,Haute-Garonne
1444,Чернiгiв,"Chernihiv, Chernihivs'ka oblast, Ukraine",51.4982,31.28935,Ukraine,Chernihiv,Chernihivs'ka oblast,
1445,Тимчасово проживаю у Москві.,,,,,,,
1446,"c.Єгорівка, Волноваського р-н, Донецької обл.",,,,,,,
1447,м.Долина Івано-Франківської області,,,,,,,
1448,Святогiрск,,,,,,,
1449,"м. Бердянськ, Запорізької обл.",,,,,,,
1450,Камишуваха,,,,,,,
1451,м.Киів,,,,,,,
1452,"с. Требухів (Броварський р-н., Київської області)",,,,,,,
1453,Kijiv ,,,,,,,
1454,Київська обл. м.Бориспіль,,,,,,,
1455,Харкiв ,"Kharkiv, Kharkiv Oblast, Ukraine",49.9935,36.230383,Ukraine,Kharkiv,Kharkiv Oblast,
1456,м. Стрий Львівської області,,,,,,,
1457,"м. Дніпродзержинськ, Дніпропетровської обл.",,,,,,,
1458,Я з Луганська. Зараз живу в Черкасах.,"Cherkasy, Cherkas'ka oblast, Ukraine",49.444433000000004,32.059767,Ukraine,Cherkasy,Cherkas'ka oblast,
1459,Киеы,"Kyiv, Kyiv city, Ukraine",50.4501,30.5234,Ukraine,Kyiv,Kyiv city,Kyiv City
1460,Киеїв,"Kyiv, Kyiv city, Ukraine",50.4501,30.5234,Ukraine,Kyiv,Kyiv city,Kyiv City
1461,м. Гребінка Полтавської обл.,,,,,,,
1462,"м.Київ
м.Коломия",,,,,,,
1463,Львiв,"Lviv, Lviv Oblast, Ukraine",49.839683,24.029717,Ukraine,Lviv,Lviv Oblast,
1464,"м.Чортків, Тернопільська обл.",,,,,,,
1465,"м. Бровари, Київської області",,,,,,,
1466, Харкiв,"Kharkiv, Kharkiv Oblast, Ukraine",49.9935,36.230383,Ukraine,Kharkiv,Kharkiv Oblast,
1467,Киïв,"Kyiv, Kyiv city, Ukraine",50.4501,30.5234,Ukraine,Kyiv,Kyiv city,Kyiv City
1468,Zaporizhya,,,,,,,
1469,"м. Копичинці, Тернопільська обл",,,,,,,
1470,Кyiv,,,,,,,
1471,село Великы Кощарища,"Velyki Kosharyshcha, Zhytomyrs'ka oblast, Ukraine",50.2825326,28.9077521,Ukraine,Velyki Kosharyshcha,Zhytomyrs'ka oblast,Korostyshivs'kyi district
1472,"Київська обл., Броварський р-н, смт. Калинівка",,,,,,,
1473,Дніпропетровск,"Dnepropetrovsk, Dnipropetrovsk Oblast, Ukraine",48.464717,35.046183,Ukraine,Dnepropetrovsk,Dnipropetrovsk Oblast,
1474,Смт. Магдалинівка Дніпропетровської області,,,,,,,
1475,"смт Глеваха, Васильківський р-н, Київська обл",,,,,,,
1476,Тернопиль,"Ternopil, Ternopil's'ka oblast, Ukraine",49.553517,25.594767,Ukraine,Ternopil,Ternopil's'ka oblast,
1477,Хaрків,,,,,,,
1478,м. Киъв,"Khozyaystvennyy Sud g. Kiyeva, Kyiv, Kyivs'ka oblast, Ukraine, 01030",50.44758170000001,30.507601,Ukraine,Kyiv,Kyivs'ka oblast,Kyiv City
1479,Чулаківка Херсонської області,,,,,,,
1480,Киів.,"Kyiv, Kyiv city, Ukraine",50.4501,30.5234,Ukraine,Kyiv,Kyiv city,Kyiv City
1481,"Бровари, Киъвська обл.","Brovary, Kyivs'ka oblast, Ukraine",50.511083,30.7909,Ukraine,Brovary,Kyivs'ka oblast,
1482,м.Антрацит Луганської обл,,,,,,,
1483,Киїїв,"Kyiv, Kyiv city, Ukraine",50.4501,30.5234,Ukraine,Kyiv,Kyiv city,Kyiv City
1484,смт. Літин Вінницької області,"Lityn, Vinnyts'ka oblast, Ukraine",49.327220000000004,28.083333000000003,Ukraine,Lityn,Vinnyts'ka oblast,Lityns'kyi district
1485,КиІв,"Kyiv, Kyiv city, Ukraine",50.4501,30.5234,Ukraine,Kyiv,Kyiv city,Kyiv City
1486,"м. Амвроіївка, Донецька обл.",,,,,,,
1487,"с. Остриця,  Герцаївський р-н, Чернівецька обл.",,,,,,,
1488,м.Київ - м.Березне Рівненської області,,,,,,,
1489,"м.Сміла, Черкаської обл.",,,,,,,
1490,Мукачео,"Mukacheve, Zakarpats'ka oblast, Ukraine",48.45,22.75,Ukraine,Mukacheve,Zakarpats'ka oblast,
1491,смт. Немішаєво,,,,,,,
1492,Влад,,,,,,,
1493,"Імстичево, Закарпаття",,,,,,,
1494,CK.UA,,,,,,,
1495,смт Великий Любінь,,,,,,,
1496,"38200, Полтавська обл., смт Семенівка, вул.Шевченка, 147, кв.5",,,,,,,
1497,смт Чабани,,,,,,,
1498,Харькiв,"Kharkiv, Kharkiv Oblast, Ukraine",49.9935,36.230383,Ukraine,Kharkiv,Kharkiv Oblast,
1499,Бiла Церква,,,,,,,
1500, м.Феодосiя,,,,,,,
1501,Макіївка Донецької обл.,,,,,,,
1502,"м. Городок, Львівської області","Horodok, Lviv Oblast, Ukraine",49.782222,23.643611,Ukraine,Horodok,Lviv Oblast,Horodots'kyi district
1503,село Біла Криниця,,,,,,,
1504,"с.Петрово-Солониха, Николаевский р-н, Николаевской обл.",,,,,,,
1505,"ООО  ""  НПФ  ""Алькон""",,,,,,,
1506,"м. Дружківка, Донецької області",,,,,,,
1507,Лиманское Одесская,"Lymans'ke, Odessa Oblast, Ukraine",46.663889000000005,29.970833000000002,Ukraine,Lymans'ke,Odessa Oblast,Rozdil'nyans'kyi district
1508,м.Харкiв,,,,,,,
1509,місто Очаків Миколаївської області,,,,,,,
1510,"м.Дубляни, Жовківського р-ну, Львівської обл.","Lviv Oblast, Ukraine",49.839683,24.029717,Ukraine,,Lviv Oblast,
1511,Сутоган,,,,,,,
1512,с.Суховоля Городоцького р-ну Львівської обл.,"Lviv Oblast, Ukraine",49.839683,24.029717,Ukraine,,Lviv Oblast,
1513,Львіві,"Lviv, Lviv Oblast, Ukraine",49.839683,24.029717,Ukraine,Lviv,Lviv Oblast,
1514,мiсто Запорiжжя,"Zaporizka Street, Brovary, Kyivs'ka oblast, Ukraine",50.495925,30.7604729,Ukraine,Brovary,Kyivs'ka oblast,
1515,Iвано - Франкiвськ / Львiв ,"Ivana Vyhovs'koho street, Lviv, Lviv Oblast, Ukraine",49.819931,23.9695718,Ukraine,Lviv,Lviv Oblast,
1516,Запорыжжя,"Zaporizhia, Zaporiz'ka oblast, Ukraine",47.8388,35.139567,Ukraine,Zaporizhia,Zaporiz'ka oblast,
1517,"м. Луцьк, Волинської обл.","Lutsk, Volyns'ka oblast, Ukraine",50.74723299999999,25.325383,Ukraine,Lutsk,Volyns'ka oblast,
1518,Дьвів,,,,,,,
1519,"Народилася в Коломиї (Івано-Франківська обл), навчалася у Львові а зараз навчаюся в Таллінні (Естонія) ",,,,,,,
1520,"m.Gorodok, Lvivska obl.",,,,,,,
1521,"м.Полтава, с. Микільське",,,,,,,
1522,"Київська область,Вишгородський р-н,село Нижча Дубечня",,,,,,,
1523,Kиїв,,,,,,,
1524,с.Володарка Поліського району Київської області,,,,,,,
1525,"Острог, Рівенська область","Ostriv, Rivnens'ka oblast, Ukraine",50.41805600000001,26.017222,Ukraine,Ostriv,Rivnens'ka oblast,Dubens'kyi district
1526,"м. Київ, Нововолинськ",,,,,,,
1527,смт. Димер,,,,,,,
1528,"Україна, Хмельницька обл., смт. Білогір'я, вул. Ломоносова 129а","Ukrainka, Khmel'nyts'ka oblast, Ukraine",50.015,26.4325,Ukraine,Ukrainka,Khmel'nyts'ka oblast,Bilohirs'kyi district
1529,Khrystynovka,,,,,,,
1530,м. Комосомольськ,вулиця Комсомольська,48.597326,35.3183186,,,,
1531,"Родився в смт. Романів Житомирської області, на даний час живу в м. Києві",,,,,,,
1532,"Київська область, смт Ворзель",,,,,,,
1533,Лімассол,,,,,,,
1534,м. Красноармiйськ,"Красноармійська, Mahdalynivka, Dnipropetrovsk Oblast, Ukraine, 51101",48.9255392,34.907548999999996,Ukraine,Mahdalynivka,Dnipropetrovsk Oblast,Mahdalynivs'kyi district
1535,"Волинська область, смт Цумань",,,,,,,
1536,Вишневе Київської області,,,,,,,
1537,"Iрпiнь, ",,,,,,,
1538,Миколаiв,"Mykolaiv, Mykolaivs'ka oblast, Ukraine",46.975033,31.994583000000002,Ukraine,Mykolaiv,Mykolaivs'ka oblast,
1539,"Закарпаття, смт. Великий Бичків",,,,,,,
1540,"м. Нововолинськ, обл. Волинська",,,,,,,
1541,Коростишій,,,,,,,
1542,"С. Бузове, Київський р-н",,,,,,,
1543,м.Пирятин обл.Полтавська,,,,,,,
1544,Нiжин,,,,,,,
1545,м. Новоград-Волинський Житомирської обл.,,,,,,,
1546,"Дніпрорудне, Запорізької області",,,,,,,
1547,м. Бориспіль Київської обл.,,,,,,,
1548,"м.Мукачево, Закарпатської області",,,,,,,
1549,Oбанж,,,,,,,
1550,Kиев,,,,,,,
1551,смт. Чабани,,,,,,,
1552,м. Вiнниця,,,,,,,
1553,"Київська обл., Броварський р-н, смт.Калинівка",,,,,,,
1554,"С. Червонопопівка, Кремінський район, обл. Луганська ",,,,,,,
1555,м.Южне Одеської області,,,,,,,
1556,Львыв,"Lviv, Lviv Oblast, Ukraine",49.839683,24.029717,Ukraine,Lviv,Lviv Oblast,
1557,СМТ.Романів,,,,,,,
1558,Киів ,"Kyiv, Kyiv city, Ukraine",50.4501,30.5234,Ukraine,Kyiv,Kyiv city,Kyiv City
1559,Zaporijja,,,,,,,
1560,"м. Львів, смт. Куликівка",,,,,,,
1561,смт Нові Санжари Полтавської області,,,,,,,
1562,м. Надвірна Івано-Франківської обл,,,,,,,
1563,Iвано-Франкiвськ,"вулиця Івано-Франківська, Kalush, Ivano-Frankivs'ka oblast, Ukraine",49.0303724,24.4211128,Ukraine,Kalush,Ivano-Frankivs'ka oblast,
1564,Рiвне,,,,,,,
1565,місто Макіївка Донецької області,,,,,,,
1566,Станіславів,"Stanislav, Khersons'ka oblast, Ukraine",46.57000000000001,32.15,Ukraine,Stanislav,Khersons'ka oblast,Bilozers'kyi district
1567,с.Сергіївка Братський рн Миколаївська обл,,,,,,,
1568,"Чернівецька обл., м. Вижниця",,,,,,,
1569,Днiпропетровськ,"Dnepropetrovsk, Dnipropetrovsk Oblast, Ukraine",48.464717,35.046183,Ukraine,Dnepropetrovsk,Dnipropetrovsk Oblast,
